{"type": "FeatureCollection", "features": [{"type": "Feature", "properties": {"name": "Northern Plain (and Central Highlands) Including Aravallis Hot Semi-arid Ego-region", "kind": "agro_zone"}, "geometry": {"type": "Polygon", "coordinates": [[[74.68828361312617, 31.556258772411834], [75.19326377226822, 31.510243782702013], [75.45201564439452, 31.260472558412744], [75.7816803753958, 30.997516244961524], [75.92084021587824, 30.86328939141513], [76.02636975462465, 30.720840242529906], [76.10662917066243, 30.574052566045733], [76.1544321529913, 30.520765958164088], [76.29428979836618, 30.469583876556698], [76.57011604680258, 30.260376971156646], [76.5598276764723, 30.261046537741688], [76.54463494491095, 30.223253033482646], [76.59620381257366, 30.252601789723663], [76.62417120971972, 30.22699522591275], [76.61640403420786, 30.21118953262947], [76.65106970126736, 30.201909549351054], [76.65384378001353, 30.185206042784273], [76.63482323021857, 30.16626231814566], [76.63968435293422, 30.151055929224235], [76.62245483552921, 30.138648518439584], [76.66813714713636, 30.099560360529118], [76.71287954106283, 29.988496918077974], [76.7487538958366, 29.946845489049608], [77.04733189309492, 29.816345504551386], [77.1287931240333, 29.76605709118076], [77.1246684248172, 29.743747617041212], [77.15499727472432, 29.701064757758164], [77.44752623029332, 29.55318770441422], [77.56003021090152, 29.47011326469155], [77.77694277832784, 29.267220822605704], [78.27486374257792, 28.853792864510105], [78.56090614811477, 28.662516763202813], [78.8457079900398, 28.50950562946467], [79.05845676130762, 28.35554515232795], [79.11975768142584, 28.2247846007045], [79.19401218114947, 28.188754072635437], [79.37510379136923, 28.148286189227466], [79.56716805481612, 28.068781886505796], [79.67402243819733, 28.042320735487575], [79.97517142012931, 27.92120319856971], [80.05171601966451, 27.845887523753266], [80.26153306248375, 27.539507872115212], [80.33171662512673, 27.27198756697546], [80.42910760590088, 27.108847601348632], [80.49409175934555, 27.05029578365101], [80.61863107948275, 26.969602369482345], [80.77298201005487, 26.910548846290133], [80.92973907065358, 26.82943384465506], [81.0186970418897, 26.76563735818358], [81.09137784614492, 26.709198073358465], [81.18249069332447, 26.603925467486427], [81.28647845813178, 26.449817666390764], [81.47438362944601, 26.33622035288563], [81.55996274072672, 26.267246786144202], [81.60752908720843, 26.186447789482713], [81.70661023300593, 26.131848361536047], [81.80591719202123, 26.099087543552073], [82.30088163586773, 26.03901848822244], [82.46965633910895, 25.98774754955623], [82.81288109283925, 25.7944515992628], [83.03640371931394, 25.692845264000383], [83.067295480573, 25.636227704383252], [83.06612658389135, 25.58754377095257], [83.08589503466261, 25.51652432067684], [83.15718510278393, 25.468815167018303], [83.17658248550283, 25.38560677656611], [83.15656185597062, 25.334864919109695], [83.07444056578069, 25.26344160910678], [83.02636173404396, 25.269259939437706], [82.87444817689835, 25.184463668555274], [82.81118838514176, 25.229469949750968], [82.7210028615114, 25.270052355500148], [82.62460462939318, 25.271715357500955], [82.35074831012967, 25.237142594632274], [82.29633258197431, 25.18924591954372], [82.29958813527452, 25.072281701942778], [82.21117498601252, 24.907931010029685], [82.07344117243139, 24.8207436990752], [82.01314880623133, 24.847910174872133], [81.97632090527242, 24.841068249774136], [81.9674046506233, 24.827819490228094], [81.93498286972239, 24.857942139878055], [81.93665107638702, 24.87019715971389], [81.91095921929826, 24.881241576722502], [81.90675410316429, 24.90226565057374], [81.92034614507544, 24.927988210606852], [81.90283677395614, 24.984393645165582], [81.90831880485105, 25.00421776571865], [81.89977727932767, 25.01043638004811], [81.89448892982934, 24.989801748960865], [81.83773533719597, 25.01623849305844], [81.79756736060827, 25.007032004536065], [81.74076067282253, 25.04551930413607], [81.7247655914262, 25.04975405844399], [81.71372222517068, 25.034699647762213], [81.69025510674362, 25.040546322539374], [81.69144442968654, 25.053530739731187], [81.67059317679893, 25.06188211121009], [81.6670701981534, 25.076447904622096], [81.63026883985565, 25.053635258206747], [81.61272241079529, 25.05743964605296], [81.60217272746615, 25.07647080604301], [81.64034898888629, 25.099945167274058], [81.6251569565132, 25.119268300207704], [81.60962111848501, 25.096861498889787], [81.6005325906447, 25.132998178907883], [81.62349496174154, 25.140558925542773], [81.62742383429006, 25.156262382521966], [81.61842057787983, 25.17024179318314], [81.59021468818162, 25.16484016832236], [81.59645970715796, 25.18035009669654], [81.5748517767929, 25.19228587870565], [81.51802334700385, 25.183539362720214], [81.5162518262752, 25.17276515266015], [81.53844224478173, 25.159881132832382], [81.53306304607158, 25.14019223474478], [81.50383174559647, 25.148874845320275], [81.4980065482355, 25.130765441542025], [81.48126698528642, 25.133647001578215], [81.49010397596437, 25.113874898506197], [81.51595763074984, 25.10339111857754], [81.4920813266056, 25.07153474554646], [81.4092171908309, 25.104271140735232], [81.44672429536946, 25.106960733150338], [81.43860685641701, 25.130120717237478], [81.39960962743947, 25.119608248077295], [81.37287331415267, 25.13430579250543], [81.35781017434891, 25.16375716110442], [81.33834018434932, 25.168874842080115], [81.32135406716523, 25.159927692341697], [81.33136022565857, 25.114817969642782], [81.32302903513897, 25.112709937476463], [81.31478623012205, 25.162356404606435], [81.27751226866215, 25.164083876925798], [81.28315531317618, 25.14977737188321], [81.25403032261974, 25.101935691851818], [81.26989149115953, 25.06489199319663], [81.23895796142723, 25.01455185652189], [81.20995607858757, 24.992181969535448], [81.22097271973955, 24.978133710072374], [81.20824499550594, 24.96333056353896], [81.2208129213554, 24.93104296315365], [81.19263498187561, 24.925732092802726], [81.20717101527178, 24.93126753423649], [81.16964803534688, 24.954970971448645], [81.16051330175668, 24.912774202328592], [81.14826585833988, 24.912927860215046], [81.14061412662183, 24.888579590030304], [81.09768079196799, 24.920925628869927], [81.08462044866809, 24.94866311312313], [81.0348632769816, 24.95133358635094], [81.02741652344915, 24.941371117789185], [81.01770024088533, 24.950674200643938], [81.02495614262729, 24.928843423681954], [81.00817498774234, 24.936572289566723], [80.98917312252411, 24.926008522175366], [80.98041169333109, 24.93594076196342], [80.96336892571729, 24.922063092328948], [80.9449937503986, 24.96879158549956], [80.90543375011293, 24.952993020446527], [80.90818329830604, 24.93587116741411], [80.8929677257448, 24.945161793213718], [80.84302084263079, 24.93078322911985], [80.8103131326833, 24.940682581031314], [80.79810263229747, 24.967967294227098], [80.8267810507415, 24.969835064928297], [80.85633857889766, 24.994344889415864], [80.83486281392811, 25.03533564834317], [80.87886493867792, 25.067202703134253], [80.87322854351899, 25.119745093696572], [80.88368591387342, 25.140516037467798], [80.89671030341434, 25.13734112221982], [80.91320445857556, 25.156403998922645], [80.88635783551848, 25.191644701186167], [80.8445777087118, 25.18869774110182], [80.84601216380462, 25.123587764426954], [80.83593438880396, 25.10638858342671], [80.8078256352893, 25.142454058068736], [80.74630550290524, 25.1305998962974], [80.73128022267564, 25.14475630556756], [80.70785026262445, 25.133109594301633], [80.73356717362614, 25.118886714879697], [80.73342983203572, 25.09398336496987], [80.7841792813711, 25.080369830109813], [80.78411206991709, 25.05778561313586], [80.73536538335615, 25.067873119717976], [80.68170996533297, 25.050199454881543], [80.6874316408737, 25.077828789189745], [80.67645432358427, 25.082744852136997], [80.66445945816912, 25.070442500111344], [80.64339377318511, 25.093523199423203], [80.6281925298581, 25.0855466270696], [80.60951021236785, 25.100348433405067], [80.64056240513916, 25.119221328910353], [80.63312784827924, 25.133589764368025], [80.61651223410315, 25.128867603376737], [80.60278029527176, 25.151132551609734], [80.59893258019794, 25.127484444269445], [80.60961530553595, 25.1187341587249], [80.59594109900686, 25.105022597373125], [80.61491407599215, 25.068147970649086], [80.57056805400578, 25.087371734884567], [80.56811195999536, 25.070925267638597], [80.55153606364428, 25.063590602772017], [80.51762347720071, 25.09690871158624], [80.48257991907315, 25.097691693568517], [80.50808981817956, 25.08544689359852], [80.50226831875446, 25.041247572525695], [80.5484789602899, 25.031753362144975], [80.55030444524701, 25.00265092024476], [80.52147080147999, 25.0087118796258], [80.48478949268865, 24.98947294019209], [80.4813181138765, 24.976282025216875], [80.4603240738433, 24.98261313333135], [80.46624615498718, 25.000098666429405], [80.43364402755732, 25.026555242173607], [80.45435453014336, 25.041188584010097], [80.49292206469823, 25.029804601317217], [80.50174170039661, 25.037515942763534], [80.47824213723108, 25.040589522839774], [80.4487858716767, 25.07792265307627], [80.41798028005854, 25.07256599846613], [80.41330469705076, 25.056691481121497], [80.40218670438624, 25.0678553565042], [80.37379288874303, 25.053583745340234], [80.39540293754418, 25.00831003404184], [80.38083471442039, 25.00420841831577], [80.36684760724778, 25.021931779955185], [80.32208519192682, 24.999356845257843], [80.27489867987599, 25.026035102996822], [80.28955919550938, 25.05582424482137], [80.31139697218435, 25.043100635709067], [80.3530714189586, 25.054368933942143], [80.35004611416751, 25.089256738041023], [80.37687514962926, 25.111137936095144], [80.35560389613143, 25.125772267474648], [80.35937701585632, 25.140644403963574], [80.43182240103353, 25.16990535319722], [80.40723433015538, 25.238661693125117], [80.38619859306547, 25.23319710512635], [80.34915188420997, 25.274222087633948], [80.31220391850054, 25.284483863986225], [80.31899205080171, 25.382842261718615], [80.26412814329308, 25.424166690553072], [80.25342571907706, 25.400361706415207], [80.21958655697614, 25.399398549781303], [80.20215536779493, 25.41165929703147], [80.19608784307243, 25.37911373004918], [80.1673549401811, 25.37308861917223], [80.13144037625172, 25.333886610040484], [80.09142152088255, 25.351249918970513], [80.07813831410066, 25.33852039923026], [80.02883497026612, 25.33855350752826], [80.0206920874859, 25.29714519769552], [79.99928113123197, 25.278587345550942], [80.0047401962137, 25.264094112809342], [79.95056716062253, 25.267289623158053], [79.92141241139649, 25.228871924153207], [79.91035207676269, 25.252318111596104], [79.8550553196263, 25.235589788092728], [79.87095119576318, 25.21459771197452], [79.85973596621037, 25.19889304341076], [79.8684582640348, 25.151518350401567], [79.88004368074321, 25.143981568865097], [79.85549445930876, 25.12886582863533], [79.8570240983162, 25.092484181380758], [79.75342626444362, 25.139295651094475], [79.67390455110322, 25.122504852602784], [79.62775361027836, 25.138018008937344], [79.60557937003709, 25.126785192686636], [79.61051675482842, 25.150099286782922], [79.59740436790443, 25.142613894360736], [79.57323327758937, 25.17284896934091], [79.5214124303349, 25.12104054392342], [79.52484808631121, 25.097130101098823], [79.49746113754381, 25.07809109671458], [79.46810766176887, 25.09165442859952], [79.47600444883209, 25.12974239177343], [79.43864229869025, 25.102797506889814], [79.43873516981061, 25.130668109544025], [79.42269996985813, 25.134362716135975], [79.42252719117442, 25.118272867755415], [79.40670084406803, 25.108738004269192], [79.38780267989567, 25.14436401058062], [79.39145961954111, 25.165509762186137], [79.41720074396703, 25.203965405943368], [79.43978611948855, 25.197998495045507], [79.45036054802333, 25.207775648954573], [79.434677000078, 25.2202498436787], [79.4668959938845, 25.264638431395795], [79.49814315096171, 25.26554361304441], [79.46515285246493, 25.279047416348245], [79.42298921515687, 25.25439471854734], [79.40889177017301, 25.257531106977833], [79.40957321811615, 25.274408820042606], [79.3751107577302, 25.289450358747846], [79.37338107449068, 25.263220664349515], [79.36061901698079, 25.260526690756432], [79.35737804997815, 25.28355341962676], [79.3384079596487, 25.28916685690931], [79.3535714254184, 25.328128151366652], [79.31189714977792, 25.334923684887205], [79.2677600296657, 25.305319078183], [79.26409361250118, 25.274568662850193], [79.27871750221561, 25.261614571025127], [79.2953660727598, 25.285345764728067], [79.32229921994237, 25.256527589695008], [79.34772782810897, 25.267892215446988], [79.34874480698619, 25.225651854897947], [79.33672242034564, 25.225066943313294], [79.3545571886951, 25.209417392671227], [79.34016866764334, 25.196015912879307], [79.33294089577252, 25.21760134243663], [79.31835650804628, 25.214642793208014], [79.28117163824457, 25.243252569470663], [79.28634527763522, 25.192566849217698], [79.29382154608469, 25.182946200632188], [79.31098209602308, 25.20008102347653], [79.30467200900831, 25.174185362796067], [79.32208614666172, 25.147091192971256], [79.28403134575126, 25.115482428166995], [79.2655561653318, 25.119234663068358], [79.26669350669, 25.148461158609937], [79.25332506209249, 25.157144885980443], [79.22135847641577, 25.14355641403345], [79.251005915531, 25.135983763062924], [79.24582736274715, 25.111574925965943], [79.23022480809956, 25.11845079192219], [79.21379557585277, 25.10895757956132], [79.19229684848548, 25.14629116855205], [79.17418092365409, 25.13751001783857], [79.18671590361872, 25.112877390342593], [79.13170875670319, 25.107034309894402], [79.12219164969427, 25.11296213151296], [79.13248376327478, 25.124375496414046], [79.11518787736658, 25.1388433867501], [79.12782968012384, 25.159305653302372], [79.0979736230333, 25.171345820927108], [79.09169504763273, 25.187625921257435], [79.05037357212522, 25.13327414822667], [79.02907775407787, 25.138299561952955], [79.04312904639683, 25.168991349164088], [79.03194895623638, 25.181648551231024], [79.06384765700732, 25.220779149833053], [79.03387054782797, 25.229719860274034], [79.03679150561241, 25.24438602148024], [79.01950680003733, 25.243271893125865], [79.01238750178565, 25.271981430606587], [78.99416732176252, 25.269963370880557], [78.97852225108002, 25.23994630755651], [79.00204554364986, 25.228793180107644], [79.00314407901146, 25.191009645364048], [78.95565172101901, 25.215210800752764], [78.88435758664784, 25.157229313356034], [78.87461581924578, 25.18499676305797], [78.88968751088827, 25.206082755821434], [78.87434854702177, 25.227540421464564], [78.87947196699734, 25.245781189951728], [78.8989874723135, 25.240464666269585], [78.92255975037055, 25.270683273367634], [78.95353522277506, 25.25877461535421], [78.95491400386352, 25.278687822327118], [78.97743929282281, 25.28020736115577], [78.96019077356358, 25.306844801277663], [78.96320931749877, 25.342711196851486], [78.93501004057775, 25.32666008802969], [78.92628121233689, 25.34093187482278], [78.88387704426222, 25.33938746305225], [78.86375816437686, 25.311902611894322], [78.8797447709637, 25.283177178791686], [78.84900131667888, 25.22416219282886], [78.81286953286144, 25.265889000916733], [78.81895579677952, 25.294784569436004], [78.7984767714289, 25.287955719994446], [78.79054376182228, 25.298111726342487], [78.85083941299173, 25.327292482256578], [78.84508509516469, 25.3470816836132], [78.8821554041076, 25.382559214548934], [78.95682633953507, 25.39507987004243], [78.93857631949098, 25.3720457666599], [78.89986735909501, 25.370218104906588], [78.93605099350091, 25.34674304254408], [78.98597750386858, 25.37095000868536], [78.96764611662077, 25.433783305092106], [78.95008120077286, 25.436587840835045], [78.93662120894142, 25.42322346025412], [78.91070459298429, 25.441811409062748], [78.94316304030428, 25.474878843471156], [78.92393709946379, 25.515575822110694], [78.94947892854755, 25.525976269645707], [78.949299589029, 25.546253329778885], [78.93326404269358, 25.554765582848674], [78.9244084361004, 25.53610602577968], [78.91794557919754, 25.554139612118608], [78.88865550086567, 25.554982027341527], [78.87653613145308, 25.545958015232692], [78.88353275171013, 25.51912401309832], [78.8358050954218, 25.50479263437517], [78.86462257893007, 25.461988254672747], [78.84165693900339, 25.427320647186065], [78.82127934844658, 25.44115560176049], [78.85319082661255, 25.449246025461427], [78.83731573621944, 25.460532014892145], [78.79694423045049, 25.478329120766777], [78.76394452261806, 25.470968727761306], [78.73913914610765, 25.495445669534867], [78.73200925058048, 25.458128845757322], [78.76242707860466, 25.42869017484507], [78.79683740080074, 25.436869738880983], [78.8203028959836, 25.42529127414517], [78.7504644865038, 25.407550473211458], [78.7488642817595, 25.393447592986483], [78.76695244513769, 25.396938284305243], [78.77165051674973, 25.353294387998428], [78.72085131332032, 25.347873899824133], [78.71109968120544, 25.35353238204967], [78.71629030315061, 25.373621313898187], [78.66512237599052, 25.38283135494212], [78.66376853967328, 25.414962480888775], [78.6763450280154, 25.39872283597795], [78.70870775904285, 25.423691585804743], [78.6930719057332, 25.442611669306277], [78.68218956163822, 25.43296078489905], [78.65998391242402, 25.43881794678599], [78.64093282361189, 25.43287413375162], [78.63581330524383, 25.401294186725288], [78.61071659008529, 25.411896147462052], [78.59551373205898, 25.386943299038084], [78.56827552399261, 25.390523479705276], [78.5640221930532, 25.378985014357955], [78.5849174679326, 25.371978867303778], [78.5833395439788, 25.34679125654755], [78.53225485581683, 25.35785687389759], [78.54852772625303, 25.32147283389177], [78.53213221236838, 25.301402928202318], [78.50727888927923, 25.299002357104353], [78.49920517536971, 25.31869033695752], [78.4740469599876, 25.2878831541268], [78.44756748439039, 25.29901870561339], [78.43430354293987, 25.28353987633338], [78.44268238772783, 25.268124607079134], [78.46097297549296, 25.265485880027587], [78.5037001033735, 25.28873839993561], [78.57142355612805, 25.260115893328855], [78.56850702478239, 25.222383104018018], [78.60069267893043, 25.152375100799755], [78.60408896774626, 25.092890980711157], [78.62726024957075, 25.086628644743712], [78.64886554723637, 25.05654411265583], [78.62888615531483, 24.96002662387762], [78.64927991220421, 24.947788617068646], [78.64733656104654, 24.9354990081516], [78.66055970082743, 24.939359043690033], [78.67522633404381, 24.897580525238766], [78.77404734317403, 24.85091385084694], [78.78794179550242, 24.805793602695275], [78.77138007110061, 24.79027969423286], [78.77915348711353, 24.699489710558662], [78.74676806447468, 24.65534168285475], [78.75613529615568, 24.60039878269195], [78.78357864659107, 24.588532508384596], [78.83552500813893, 24.603256620814427], [78.84277564423417, 24.621013184175226], [78.8591701245066, 24.61638422371968], [78.87986992308582, 24.64237980619413], [78.9199503130259, 24.576793555895254], [78.9514652370616, 24.551735661931197], [78.95093655392682, 24.50507759974868], [78.97227243212016, 24.495863815179924], [78.93746793307115, 24.48012580716206], [78.92432823142856, 24.49807313534047], [78.90759971448001, 24.479152487210506], [78.95113286532606, 24.43888873455231], [78.98874878657413, 24.442879041196413], [78.99451938155677, 24.423623382047765], [78.9735569503754, 24.349374228798293], [78.91435587347453, 24.296960561049527], [78.91829299003066, 24.272254130792756], [78.88562743230594, 24.249768137795012], [78.88536951254436, 24.218841269938892], [78.8307115083288, 24.19708215110603], [78.81997725608024, 24.206052383150872], [78.81213069411727, 24.1800898541539], [78.79810428838735, 24.176023222899442], [78.76695381624043, 24.229576428450518], [78.76671875180521, 24.25420091674598], [78.75229228874906, 24.23498556457794], [78.73863757405387, 24.24951831748357], [78.70521385799317, 24.23018051118403], [78.67546019200518, 24.24070349435721], [78.66078548310466, 24.26939969949539], [78.62804452311093, 24.28189260630104], [78.62914544124398, 24.305469873195904], [78.60839989609329, 24.313900451643566], [78.5847590546109, 24.352644138078844], [78.55888529900086, 24.35618401749738], [78.51166170699065, 24.389467710163526], [78.41305792042232, 24.27258519514241], [78.38844317894245, 24.269501908235362], [78.34849571846284, 24.300917657647055], [78.33149142328331, 24.329880170974153], [78.3670914651496, 24.381267271124536], [78.27296597857611, 24.442784780285198], [78.27572725594555, 24.471571798042834], [78.24572129927017, 24.484833826142253], [78.2462729101189, 24.504944588647973], [78.22264489057453, 24.526981176074603], [78.26504079660566, 24.553519705502573], [78.27607865806701, 24.610663441540133], [78.26293150679017, 24.643890683458626], [78.27474409546502, 24.66235880731773], [78.22668213937627, 24.74255547958214], [78.23018767927424, 24.778165188075686], [78.19322854829404, 24.837924666944335], [78.03038128448081, 24.847662516421053], [77.98000044782535, 24.86832631168667], [77.96196419122236, 24.953346456201405], [77.90804247599371, 24.98307432554601], [77.75875928455926, 24.923128504765348], [77.72936051930024, 24.886159430644106], [77.64242385858289, 24.893991923014443], [77.62534271979638, 24.915045390840802], [77.51946791583315, 24.864660364372106], [77.42555460222225, 24.887484228022334], [77.354282890231, 24.944136831155713], [77.31089742326652, 25.080002124578193], [77.39236104271211, 25.11693040470279], [77.40423550370754, 25.108240483091983], [77.39263297848541, 25.127928360987216], [77.39645820397917, 25.183128996372975], [77.42379751983708, 25.187954974012406], [77.41222072354849, 25.221200935146392], [77.36851342571563, 25.244979654737545], [77.35546192258414, 25.266673705173613], [77.38065049777477, 25.300730451608512], [77.36962839867331, 25.3278727283245], [77.34225117628108, 25.3204688108274], [77.3619478688724, 25.3627509686971], [77.35018201579078, 25.382778323725248], [77.36729096600513, 25.407796775630633], [77.36029945110745, 25.418851532240005], [77.31122022712222, 25.431253466894894], [77.28887064304848, 25.41844582596383], [77.22600105832724, 25.368321123411352], [77.22071206662201, 25.319409729660673], [77.20383627807517, 25.325437982572506], [77.21081388792372, 25.30634970185882], [77.15916058824683, 25.30818042267448], [77.12135314467449, 25.329999832209438], [77.08100374292559, 25.33463806455566], [77.06372737278105, 25.316883645377853], [77.0448088631032, 25.3200202906872], [77.02961483446524, 25.296082239706173], [76.96407263892202, 25.292178936730192], [76.94710930352916, 25.270377137983502], [76.89848614718058, 25.317426106343625], [76.8481856254566, 25.32557234053713], [76.77519187381405, 25.30726560466513], [76.76494196121129, 25.31775300730967], [76.77183849836102, 25.33129537062442], [76.74550714295131, 25.34286818226096], [76.68610049370685, 25.340583034066537], [76.64859989546088, 25.371513736758562], [76.60749199371166, 25.38410813162045], [76.59394463627801, 25.426607288390286], [76.56923674579821, 25.43753227627058], [76.56131568594193, 25.47493640347874], [76.52531775173985, 25.52506749455754], [76.51985258629263, 25.62879243984817], [76.50456103205772, 25.643459273922645], [76.51595635366132, 25.66793526655729], [76.4868941250163, 25.684516331206858], [76.48305540193296, 25.701142154720127], [76.48757434197269, 25.713238937151356], [76.53589205084845, 25.729044275805087], [76.53465460419368, 25.79303288333436], [76.57572748938571, 25.84000292070924], [76.37339527669839, 25.843568422293426], [76.25018925691161, 25.82360230292982], [76.02573349448626, 25.859433784348834], [75.90248887090468, 25.841626212990203], [75.71158599444117, 25.756108604863762], [75.61543619088576, 25.736377645706263], [75.53065766709354, 25.699862510154087], [75.28906054330268, 25.43265082654895], [74.94254310908575, 25.206706415869096], [74.84712114012345, 25.181626644093793], [74.72914400262323, 25.184964807620393], [74.59429241371407, 25.207121920043797], [74.38041912325467, 25.19706758708058], [74.29732696083036, 25.137968588512997], [74.23699931439148, 25.050420177991516], [74.18319567347753, 24.938710490976234], [74.14814517571604, 24.769176693722116], [74.20504235960539, 24.632363755832355], [74.31257236694154, 24.492531875841493], [74.38670461887278, 24.3197173189255], [74.35465701306579, 23.896738358282107], [74.163239609666, 23.789588505786398], [74.12731348911385, 23.646784167088548], [74.03874728025013, 23.55800762308732], [74.00835331281847, 23.47146954876168], [73.96168929516996, 23.37848263243319], [73.9442361146852, 23.371741437385488], [73.93577538486822, 23.33965571927483], [73.89100392407657, 23.335435307918647], [73.89168806831248, 23.350886060446168], [73.82885400162971, 23.445134019030263], [73.77964500902151, 23.43308180494924], [73.7571875656449, 23.455308874693788], [73.69656613085046, 23.348273222009578], [73.66307719749398, 23.222507896602394], [73.59341457524772, 23.190328570656476], [73.51934312605763, 23.088421529673564], [73.4619885019175, 23.04938531480957], [73.18404747072974, 22.996941642519108], [73.04601337488091, 22.917517002606377], [73.01524474147756, 22.828296551722623], [72.90384497428273, 22.771908856008977], [72.67662940573497, 22.742821587351372], [72.52821266980096, 22.647765690695557], [72.45422697900648, 22.563599321880904], [72.36749428622713, 22.497048575456088], [72.11644671648384, 22.480530564478112], [72.12734514055545, 22.495735720846845], [71.67184828012361, 22.28836723885821], [71.50462509178203, 22.1985411610748], [71.31492556449247, 22.15481366405529], [71.21315300638693, 22.148927854725162], [71.05352348108904, 22.280340002227852], [71.36316651641174, 22.39672853612055], [71.569758702783, 22.65240761607633], [71.86825878665603, 23.242167450584212], [71.87027774486396, 23.315486197424704], [71.83475256103232, 23.369627735395763], [71.90275411512081, 23.387985369265653], [71.97379840318767, 23.457629354553656], [71.9765225419683, 23.541962639148444], [72.00786994381026, 23.61315442739131], [72.1825458702835, 23.61487364649014], [72.2729760214063, 23.630454809221686], [72.30782050633697, 23.71273212647246], [72.30131750190209, 23.822203077286897], [72.37613768518516, 23.90280554256771], [72.61473214597497, 23.97671063760718], [72.69401724003579, 24.053698365542086], [72.76453273574683, 24.07533880555841], [72.90943987230663, 24.049177405975154], [72.94639588090793, 24.102107517391627], [73.01006898969212, 24.251374671807906], [73.00411012417806, 24.287690673617213], [72.96144982395285, 24.351392567962712], [72.98734873341606, 24.364011459067893], [72.95912937249585, 24.383861810439853], [72.98661902826265, 24.42096368481324], [72.9770371739684, 24.451146247892662], [73.0826602744336, 24.63920831655897], [73.2433193779649, 24.831675090563152], [73.35067998591366, 25.02896968137356], [73.57314129323348, 25.182222533129334], [73.69737053894961, 25.379908682262975], [73.80103376600809, 25.51083278716457], [73.89394986050144, 25.702171079810878], [73.97131622778308, 25.82946588491078], [73.99984807484533, 25.852498298305946], [74.0489141884102, 25.83976296715486], [74.11801143614797, 25.85944576031123], [74.15980959362383, 25.94629337290181], [74.16273647141996, 26.000000822642946], [74.19797456412867, 26.054911850422823], [74.34065336441282, 26.181949403121266], [74.37321459873424, 26.239146891885852], [74.3795820511406, 26.278345172397245], [74.35498216361452, 26.284764691968736], [74.32067762428032, 26.266472277192182], [74.2853980791623, 26.270056644865164], [74.29447742193771, 26.428691640883986], [74.34134955148063, 26.469357405589026], [74.4563407731442, 26.5002590642258], [74.66791546165703, 26.617171981138448], [74.70248385227029, 26.761974135756443], [74.77167643736358, 26.85922378193458], [74.8504011706894, 26.925104418194064], [74.90877974175244, 26.958644429327794], [75.02055905805479, 26.947624364076965], [75.12324410652677, 26.960578374225882], [75.20773538257366, 27.024010700943844], [75.267692136461, 27.091520907608732], [75.33161585191922, 27.200476145954127], [75.43136466560028, 27.30070144145223], [75.53861367961869, 27.347553198333344], [75.6714452938933, 27.365846778580668], [75.81975861018434, 27.41118884466339], [75.88935417182725, 27.44949319237677], [76.00348824405518, 27.717429112752978], [76.09579397531259, 27.863945560012212], [76.12986899314373, 27.84985342673162], [76.13546675128474, 27.828645059682827], [76.18064879009503, 27.802841742689523], [76.20190730329242, 27.826581554271726], [76.2311005453505, 27.83626757031614], [76.20094080041883, 27.859289460161396], [76.20653454008874, 27.894366853091302], [76.1743361615921, 27.910481155745423], [76.18745073929927, 27.96825972741531], [76.16894460034496, 27.97553844006998], [76.1629378665971, 27.99444692015444], [76.18231818799836, 28.01735180571849], [76.22192914448927, 28.02708871102186], [76.21228573855538, 28.037659329742223], [76.20152153707245, 28.03064271280321], [76.1854680159331, 28.054710008217533], [76.23411273878773, 28.050576720933226], [76.27314905004654, 28.06408839383273], [76.29831546152339, 28.044422639407635], [76.29831260788781, 28.025210015853602], [76.32481279640893, 28.016265250872934], [76.34503553437166, 28.024924223090025], [76.36161120761614, 28.06082261857887], [76.30571574327452, 28.09637076191829], [76.34793860415482, 28.104978058202903], [76.36402318538345, 28.123712361297898], [76.2851998418873, 28.168127178783077], [76.32187167319955, 28.17706450707559], [76.33590335772581, 28.288704832629872], [76.309935881258, 28.354892912658485], [76.30389716261585, 28.442781640212573], [76.41859931390078, 28.63355540993891], [76.41332451079829, 28.697154371813625], [76.38669510343482, 28.784534757496047], [76.33954565306506, 28.86536465426788], [76.2974105729846, 28.89169383544253], [76.247450293882, 28.948157216911998], [76.28352551945152, 29.12487584400409], [76.21044609791795, 29.36870174335075], [76.16437116276411, 29.403976182926815], [76.00639876532315, 29.472861012100225], [75.95646740648648, 29.517065812964134], [75.93616487166844, 29.607446254960763], [75.95157015112082, 29.73059187546176], [75.90797043404804, 29.752225731287503], [75.87445995068146, 29.749078665772515], [75.83978622876643, 29.809176150494817], [75.80677085777417, 29.804027525112637], [75.7823630456084, 29.82234787846157], [75.75908760917463, 29.809110373362543], [75.74765355087055, 29.92604387909732], [75.5947661266176, 30.118114953343213], [75.49988056111475, 30.19903677826345], [75.32951021879055, 30.281368881589437], [75.22503714159423, 30.492510461309354], [75.13943875206897, 30.53715521514201], [74.97493574375181, 30.56119085591145], [74.87471958450936, 30.75036974988942], [74.75446213071164, 30.811839927667155], [74.58192539969627, 30.817083667347543], [74.54464427697317, 30.804959184402406], [74.45276409389645, 30.700276780047467], [74.39423830308452, 30.694645518326283], [74.27175412097975, 30.73074542989468], [74.28778729709484, 30.740488825527386], [74.26413000691024, 30.773179852046326], [74.30853495648215, 30.78390959359598], [74.29694067123826, 30.80082382002618], [74.32748482990382, 30.848796151324997], [74.36267437244902, 30.84909213412612], [74.38460541539337, 30.862667329847042], [74.36418986422093, 30.878772313513412], [74.37229435337129, 30.894945703424188], [74.42683112942663, 30.912215480961873], [74.41342179003254, 30.92650751734692], [74.42886092293497, 30.92711702128299], [74.42514794993568, 30.942927929302176], [74.46049358707009, 30.952930112741953], [74.46936522009301, 30.961961883372584], [74.45967388705984, 30.969665716563863], [74.49262939776344, 30.977116402256332], [74.50673604156398, 30.966425118070486], [74.54840839601582, 30.992979832263718], [74.54366571914338, 31.01353004411106], [74.5655843839295, 31.05421180826397], [74.59180772390654, 31.058282843730584], [74.60596734127992, 31.041342492703414], [74.69532298256192, 31.07271178227029], [74.70214088001428, 31.117654490668844], [74.6649132479836, 31.135767945056624], [74.64338190400679, 31.121999057316962], [74.63735051645739, 31.138023126834483], [74.6071804404055, 31.13578543721682], [74.60855550591602, 31.09170804217671], [74.55925424131681, 31.088322464587396], [74.55551659800088, 31.12266717143435], [74.51748297287783, 31.13756510474024], [74.51344850975924, 31.182731702353124], [74.53454951988047, 31.248722661666292], [74.52350491740138, 31.273574323331395], [74.54455633867752, 31.304297085321668], [74.53035549151356, 31.31626839707168], [74.5528134781344, 31.33504211737775], [74.55353182197297, 31.366899051843248], [74.58796487216107, 31.383848459303074], [74.60251363037268, 31.422723397561697], [74.63125102810966, 31.43000413538851], [74.647749703724, 31.415847829974926], [74.65632424333442, 31.427905749310582], [74.64210854712323, 31.445837885470002], [74.65495426729278, 31.462702247649126], [74.63364923504906, 31.479210570083335], [74.63937263484354, 31.487911814653742], [74.57909973219594, 31.502251582308165], [74.58592008957584, 31.52098250389907], [74.61405909100405, 31.5309541758433], [74.61317876173284, 31.56410353972135], [74.68828361312617, 31.556258772411834]]]}}, {"type": "Feature", "properties": {"name": "Northern Plain Hot Subhumid (dry) Eco-region", "kind": "agro_zone"}, "geometry": {"type": "Polygon", "coordinates": [[[75.3381897240756, 32.219420931232065], [75.60622014659624, 32.08355767568844], [75.59364381429104, 32.08143957031587], [75.61341008627923, 32.065695050300725], [75.66430066270144, 32.076770356734315], [75.70475702544637, 32.06102312116806], [75.72539588323397, 32.03543021969474], [75.7529222856286, 32.03516010186309], [75.7991640853616, 31.99353005432247], [75.90942332016768, 31.948728761208894], [75.98614352306987, 31.813163953826766], [75.96756656721584, 31.822619116427987], [75.93644909173987, 31.815885155132857], [75.99022972693636, 31.693780612599493], [76.01912166449834, 31.66138613830263], [76.01709395492696, 31.64491842912822], [76.05834616446862, 31.601247949010606], [76.1675266409262, 31.411807212219472], [76.14893020303595, 31.359538353378507], [76.18020482010826, 31.3391614876278], [76.18666318615197, 31.30439009757443], [76.26950928362821, 31.31247333191628], [76.27506866038851, 31.303336326881894], [76.3100448563443, 31.316670788777877], [76.30995831996871, 31.33971175133464], [76.35068975687048, 31.350441410227553], [76.32995460849202, 31.399900904968018], [76.37333618294348, 31.41309535295608], [76.37736510904105, 31.438835159969226], [76.40454450717876, 31.394725919017986], [76.3933888230146, 31.388568745014762], [76.46230142474768, 31.303191103855372], [76.44512693266641, 31.280058399741865], [76.48075123356652, 31.30738437948917], [76.5025930006832, 31.270505982762295], [76.52829706471853, 31.280160573786723], [76.5320865088429, 31.259367661712925], [76.55121431429525, 31.280995387042314], [76.54893026581487, 31.252375679390827], [76.58456708796459, 31.27714368432976], [76.61564101439146, 31.24783344312231], [76.58992673978734, 31.22271575785752], [76.59455565820365, 31.213259629354386], [76.63026358101114, 31.226324721574482], [76.64939938750787, 31.20982138632861], [76.60428507939757, 31.17972777425133], [76.61259189373801, 31.147998220127175], [76.6031126707068, 31.124516718954695], [76.63952192765606, 31.106985000823368], [76.61262745609912, 31.05028023806015], [76.62364350331795, 31.00090729052784], [76.67618408835486, 30.967694365629573], [76.72617146707863, 30.95990321010621], [76.78337062615898, 30.90275598311013], [76.82376777140067, 30.926705825994677], [76.8292722751665, 30.89230831970492], [76.86593949892779, 30.866908680970557], [76.91574773209837, 30.893415767306486], [76.94099800747004, 30.833453325814787], [76.96721702330345, 30.80725658318795], [76.99253965891748, 30.794811101233527], [77.01146150625573, 30.810288251883748], [77.01348261452823, 30.784994867281274], [77.00204329722584, 30.77304899207104], [77.0264731742438, 30.738135350136123], [77.04712292204525, 30.751325604179236], [77.09026222771176, 30.740606163269], [77.1651182754815, 30.686233954551717], [77.17070984158471, 30.595198429592074], [77.12462236846555, 30.562965633865105], [77.14417557336108, 30.537138610055276], [77.19845613832669, 30.52144441442434], [77.21564545996104, 30.47585052250916], [77.26487689722335, 30.479881120395056], [77.27664232730324, 30.462113328317518], [77.32376004892781, 30.449002953010343], [77.35917252740967, 30.457252772016393], [77.36988269291119, 30.43739412338705], [77.39349097756856, 30.441454411820096], [77.4136602825531, 30.414026585455446], [77.46373134067365, 30.460489582037482], [77.46649351409229, 30.435595586921586], [77.42896447907864, 30.408083725399074], [77.44801877893926, 30.398915657231417], [77.49995563010867, 30.407805854775873], [77.52303900212594, 30.444023475030058], [77.55186891145058, 30.39705222561483], [77.5784544305023, 30.379994836558737], [77.5880067129839, 30.37962483452693], [77.57620359151623, 30.399611453838627], [77.58812029327083, 30.406856687922545], [77.64740616859359, 30.405951769395376], [77.68647916633138, 30.380668032345028], [77.72390950505478, 30.333723875930623], [77.92995359928979, 30.250934786352246], [77.99487689510119, 30.189314471471814], [78.0990139179332, 30.02690213037009], [78.31354971282491, 29.85961238874554], [78.36385225276986, 29.780550548095547], [78.5001593101316, 29.735600690373253], [78.53019200823601, 29.633323709495592], [78.58886347416345, 29.574699516371748], [78.70569119918062, 29.502956595911726], [78.75140432698144, 29.499040109449844], [78.79782721502053, 29.470083162640172], [78.93216866736078, 29.454157925699676], [78.88242862965615, 29.386371828960357], [78.84473950322207, 29.37536415775515], [78.84100880458254, 29.36218620331434], [78.8211718353539, 29.376897161028182], [78.80093483402884, 29.323289209107145], [78.79459064513372, 29.340457131345236], [78.76951844301621, 29.343776221574252], [78.72589315779442, 29.311378321073057], [78.81187908075567, 29.251850959605203], [78.86464575425315, 29.25528844043894], [78.91112103663559, 29.19655037028702], [78.91230427603452, 29.144572451243352], [78.95629271178578, 29.14353105002405], [78.97427154883083, 29.16074849406857], [79.01245590153052, 29.110483862590534], [79.02889756189514, 29.11178945651396], [79.04288469779823, 29.12415049085039], [79.02067884838482, 29.13014801927146], [79.02291914255929, 29.151154058704268], [79.03835305923918, 29.143791667581937], [79.0389436064319, 29.16620755071586], [79.11270775467166, 29.12560575479616], [79.14277652188086, 29.123280820292766], [79.15591186251909, 29.100533275701757], [79.14886016793173, 29.063255099530505], [79.17727033686367, 29.04516244946456], [79.17010353530594, 29.01678682985398], [79.19678224069865, 29.011903850924703], [79.21588038618461, 29.02301696490498], [79.3106991335698, 28.946997269417874], [79.36370328484702, 28.94631811710695], [79.37151526820084, 28.9643727995541], [79.38882917254928, 28.930931191638315], [79.4132368563238, 28.926154161406835], [79.40737966837374, 28.879331665839956], [79.42291472094082, 28.849758364239854], [79.51898731260307, 28.85719127775458], [79.54825350007755, 28.886438586001095], [79.56576368762612, 28.872417384170397], [79.5653575609012, 28.838939399394263], [79.62499447830302, 28.862474148878682], [79.66266482095801, 28.801602758419307], [79.74547086425272, 28.714413342998423], [80.11271187539745, 28.503448360916252], [80.3309547705254, 28.43032579847152], [80.38422119333, 28.339171101742323], [80.43751193321033, 28.27712253531088], [80.7817340308445, 28.060890285713576], [81.07131400488073, 27.825997512678704], [81.25884208122766, 27.72256811474383], [81.29510009956255, 27.66395474120256], [81.31839803515818, 27.543461588924583], [81.40212516539016, 27.349492258512907], [81.42468494123295, 27.17788151501095], [81.48473514583247, 27.082490471390738], [81.81158519658307, 26.85652192235919], [81.9651778793809, 26.792644244183297], [82.06716567089762, 26.813228459124108], [82.15261003680085, 26.81572928576421], [82.19307899311785, 26.8042221698559], [82.22483255244795, 26.759985662680005], [82.32522594778304, 26.692841301836992], [82.44224409602424, 26.650916838456254], [82.80589023976853, 26.564529407518695], [82.97053299070394, 26.488486002588466], [83.0744563037941, 26.424417926986564], [83.22808996576867, 26.406719920052602], [83.39159158579811, 26.304678148560903], [83.54816607547968, 26.253731974712583], [83.73880282702622, 26.263892580975874], [83.79076347010721, 26.240729779195703], [83.86127019141973, 26.162311145738006], [83.94853526680454, 26.105344381638616], [84.09983883572794, 26.09427273149193], [84.1760003707827, 26.023326171369707], [84.17492730166794, 25.989376000322398], [84.20096303561024, 25.987429160800726], [84.21049957384722, 25.99845693673317], [84.30492613077308, 25.945005264284706], [84.35997703842025, 25.9573837387314], [84.41682909114765, 25.929468387757204], [84.43181126533482, 25.890576348472155], [84.49376718431873, 25.887461265784243], [84.51499200573254, 25.870625972959115], [84.5370835801521, 25.87600466379184], [84.54897848696521, 25.86041189587861], [84.52843368500066, 25.85941354504928], [84.5353868726991, 25.832627550858096], [84.5649441780265, 25.83583274388301], [84.62857045176037, 25.79249513823796], [84.62906945846227, 25.770802282062196], [84.61845739107694, 25.77569360221155], [84.60885629075104, 25.75905571363496], [84.63062635748622, 25.74576757435717], [84.63247383921654, 25.72637253719333], [84.75210229170256, 25.691455431257662], [84.81966562285108, 25.68645189799685], [84.90456913446242, 25.713029339651015], [85.0196152265995, 25.7254358710004], [85.05961596069498, 25.716830780577535], [85.0879823462474, 25.699826020095], [85.12120359844661, 25.643187638423683], [85.2436525772048, 25.601094556770022], [85.31147271989605, 25.515473747424426], [85.43712427925503, 25.44970038085269], [85.55348807466495, 25.422183076562774], [85.61483645595457, 25.389267485196303], [85.63534248250421, 25.34319377621048], [85.6970035026921, 25.28244651258764], [85.71310323132899, 25.246756873914215], [85.72257893320949, 25.206922394665476], [85.6959102445317, 25.149409470765576], [85.70705267272093, 25.110975027424857], [85.75810504452767, 25.103232756493114], [85.77631924406592, 25.0440525959345], [85.82528557344203, 24.9910246288707], [85.83584454440128, 24.940897134476252], [85.86480397928752, 24.907621668941655], [85.91428675775416, 24.86770389354408], [86.04437296388699, 24.80415264987587], [86.05732676794517, 24.77988918380423], [85.95709379527774, 24.732468604393844], [85.91734840811738, 24.75396841625084], [85.88467216735738, 24.80052423840811], [85.83414284360025, 24.80982902895804], [85.81758708246772, 24.79470161170372], [85.78419061868493, 24.799124985192588], [85.7437418527738, 24.822778650830355], [85.71174235855678, 24.76899075339017], [85.70360211695233, 24.713693283002474], [85.68661086231968, 24.694004866436455], [85.6564984794236, 24.687259629017884], [85.67902415699407, 24.619709030279328], [85.67158873515368, 24.58227992771696], [85.62236620375461, 24.583250837423225], [85.58352872735296, 24.603279901407028], [85.56979749079873, 24.591551435151697], [85.57523530081124, 24.565497995575825], [85.56156369491647, 24.556438938777198], [85.54376405879664, 24.565535364138398], [85.54340405671267, 24.53633747237783], [85.52525792176348, 24.52487235926837], [85.49346523424389, 24.551025779586197], [85.44027500608276, 24.536344303381433], [85.41364391881605, 24.54588940851687], [85.37731512391774, 24.5298094788629], [85.2896066675045, 24.526863464518012], [85.28904718003699, 24.497410924806555], [85.25359719241764, 24.495473815259157], [85.23103983162089, 24.471386887722094], [85.1578045709893, 24.463032547016642], [85.17648366575237, 24.429683581648366], [85.1221936033334, 24.40922588281454], [85.09655285918807, 24.379413235459698], [85.07261924992669, 24.386958522412034], [85.08334230762505, 24.440006444289168], [85.06045018838797, 24.415282386605572], [85.0392833932632, 24.42547451600891], [84.99760338074785, 24.412338667403535], [84.97576234383995, 24.37608799852509], [84.90524773819809, 24.37222417018964], [84.90542250854756, 24.393882211973494], [84.88516807213983, 24.42265817733506], [84.88746361435692, 24.462779047866505], [84.86705250164918, 24.456603452627977], [84.85478957149218, 24.46588404942018], [84.84169782215763, 24.452476530841597], [84.8399628426956, 24.51136011893819], [84.80269903077865, 24.529329549735355], [84.7872559598605, 24.504698036075744], [84.74939809756191, 24.49630534230105], [84.73229413680966, 24.472795380181232], [84.68629436100322, 24.456180148870395], [84.66562137711034, 24.393636988450535], [84.58924433598061, 24.401296912901454], [84.57990616531482, 24.41215623227328], [84.56652846393807, 24.396933574011612], [84.57319502693667, 24.383782137032004], [84.52893995195356, 24.37607934898341], [84.53289467278877, 24.3393415697439], [84.50092983932986, 24.286947134743777], [84.48648306973021, 24.30914663035992], [84.50823113745767, 24.332387868900266], [84.48514031176701, 24.31592735722727], [84.46938645384068, 24.31739734148023], [84.46198092880522, 24.3384588138406], [84.42488176476658, 24.331156732786166], [84.43000775199225, 24.358923603708853], [84.40241787209966, 24.367526006947312], [84.38972474528752, 24.38939327140862], [84.34338507787805, 24.39548555854081], [84.33533548083017, 24.421772165589786], [84.32260986530461, 24.42305148779455], [84.33794310291779, 24.430793579536417], [84.30077128803771, 24.450379040406812], [84.29282930902252, 24.465446231914658], [84.301773909418, 24.480276741014887], [84.3292808178472, 24.489284181182533], [84.33392430887017, 24.50223477465805], [84.30506074327097, 24.56256335779181], [84.2768832004722, 24.56365471256323], [84.28771954802288, 24.551338819704473], [84.26476552359638, 24.5301854529719], [84.24266365420934, 24.55257282932125], [84.228327961647, 24.549706153947394], [84.22512720835536, 24.534566857343815], [84.19596325970605, 24.554662954916154], [84.180559461606, 24.546475810182447], [84.19407534348251, 24.521888272707137], [84.18690615495937, 24.509808638402742], [84.16129797567194, 24.517001845941678], [84.17208840804248, 24.53306760524738], [84.15374547188607, 24.53962482168963], [84.14761896040288, 24.504163642070417], [84.11743341160327, 24.480777035234546], [84.09677934923779, 24.503463838901716], [84.09738339653192, 24.53322897369431], [84.05449994106863, 24.611461195384685], [84.00000000047147, 24.637124794446954], [83.94076786047212, 24.55088947313888], [83.8758156018821, 24.53200612407109], [83.80230127168777, 24.528510297266617], [83.72450404282645, 24.50398546352268], [83.51739620390141, 24.52637730031706], [83.40788743642389, 24.50483049967103], [83.14683945799554, 24.721156369517637], [83.11198747155261, 24.824191860115715], [83.08869800785583, 24.965962915542832], [83.12073573148412, 25.184566825831173], [83.07444056578069, 25.26344160910678], [83.15656185597062, 25.334864919109695], [83.17658248550283, 25.38560677656611], [83.15718510278393, 25.468815167018303], [83.08589503466261, 25.51652432067684], [83.06612658389135, 25.58754377095257], [83.067295480573, 25.636227704383252], [83.03640371931394, 25.692845264000383], [82.81288109283925, 25.7944515992628], [82.46965633910895, 25.98774754955623], [82.30088163586773, 26.03901848822244], [81.80591719202123, 26.099087543552073], [81.70661023300593, 26.131848361536047], [81.60752908720843, 26.186447789482713], [81.55996274072672, 26.267246786144202], [81.47438362944601, 26.33622035288563], [81.28647845813178, 26.449817666390764], [81.18249069332447, 26.603925467486427], [81.09137784614492, 26.709198073358465], [80.92973907065358, 26.82943384465506], [80.77298201005487, 26.910548846290133], [80.61863107948275, 26.969602369482345], [80.49409175934555, 27.05029578365101], [80.42910760590088, 27.108847601348632], [80.33171662512673, 27.27198756697546], [80.26153306248375, 27.539507872115212], [80.05171601966451, 27.845887523753266], [79.97517142012931, 27.92120319856971], [79.67402243819733, 28.042320735487575], [79.56716805481612, 28.068781886505796], [79.37510379136923, 28.148286189227466], [79.19401218114947, 28.188754072635437], [79.11975768142584, 28.2247846007045], [79.05845676130762, 28.35554515232795], [78.8457079900398, 28.50950562946467], [78.56090614811477, 28.662516763202813], [78.27486374257792, 28.853792864510105], [77.77694277832784, 29.267220822605704], [77.56003021090152, 29.47011326469155], [77.44752623029332, 29.55318770441422], [77.15499727472432, 29.701064757758164], [77.1246684248172, 29.743747617041212], [77.1287931240333, 29.76605709118076], [77.04733189309492, 29.816345504551386], [76.7487538958366, 29.946845489049608], [76.71287954106283, 29.988496918077974], [76.66813714713636, 30.099560360529118], [76.62245483552921, 30.138648518439584], [76.63968435293422, 30.151055929224235], [76.63482323021857, 30.16626231814566], [76.65384378001353, 30.185206042784273], [76.65106970126736, 30.201909549351054], [76.61640403420786, 30.21118953262947], [76.62417120971972, 30.22699522591275], [76.59620381257366, 30.252601789723663], [76.54463494491095, 30.223253033482646], [76.5598276764723, 30.261046537741688], [76.57011604680258, 30.260376971156646], [76.29428979836618, 30.469583876556698], [76.1544321529913, 30.520765958164088], [76.10662917066243, 30.574052566045733], [76.02636975462465, 30.720840242529906], [75.92084021587824, 30.86328939141513], [75.7816803753958, 30.997516244961524], [75.45201564439452, 31.260472558412744], [75.19326377226822, 31.510243782702013], [74.61317876173284, 31.56410353972135], [74.61898134418638, 31.570527948811698], [74.59348255003367, 31.579057463296714], [74.57973518083526, 31.60504043085439], [74.55781497395257, 31.611588096739712], [74.5360756151487, 31.68092278034013], [74.48603619663545, 31.72243465210363], [74.50860071394972, 31.742473275728276], [74.56520661153729, 31.755033656515682], [74.55748586556406, 31.77829792608434], [74.56930507996735, 31.829582735843626], [74.5940841784728, 31.845413449226207], [74.61400515904569, 31.88790701819864], [74.64030932645967, 31.884738352880394], [74.6737286308948, 31.91999563447136], [74.72307266356603, 31.921074043284452], [74.72145903179155, 31.937119807799483], [74.75359092258775, 31.94012154851898], [74.75994836352243, 31.953352764486596], [74.8231920407709, 31.956559035382096], [74.83250338543276, 31.998914831653366], [74.85992750651769, 32.01063272533268], [74.8545385061587, 32.02169642290563], [74.87929759254476, 32.02528098109633], [74.87652637767629, 32.04652671267846], [74.91324621502886, 32.051204805160104], [74.92861440031673, 32.066533116893055], [75.01341925991754, 32.03499826667473], [75.07229735500606, 32.06316831189982], [75.10663504528067, 32.06034751709313], [75.13082214166259, 32.08363309348034], [75.15895993872869, 32.08366173260128], [75.1790020352561, 32.068654397718305], [75.19974409736399, 32.084412853012985], [75.21001024423042, 32.11733265776606], [75.23965708621594, 32.090936521604476], [75.26547838452858, 32.10019509827927], [75.2871763682963, 32.12785553419192], [75.28304291825592, 32.14278096674302], [75.32168147314421, 32.17465373275455], [75.31386164439029, 32.19592632121621], [75.3381897240756, 32.219420931232065]]]}}, {"type": "Feature", "properties": {"name": "Eastern Plain Hot Subaumid (moist) Eco-region", "kind": "agro_zone"}, "geometry": {"type": "Polygon", "coordinates": [[[79.76186322112746, 28.887265628742096], [79.78634626268267, 28.885741447688638], [79.82050006162737, 28.856740656007428], [79.80647775004924, 28.846771101883395], [79.81302207547363, 28.823557088637507], [79.79513351976914, 28.799340471840235], [79.8277076802243, 28.806178419777332], [79.83631418403499, 28.838712409996624], [79.8659145451685, 28.83821270980202], [79.88745644538749, 28.81226996891034], [79.85804170258001, 28.815226779826506], [79.85233516929796, 28.802585473049216], [79.87908309702416, 28.790379628830234], [79.91310739827438, 28.79605513493853], [79.90072139667289, 28.779706579139102], [79.92382718457691, 28.75889306838658], [79.93411655232512, 28.72664818278162], [79.96460706953921, 28.711465679911328], [79.99998960311044, 28.71096974671029], [80.02539656861505, 28.731332428926805], [80.05229778882311, 28.777074011991637], [80.03754276227983, 28.793804720190973], [80.07034803083064, 28.829225999236908], [80.13338861672972, 28.82214357001614], [80.21069217842208, 28.759923293888317], [80.2662719495954, 28.750380800308083], [80.26223974816156, 28.724731655371095], [80.32292995798666, 28.696542339084946], [80.33245400501903, 28.66669148914396], [80.36926940888802, 28.635168090350415], [80.43836667800197, 28.637355288487104], [80.46573854049254, 28.620175485766712], [80.47191403144866, 28.5880703065143], [80.52174759666539, 28.557780490069995], [80.53311216527507, 28.568609041764862], [80.52073008253396, 28.57968548904962], [80.50866831476353, 28.665791912505046], [80.54602990613098, 28.689511038973247], [80.58259833750897, 28.683589858501854], [80.59410215471722, 28.64605645740278], [80.66886285560707, 28.63982629923354], [80.68174982029866, 28.604103498148604], [80.69860235025627, 28.601810770594003], [80.70266260693747, 28.575351057319132], [80.77136343277932, 28.565254831566666], [80.78711116656952, 28.524523767459065], [80.82414430468172, 28.515827594177885], [80.84503398106109, 28.496795940444105], [80.86592929493195, 28.492183693548508], [80.86469324998619, 28.50486513286417], [80.87902561558566, 28.507295999759148], [80.90861045883489, 28.49496936741435], [80.90571853991527, 28.45900177479585], [80.92887914477812, 28.4543955890019], [80.94230715793327, 28.466203209835406], [80.93932180432718, 28.45104504732563], [80.97836987530667, 28.450865251586492], [80.96609600190199, 28.441200451518686], [80.97219287555285, 28.43461664542595], [81.0138584023882, 28.448005612149394], [81.01656996209132, 28.433298413531553], [81.03978827478288, 28.429813275245184], [81.02226188611175, 28.41315338895232], [81.03713088178625, 28.400206385564776], [81.04377429014035, 28.412165174989447], [81.10334779546609, 28.377752446009058], [81.21567830744493, 28.357480452277894], [81.2356413248827, 28.330020978458343], [81.24042206576769, 28.280944044979577], [81.32042422089768, 28.201816274122624], [81.32735671737386, 28.17093972079968], [81.3072790603131, 28.164070139717012], [81.3286968089016, 28.15693914616623], [81.31959492681126, 28.135383199807094], [81.37945348248334, 28.14528476796416], [81.38132541015669, 28.17313285075057], [81.42917119740603, 28.17102556858364], [81.48415265887837, 28.11400658074608], [81.4818864202033, 28.081171205945076], [81.63287096648311, 28.002729692725314], [81.70032906410161, 27.988772125585033], [81.80681441834516, 27.902087755359403], [81.83521479330555, 27.897271088301263], [81.89057850485861, 27.857577239658134], [81.92817680673589, 27.858736138552437], [81.92737033973769, 27.876833062392357], [81.97134059112909, 27.92945408885238], [82.073771593281, 27.923956033295962], [82.12600275859326, 27.86568883112872], [82.20720978517119, 27.84568747272747], [82.29495963271884, 27.777609076717557], [82.37142713985412, 27.739047718473927], [82.38772097686676, 27.713955313519527], [82.45857035093941, 27.67618106783339], [82.55557181458815, 27.686577577790985], [82.7137669426839, 27.728323563591687], [82.71608995534157, 27.66209936718824], [82.74415851619985, 27.631554716897742], [82.7378312054125, 27.61224217221114], [82.75500244319119, 27.583250751346185], [82.74115113866429, 27.548673333524633], [82.74949032804145, 27.52344412072172], [82.74171304850353, 27.500754558167596], [82.92565652078369, 27.500478546932694], [82.9501081177552, 27.472258642980826], [83.02302472195404, 27.45259251425519], [83.18416680901619, 27.45286252016077], [83.27241258191687, 27.380608847679426], [83.27866562125452, 27.346577852733095], [83.31183556079738, 27.329156673538776], [83.3575991902501, 27.339954291745556], [83.39114627864144, 27.372679317544815], [83.40585953409452, 27.398552258638507], [83.3909625164505, 27.42848081713175], [83.40677833406116, 27.454121597359112], [83.39532803633146, 27.466352224488134], [83.4021025812037, 27.477960527809152], [83.61359643626686, 27.468934639262642], [83.86656167073971, 27.3449053188014], [83.88632107625858, 27.376036016677833], [83.83706623365273, 27.421935543866343], [83.85087923194222, 27.445969763626948], [83.87434079159657, 27.434858099228066], [83.93598173480521, 27.448843696533636], [84.02994731848906, 27.436197288759224], [84.0632326234599, 27.453529528394856], [84.07017147125607, 27.48086489319232], [84.09779025555207, 27.49315155090161], [84.10637804546305, 27.519067467449663], [84.12907492273898, 27.510796952545963], [84.15424914147776, 27.518615599786287], [84.15515347588018, 27.48659320701876], [84.21108502930944, 27.467459718705232], [84.21849078002717, 27.439576655250136], [84.25514579589287, 27.449692135202895], [84.27451516765967, 27.425108888624674], [84.27736064416057, 27.396719551485553], [84.29420736799091, 27.38456451639876], [84.62617408546556, 27.33650774030396], [84.69144129741325, 27.223320890157954], [84.67767648945328, 27.171219802590947], [84.68899759797436, 27.159774647663905], [84.67831389691335, 27.102557161854794], [84.65051207374745, 27.07305585339594], [84.6461698826449, 27.046669952245047], [84.76322238023647, 27.00015301296873], [84.7775466006919, 27.018049069570132], [84.79730271146808, 26.996642758909296], [84.82899636304283, 27.020818827291517], [84.90095050110297, 26.97327931552948], [84.96164977248465, 26.962806894858293], [84.98125566848927, 26.940919723301274], [84.97146328045636, 26.92018778863195], [85.0016928235326, 26.9157051744086], [85.01081560507302, 26.894371642189043], [85.05879045245074, 26.884582136153554], [85.03289841238418, 26.874489718700048], [85.03406698758137, 26.853104856129004], [85.08717074665765, 26.85407508657128], [85.08729631894157, 26.86508759190805], [85.11039195491853, 26.871541004659758], [85.19562347503327, 26.868965138781256], [85.18010716489759, 26.80930931928931], [85.21338299653743, 26.758408939771684], [85.23939092622476, 26.762961876098963], [85.33679161648764, 26.741405104855414], [85.40943622602947, 26.790894888879958], [85.45872484266107, 26.782052502578413], [85.5673283406001, 26.840791727638234], [85.57632811942797, 26.85958728779353], [85.58833232334776, 26.848252766241284], [85.63715671968987, 26.872288541120277], [85.64323402903737, 26.853074745127714], [85.7263777431436, 26.816681213469582], [85.73543201935681, 26.73835868150978], [85.72406298715617, 26.681032167121497], [85.73726595043134, 26.65036346921255], [85.80224716332495, 26.62517407666651], [85.81822476402277, 26.60316912660921], [85.85214527709404, 26.608348299047186], [85.85246230749301, 26.568367924499846], [85.91246913484304, 26.608738550850006], [85.94449381762605, 26.615607770331103], [85.96006794387134, 26.651891649827142], [86.03018430236297, 26.666406787493386], [86.13935677587128, 26.62858626895014], [86.14120876268827, 26.604489697168205], [86.19453244037675, 26.614604834481725], [86.20110869972149, 26.594466723754753], [86.22167179139977, 26.589826567468887], [86.25646351811702, 26.61332187809326], [86.34561579249485, 26.616533845134356], [86.34316199164005, 26.605890729192478], [86.3964139593355, 26.594634749967515], [86.50101288130972, 26.54220307126479], [86.53832510246555, 26.54133496174721], [86.57298113454365, 26.497873438182058], [86.73509807514885, 26.42443075106419], [86.7728340915333, 26.458339010498005], [86.84285161552698, 26.439877109608968], [86.8967679195045, 26.461556212563], [86.89638386339529, 26.486738867566995], [86.93189618784807, 26.488484320049807], [86.94046696908451, 26.51604138089432], [87.0159680812828, 26.533733510699054], [87.04568859231428, 26.587208139875486], [87.07237240371624, 26.58645639571957], [87.09245604124578, 26.452109790845405], [87.15750990504584, 26.40573342115509], [87.261875800668, 26.410516862839344], [87.26675812378991, 26.373735587976814], [87.31361494829166, 26.37185840445818], [87.3411636943836, 26.348309603429172], [87.35824983479931, 26.360511254673856], [87.35574950455228, 26.385533954604007], [87.3701576705886, 26.407415835708377], [87.46288174038418, 26.439678673878284], [87.54968956455345, 26.41861908903837], [87.59034529916289, 26.382431501885815], [87.6093662992885, 26.38104137622912], [87.61421317085531, 26.39081791174345], [87.65282645263187, 26.39280532180629], [87.65151386544252, 26.40562720852028], [87.6786295735897, 26.416226114773814], [87.67912896711007, 26.435526533947844], [87.71538298335368, 26.427330726887273], [87.73561269428524, 26.407590485369365], [87.74029774339196, 26.418725475638333], [87.76660419502352, 26.409010613014306], [87.78921109147386, 26.467824485004794], [87.85052439401858, 26.435627154874673], [87.8648452994926, 26.452036508514894], [87.86021470480702, 26.46292704956352], [87.89139359941844, 26.486149592322707], [87.91137077568415, 26.45845445453792], [87.9006752679046, 26.448848498107168], [87.92678503365907, 26.44587352285565], [87.91774346922773, 26.433098728423833], [87.92941151568488, 26.418509704492052], [87.99328966287834, 26.393077352517363], [87.99553181616675, 26.367240960986983], [88.02000922771397, 26.35281197998523], [88.03118513294314, 26.355448584285437], [88.03953217558661, 26.384832238362478], [88.09838769541906, 26.434481235460083], [88.10880770148015, 26.465457112804504], [88.10528841143652, 26.532989125330396], [88.11223429394278, 26.53885634793863], [88.15208770649295, 26.51081175985418], [88.17206811899223, 26.52147796657019], [88.1749823005121, 26.537188950160594], [88.22122986490506, 26.53543838210893], [88.22207941355103, 26.557111331603316], [88.23786905399227, 26.55181770780466], [88.23998420359469, 26.532227080789585], [88.1856776696159, 26.490425660750343], [88.20037241797273, 26.471889417829868], [88.23281190547127, 26.476118025182565], [88.22191245492328, 26.46560384371625], [88.23552773203426, 26.44703731599751], [88.24992058471442, 26.449194424596747], [88.27440114618463, 26.421656795972908], [88.23572490537565, 26.389771197596755], [88.24406263588249, 26.375299292885927], [88.28040459306087, 26.377210452115225], [88.29829649039694, 26.353852996195137], [88.28591698743512, 26.335483153831536], [88.267517566365, 26.337798766244234], [88.22063044167786, 26.281649106145565], [88.15084749132873, 26.252763631973338], [88.14517570941456, 26.2307887672563], [88.11826470646697, 26.226174092728407], [88.07619931841681, 26.175701534616895], [88.04382811475874, 26.177673610067203], [88.0181482932345, 26.15478035553056], [88.0194496366136, 26.140863995612225], [87.98853186124616, 26.159151988594264], [87.97050661992142, 26.151942595486155], [87.97737147591043, 26.137124998330197], [87.96354994658982, 26.128842804490365], [87.9820175524045, 26.121623394988365], [87.96080448610796, 26.1027860658971], [87.978534958862, 26.084859936181676], [87.94425363494084, 26.084477776813507], [87.93751363746458, 26.068958001794464], [87.9193453524815, 26.090965382050413], [87.88161197865894, 26.055581950095878], [87.84853478900958, 26.04447537786461], [87.83241709615415, 25.988339130654275], [87.83624915794884, 25.935509380950634], [87.80991072623218, 25.920784550131895], [87.82277410008278, 25.91278009279342], [87.82909499132803, 25.87157264013604], [87.91707635019114, 25.851886151183287], [87.88956292488251, 25.828764392069655], [87.91664007431935, 25.814964790243465], [87.90115629929227, 25.80485849999993], [87.90456527418011, 25.76995266079769], [87.93845833651353, 25.771515864002122], [87.96698945313787, 25.724906570226025], [87.99375583503925, 25.723905191249457], [88.02258857611817, 25.704965932005937], [88.02207688920544, 25.69198182041567], [88.0545146188996, 25.69083788810384], [88.05437215728018, 25.644207621583114], [88.04138674711787, 25.637132927437534], [88.0601225657934, 25.63317021542041], [88.04276147179347, 25.62232213808401], [88.04721245895755, 25.605835313000156], [88.03550100339281, 25.600358028129406], [88.04439799951179, 25.59538025743615], [88.0268397873922, 25.58727387114259], [88.04401097098751, 25.564240119954516], [88.03280896907056, 25.553631623424394], [88.04144815937538, 25.53710932449746], [88.07454150326049, 25.513449773222426], [88.07608065101167, 25.48091681895321], [88.0332526438424, 25.486550177317095], [88.013229040297, 25.510780272347652], [88.00996444204092, 25.494445256896576], [87.99852124086493, 25.498250862317395], [87.9863283900954, 25.516233063787645], [87.99341813404811, 25.524323500466288], [87.96143384280963, 25.538415318989145], [87.93188225916415, 25.536564353352624], [87.90482146016205, 25.504681927212847], [87.88508697563681, 25.516328752036838], [87.86671662402986, 25.48643158307352], [87.86930412118535, 25.465782793701813], [87.83968235114848, 25.464958041638575], [87.81451483812444, 25.43459173099488], [87.78722293916195, 25.445045010143843], [87.76496357904361, 25.405461154916487], [87.77153194562415, 25.37843792517911], [87.79463876997234, 25.372702507401495], [87.78975416115286, 25.332914126693378], [87.86068705415826, 25.290061576158937], [87.85490302795247, 25.253989848849685], [87.8284264644538, 25.234912899244925], [87.84226451497504, 25.199860581324685], [87.79327683182804, 25.221069602580013], [87.78901572773542, 25.246738330923918], [87.7135661321463, 25.2569378602168], [87.6899861780579, 25.31060400524457], [87.61278938397646, 25.311844010628946], [87.58711768969134, 25.328468012120172], [87.58604743570976, 25.3488183608177], [87.55343735809434, 25.331374769379114], [87.54568703863862, 25.282093067092752], [87.49608690075023, 25.30563663427759], [87.48750945867398, 25.29561476897582], [87.50169186895857, 25.262951278423817], [87.47862000718987, 25.24136602278864], [87.478092017721, 25.195194773406175], [87.39781697374697, 25.227991181755282], [87.37593076668362, 25.205539626499643], [87.3295522010531, 25.22354944728283], [87.2971249367286, 25.089835884550777], [87.2566288325281, 25.1063894288582], [87.23992688882367, 25.086367647375294], [87.21741945600502, 25.090141709361465], [87.15284539308477, 25.024892384767266], [87.1613174776019, 24.932364980245893], [87.15248903835163, 24.913544871886483], [87.16407208169821, 24.886348059937287], [87.15691275416361, 24.859169905168297], [87.12045266173082, 24.856275142415463], [87.10093234415848, 24.826952106779327], [87.08454214568025, 24.823006631200276], [87.08328705377286, 24.80912824540392], [87.10262854282544, 24.802269776430016], [87.07951159562077, 24.74390500798295], [87.08776811376268, 24.7253899741945], [87.06059969983174, 24.6715039867344], [87.05631950821933, 24.607732094302005], [87.03339004836187, 24.61026074736853], [87.03023253969424, 24.622055329200915], [87.01608554760642, 24.607212738860145], [86.97713640417273, 24.631213401702027], [86.95144255528903, 24.627473196009714], [86.95459112713505, 24.643650300198193], [86.93607526842224, 24.643710822328554], [86.94009927827562, 24.627431608446027], [86.90404355826685, 24.58747410820237], [86.91711194591137, 24.539664649254977], [86.88237887236848, 24.56827149481246], [86.86060914805459, 24.551419132082366], [86.84480513866039, 24.555021929018423], [86.84306438733498, 24.569208207125783], [86.80631291628384, 24.565523075177357], [86.81182463642826, 24.595395573909826], [86.7916861047899, 24.61805853816377], [86.79294988060974, 24.600257734106233], [86.78320404381441, 24.62061703537637], [86.75696691303891, 24.618832082225357], [86.73767822920784, 24.576688730195457], [86.67454324186434, 24.561519001787243], [86.62447439183305, 24.58531574044481], [86.61551498871839, 24.6082196941657], [86.58446032231465, 24.568702753437446], [86.56087464844019, 24.560107202563312], [86.552909720822, 24.53589302648937], [86.52976811601785, 24.536586138499036], [86.51196764214234, 24.518554912355473], [86.49070182720918, 24.4597371242556], [86.49477983972193, 24.4259548761132], [86.46988720060926, 24.419447957700626], [86.46797964399208, 24.377716506615272], [86.45251437286767, 24.369439075408344], [86.42181722004537, 24.380181844417855], [86.35980159181173, 24.442931012515704], [86.32582608382084, 24.441025391750458], [86.28552150083492, 24.462814813808414], [86.31881016565971, 24.50925314904724], [86.31046846856333, 24.5590120265353], [86.32927116767, 24.58479170823535], [86.27059635540604, 24.576519272327868], [86.22391041633519, 24.612387840961308], [86.22223002869099, 24.591808463663828], [86.2014526024654, 24.585798709299493], [86.17219531265027, 24.584301393996597], [86.13986336576994, 24.60412093113536], [86.1248560098267, 24.642428610365897], [86.14022809268558, 24.676015299018736], [86.11598033120885, 24.732668713666772], [86.0699175135641, 24.75205401098216], [86.04580477927051, 24.7417007447306], [86.05962152536995, 24.76807464786378], [86.04437296388699, 24.80415264987587], [85.91428675775416, 24.86770389354408], [85.83584454440128, 24.940897134476252], [85.82528557344203, 24.9910246288707], [85.77631924406592, 25.0440525959345], [85.75810504452767, 25.103232756493114], [85.70705267272093, 25.110975027424857], [85.6959102445317, 25.149409470765576], [85.72257893320949, 25.206922394665476], [85.71310323132899, 25.246756873914215], [85.6970035026921, 25.28244651258764], [85.63534248250421, 25.34319377621048], [85.61483645595457, 25.389267485196303], [85.55348807466495, 25.422183076562774], [85.43712427925503, 25.44970038085269], [85.31147271989605, 25.515473747424426], [85.2436525772048, 25.601094556770022], [85.12120359844661, 25.643187638423683], [85.0879823462474, 25.699826020095], [85.05961596069498, 25.716830780577535], [85.0196152265995, 25.7254358710004], [84.90456913446242, 25.713029339651015], [84.81966562285108, 25.68645189799685], [84.75210229170256, 25.691455431257662], [84.63247383921654, 25.72637253719333], [84.63062635748622, 25.74576757435717], [84.60885629075104, 25.75905571363496], [84.61845739107694, 25.77569360221155], [84.62906945846227, 25.770802282062196], [84.62857045176037, 25.79249513823796], [84.5649441780265, 25.83583274388301], [84.5353868726991, 25.832627550858096], [84.52843368500066, 25.85941354504928], [84.54897848696521, 25.86041189587861], [84.5370835801521, 25.87600466379184], [84.51499200573254, 25.870625972959115], [84.49376718431873, 25.887461265784243], [84.43181126533482, 25.890576348472155], [84.41682909114765, 25.929468387757204], [84.35997703842025, 25.9573837387314], [84.30492613077308, 25.945005264284706], [84.21049957384722, 25.99845693673317], [84.20096303561024, 25.987429160800726], [84.17492730166794, 25.989376000322398], [84.1760003707827, 26.023326171369707], [84.09983883572794, 26.09427273149193], [83.94853526680454, 26.105344381638616], [83.86127019141973, 26.162311145738006], [83.79076347010721, 26.240729779195703], [83.73880282702622, 26.263892580975874], [83.54816607547968, 26.253731974712583], [83.39159158579811, 26.304678148560903], [83.22808996576867, 26.406719920052602], [83.0744563037941, 26.424417926986564], [82.97053299070394, 26.488486002588466], [82.80589023976853, 26.564529407518695], [82.44224409602424, 26.650916838456254], [82.32522594778304, 26.692841301836992], [82.22483255244795, 26.759985662680005], [82.19307899311785, 26.8042221698559], [82.15261003680085, 26.81572928576421], [82.06716567089762, 26.813228459124108], [81.9651778793809, 26.792644244183297], [81.81158519658307, 26.85652192235919], [81.48473514583247, 27.082490471390738], [81.42468494123295, 27.17788151501095], [81.40212516539016, 27.349492258512907], [81.31839803515818, 27.543461588924583], [81.29510009956255, 27.66395474120256], [81.25884208122766, 27.72256811474383], [81.07131400488073, 27.825997512678704], [80.7817340308445, 28.060890285713576], [80.43751193321033, 28.27712253531088], [80.38422119333, 28.339171101742323], [80.3309547705254, 28.43032579847152], [80.11271187539745, 28.503448360916252], [79.74547086425272, 28.714413342998423], [79.66266482095801, 28.801602758419307], [79.62499447830302, 28.862474148878682], [79.6779952781078, 28.842227055090365], [79.76186322112746, 28.887265628742096]]]}}]}