{"type": "FeatureCollection", "features": [{"type": "Feature", "properties": {"name": "Ghaghara", "basin": "Ganga Basin", "kind": "basin"}, "geometry": {"type": "Polygon", "coordinates": [[[80.0460186, 30.5971161], [80.0798538, 30.5930374], [80.0873567, 30.5702657], [80.1277515, 30.5572284], [80.1559633, 30.5750934], [80.2095552, 30.5896697], [80.2533323, 30.5599994], [80.2678799, 30.569499], [80.2752485, 30.5608731], [80.2823279, 30.5680992], [80.313554, 30.5640894], [80.3829449, 30.5212047], [80.4152186, 30.5255081], [80.4381726, 30.4999927], [80.5043318, 30.4834807], [80.5410574, 30.4486586], [80.5701972, 30.4615123], [80.5810181, 30.4829644], [80.5988405, 30.4815926], [80.7520235, 30.3925152], [80.7904531, 30.3375243], [80.825707, 30.3143566], [81.0253508, 30.257207], [81.0429461, 30.2002578], [80.9366809, 30.1765854], [80.9203728, 30.1860359], [80.9178627, 30.2153139], [80.9028265, 30.2160385], [80.8679019, 30.1719373], [80.8747778, 30.1305044], [80.8414809, 30.1012334], [80.8111181, 30.0944813], [80.7692696, 30.0553415], [80.7443085, 30.0020706], [80.7210905, 29.999417], [80.6815571, 29.9606487], [80.6302743, 29.9639129], [80.6003444, 29.9535536], [80.5725139, 29.9230713], [80.5743227, 29.8948091], [80.5608606, 29.8622973], [80.5080429, 29.8203914], [80.4964764, 29.7961386], [80.438139, 29.805287], [80.4100519, 29.7897263], [80.4021694, 29.7597849], [80.3740041, 29.7489405], [80.3704304, 29.7249725], [80.3948078, 29.668714], [80.4237796, 29.6407049], [80.4137768, 29.5977763], [80.397563, 29.5706653], [80.351421, 29.5505292], [80.3534787, 29.516552], [80.3180159, 29.4928818], [80.3159955, 29.4806722], [80.3027107, 29.4858726], [80.2920412, 29.4693751], [80.3029296, 29.4503796], [80.2879885, 29.4476728], [80.2804752, 29.4573587], [80.2463266, 29.4407393], [80.2489135, 29.4080703], [80.2775592, 29.3940812], [80.2753392, 29.3649443], [80.2854141, 29.3437229], [80.2968053, 29.3267807], [80.3166344, 29.3225114], [80.3193865, 29.299531], [80.2975696, 29.2350214], [80.302252, 29.1984226], [80.2917384, 29.1957066], [80.25414, 29.2191517], [80.2504494, 29.2024693], [80.2640221, 29.1873008], [80.273624, 29.1443725], [80.2403151, 29.1188054], [80.1852803, 29.1318514], [80.1489194, 29.0996646], [80.1355559, 29.0687744], [80.1435932, 29.0560542], [80.1301987, 29.0345569], [80.1305476, 29.0142205], [80.1408451, 29.0063375], [80.1254568, 29.0024727], [80.1211723, 28.9852877], [80.1026072, 28.9813634], [80.0666004, 28.9187162], [80.063611, 28.8452619], [80.070348, 28.8292259], [80.1333886, 28.8221435], [80.2106922, 28.7599232], [80.2621599, 28.753446], [80.2707307, 28.7435172], [80.2622384, 28.7247428], [80.2796908, 28.7096106], [80.3229299, 28.6965423], [80.332454, 28.6666914], [80.3618884, 28.6515759], [80.3692694, 28.635168], [80.4383667, 28.6373552], [80.4657351, 28.620178], [80.471914, 28.5880702], [80.4895527, 28.5837699], [80.514873, 28.5600273], [80.5279029, 28.5593334], [80.5331101, 28.568613], [80.5207301, 28.5796855], [80.5086683, 28.6657918], [80.5373219, 28.6861194], [80.5659726, 28.6894874], [80.5910394, 28.6792905], [80.5843834, 28.661199], [80.5958596, 28.6555436], [80.5941021, 28.6460564], [80.6076288, 28.6489727], [80.6316598, 28.636726], [80.6688629, 28.6398262], [80.6817498, 28.6041034], [80.6985995, 28.6018124], [80.694891, 28.5862181], [80.7026626, 28.575351], [80.7713634, 28.5652548], [80.772374, 28.551448], [80.7881831, 28.5405737], [80.7871112, 28.5245237], [80.8241443, 28.5158275], [80.845034, 28.4967959], [80.8659293, 28.4921836], [80.8646932, 28.5048651], [80.8790256, 28.5072959], [80.9086105, 28.4949693], [80.8992422, 28.4780693], [80.9057185, 28.4590017], [80.9197683, 28.4624261], [80.9288791, 28.4543955], [80.9423072, 28.4662031], [80.9393218, 28.451045], [80.9783658, 28.4508679], [80.966096, 28.4412004], [80.9721929, 28.4346166], [81.0138584, 28.4480055], [81.01657, 28.4332983], [81.0397872, 28.4298137], [81.0222619, 28.4131533], [81.0371309, 28.4002063], [81.0437743, 28.4121651], [81.1033478, 28.3777524], [81.2149305, 28.3579266], [81.2356413, 28.3300209], [81.240422, 28.280944], [81.3204242, 28.2018162], [81.327353, 28.1709489], [81.3072792, 28.1640701], [81.3286922, 28.1569391], [81.3195949, 28.1353831], [81.3794534, 28.1452847], [81.3733374, 28.165271], [81.3813254, 28.1731328], [81.4291712, 28.1710255], [81.4841527, 28.1140065], [81.4818864, 28.0811711], [81.6328709, 28.0027297], [81.7003291, 27.988772], [81.8068144, 27.9020877], [81.8352148, 27.897271], [81.8905785, 27.8575772], [81.9281768, 27.8587361], [81.9273703, 27.876833], [81.9713405, 27.929454], [82.0737715, 27.923956], [82.1260027, 27.8656888], [82.151788, 27.8579249], [82.1600202, 27.8654861], [82.2072098, 27.8456874], [82.2949598, 27.7776219], [82.3714271, 27.7390476], [82.3877209, 27.7139552], [82.4585703, 27.676181], [82.5168112, 27.68899], [82.5555718, 27.6865775], [82.6487879, 27.7101973], [82.6611633, 27.720609], [82.7039505, 27.7181065], [82.7137625, 27.7283202], [82.7160977, 27.6621074], [82.7441574, 27.6315557], [82.7378312, 27.6122421], [82.7550024, 27.5832507], [82.7411511, 27.5486733], [82.7494899, 27.5234461], [82.7379141, 27.5139281], [82.741713, 27.5007545], [82.9256564, 27.5004785], [82.9501081, 27.4722585], [83.0230247, 27.4525925], [83.1841668, 27.4528625], [83.2159166, 27.4171999], [83.2724125, 27.3806088], [83.2786656, 27.3465778], [83.3118355, 27.3291566], [83.3575991, 27.3399543], [83.3743942, 27.3653456], [83.3911472, 27.372691], [83.4058594, 27.3985522], [83.4053105, 27.4149742], [83.3909638, 27.4284926], [83.4067786, 27.4541344], [83.3953279, 27.4663521], [83.4021025, 27.4779605], [83.6098384, 27.469935], [83.8357069, 27.3682903], [83.8331428, 27.3418637], [83.8052729, 27.3005774], [83.7950593, 27.2542773], [83.8408094, 27.2147841], [83.8447563, 27.1881178], [83.8327486, 27.1843202], [83.8552136, 27.1412321], [83.8498206, 27.1143666], [83.8348304, 27.1024607], [83.8383512, 27.0116708], [83.885055, 26.9621141], [83.921716, 26.9022615], [83.9615803, 26.9032153], [83.9903052, 26.8888105], [84.0227689, 26.8899336], [84.025244, 26.8816867], [84.0563781, 26.8849776], [84.0677847, 26.8707705], [84.103237, 26.8665748], [84.1098392, 26.8451242], [84.1523313, 26.8055407], [84.1563767, 26.7898833], [84.1665074, 26.7928885], [84.1697205, 26.7797079], [84.2012008, 26.7665913], [84.2146432, 26.7048433], [84.2617443, 26.6691915], [84.2605036, 26.6594024], [84.2755918, 26.6745443], [84.280694, 26.6637638], [84.3044712, 26.666387], [84.316601, 26.6480447], [84.3388425, 26.6428513], [84.3381035, 26.6284052], [84.3526232, 26.622742], [84.385212, 26.5511783], [84.4240543, 26.5165193], [84.4191377, 26.506015], [84.4073482, 26.507166], [84.4103867, 26.4898874], [84.4464865, 26.4814974], [84.4391503, 26.4538683], [84.4676383, 26.4104811], [84.462751, 26.4007951], [84.474155, 26.389006], [84.4833529, 26.3920178], [84.5022309, 26.3603602], [84.492069, 26.3557394], [84.5033792, 26.3414937], [84.4975551, 26.3310163], [84.5051446, 26.3144205], [84.4842795, 26.2896356], [84.4992144, 26.2752851], [84.4849387, 26.2558692], [84.4837905, 26.2289385], [84.5098105, 26.1644236], [84.4832131, 26.1307929], [84.4890089, 26.1150654], [84.5243567, 26.0886549], [84.5112945, 26.0783859], [84.516242, 26.0389289], [84.5013536, 26.0025017], [84.5271462, 25.9886494], [84.5409313, 25.9685901], [84.5285572, 25.9539856], [84.5292421, 25.9270319], [84.5680872, 25.8817801], [84.550835, 25.8644523], [84.5802751, 25.8552295], [84.6077144, 25.8125445], [84.6445139, 25.7860612], [84.6374501, 25.7535751], [84.6100685, 25.7527791], [84.583511, 25.7787057], [84.5503853, 25.7780681], [84.530274, 25.7587155], [84.5234773, 25.7323589], [84.4966306, 25.7405106], [84.4699098, 25.7265349], [84.4477023, 25.7640362], [84.4554757, 25.7793785], [84.4302521, 25.7825565], [84.4289786, 25.7719433], [84.4135, 25.7691064], [84.407541, 25.7799248], [84.3621776, 25.7762884], [84.3056861, 25.7377224], [84.2705542, 25.7419679], [84.2612715, 25.7348499], [84.2400745, 25.7501744], [84.226383, 25.7464512], [84.2186016, 25.7573117], [84.1897881, 25.7613671], [84.1425502, 25.75526], [84.1331412, 25.7440421], [84.0865941, 25.7591976], [84.083398, 25.7723877], [84.0724727, 25.7702167], [84.0701267, 25.7817459], [84.0505251, 25.7912678], [84.0536275, 25.8034737], [84.0423148, 25.8176928], [84.0020901, 25.8347097], [83.9424994, 25.8854012], [83.9434743, 25.8980444], [83.9663724, 25.9108346], [83.9666404, 25.9444322], [83.9418718, 25.965704], [83.9154178, 25.9725286], [83.914822, 25.9890224], [83.8809767, 26.0047641], [83.8741573, 26.0280385], [83.8046065, 26.0701999], [83.7874154, 26.0714372], [83.7755634, 26.0692679], [83.7771326, 26.0610408], [83.7626605, 26.0622095], [83.7428635, 26.0364807], [83.7039834, 26.0398659], [83.6901342, 26.0311862], [83.6903477, 26.0385513], [83.666007, 26.0432201], [83.6556299, 26.0606605], [83.6193185, 26.0590508], [83.6161363, 26.0746834], [83.5935059, 26.0760253], [83.5847441, 26.0868722], [83.5701296, 26.083113], [83.558761, 26.0981123], [83.5636594, 26.1111021], [83.5465517, 26.1155861], [83.5327306, 26.1404646], [83.5197661, 26.2083456], [83.5110653, 26.2152719], [83.4853855, 26.2218399], [83.441198, 26.1981111], [83.4219531, 26.2045269], [83.4064712, 26.2276053], [83.386167, 26.2077963], [83.3738935, 26.215161], [83.3339668, 26.2126994], [83.3196625, 26.1972388], [83.274669, 26.1943997], [83.2373233, 26.224653], [83.2253418, 26.2175323], [83.2128477, 26.2259771], [83.2123511, 26.2063378], [83.2032797, 26.2065242], [83.1796263, 26.2405751], [83.1685743, 26.23425], [83.1692163, 26.2235937], [83.156095, 26.2435084], [83.1458298, 26.2322536], [83.1090093, 26.2485461], [83.0712692, 26.2271878], [83.0414846, 26.2343202], [83.0204206, 26.226542], [82.9990121, 26.2425096], [82.9691433, 26.2463549], [82.9488182, 26.2311849], [82.9155464, 26.2449083], [82.8951224, 26.2649361], [82.8578185, 26.2615296], [82.8372182, 26.2741847], [82.831211, 26.2898478], [82.8130552, 26.2901756], [82.8018908, 26.2780967], [82.7885087, 26.2889783], [82.8051019, 26.3001421], [82.8016098, 26.3476838], [82.7465452, 26.3642136], [82.7415371, 26.3847655], [82.7518143, 26.3976819], [82.7385566, 26.4151038], [82.7195967, 26.4211643], [82.7135506, 26.4360026], [82.720246, 26.451438], [82.7012624, 26.4566778], [82.6928207, 26.4445458], [82.6857054, 26.4520346], [82.6465854, 26.451064], [82.6303937, 26.4595219], [82.6307501, 26.476704], [82.6199079, 26.4801598], [82.5879029, 26.4716889], [82.5904463, 26.4626436], [82.5766276, 26.4538684], [82.5657196, 26.4540476], [82.5668936, 26.467124], [82.5440186, 26.4601312], [82.5261963, 26.4784262], [82.532773, 26.4889599], [82.5181599, 26.4859218], [82.5183712, 26.4965583], [82.484839, 26.5028232], [82.4859248, 26.5118087], [82.4696509, 26.5169768], [82.4735123, 26.5283738], [82.4591343, 26.5376028], [82.4632498, 26.5620903], [82.4434396, 26.5730395], [82.4376373, 26.6025913], [82.4157174, 26.5988389], [82.4208962, 26.5840284], [82.3991349, 26.5884549], [82.3908061, 26.5812169], [82.3756902, 26.6002692], [82.3583075, 26.5956216], [82.3439891, 26.6089301], [82.3509068, 26.6382865], [82.3344904, 26.6368952], [82.3185988, 26.6641354], [82.2924155, 26.6767947], [82.2773175, 26.69829], [82.2696644, 26.6779439], [82.2385579, 26.6702082], [82.2059906, 26.6829439], [82.1458576, 26.6821417], [82.1470181, 26.6968546], [82.1280566, 26.706932], [82.1393327, 26.7272347], [82.1268537, 26.7437689], [82.0885592, 26.7426469], [82.0892812, 26.7311821], [82.0810684, 26.7304731], [82.0566433, 26.741432], [82.0478367, 26.760366], [82.0088216, 26.7715067], [81.9713546, 26.7654363], [81.8593962, 26.7758025], [81.8519135, 26.7628001], [81.8301017, 26.7671469], [81.8293442, 26.777792], [81.7519542, 26.7844019], [81.7234984, 26.76999], [81.7192975, 26.7962171], [81.7083555, 26.7914277], [81.6418932, 26.8731836], [81.6422434, 26.9001222], [81.6304469, 26.9051534], [81.6184398, 26.8938248], [81.5883251, 26.893314], [81.5766394, 26.9073385], [81.5546523, 26.9001952], [81.544777, 26.9133812], [81.5301489, 26.9110702], [81.5290781, 26.897992], [81.5162962, 26.8972978], [81.5127842, 26.9087842], [81.4962259, 26.8974902], [81.4899943, 26.910638], [81.4125694, 26.9228054], [81.3835852, 26.9426954], [81.3875053, 26.9672006], [81.375737, 26.9763017], [81.3996619, 26.9932679], [81.3752875, 27.0188393], [81.3800143, 27.0335206], [81.3691082, 27.0385234], [81.3683723, 27.054888], [81.3364021, 27.0551628], [81.3356878, 27.0739804], [81.3220356, 27.0790029], [81.2898584, 27.0596406], [81.2890453, 27.069462], [81.2681571, 27.0818999], [81.2549815, 27.1351656], [81.2458736, 27.1385093], [81.2460514, 27.1564997], [81.2305903, 27.1647993], [81.2271244, 27.1844533], [81.1897737, 27.1994596], [81.1860464, 27.1921278], [81.1541234, 27.2013603], [81.1430899, 27.1948986], [81.1405464, 27.2169964], [81.0976517, 27.2279316], [81.0904757, 27.2443359], [81.1070359, 27.2548507], [81.0643258, 27.2894878], [81.0414402, 27.288823], [81.0115161, 27.3345239], [80.9877561, 27.3416517], [80.9582119, 27.4170035], [80.9660231, 27.4789811], [80.9496181, 27.4913427], [80.9330945, 27.4881713], [80.9222332, 27.5070368], [80.901154, 27.5079759], [80.8742353, 27.5266304], [80.8388016, 27.6360769], [80.8386292, 27.6659772], [80.8080637, 27.7160848], [80.8245836, 27.7493785], [80.8074454, 27.7626691], [80.7807392, 27.7521795], [80.7827243, 27.775868], [80.7607297, 27.784964], [80.7363079, 27.8346572], [80.7226432, 27.8431585], [80.7354402, 27.8594415], [80.7225931, 27.8635859], [80.7355793, 27.8831358], [80.7329308, 27.9019401], [80.7118069, 27.9069385], [80.7018233, 27.9306764], [80.6760982, 27.9365071], [80.6862664, 27.9454503], [80.6752886, 27.9569351], [80.6781284, 27.9716283], [80.6322485, 27.9971429], [80.6360379, 28.0183675], [80.6167396, 28.0249788], [80.6195417, 28.0331368], [80.592968, 28.059378], [80.5552548, 28.0684996], [80.5303254, 28.0530647], [80.4834234, 28.0679177], [80.4641428, 28.083495], [80.4780951, 28.1193929], [80.4449358, 28.1211228], [80.4174398, 28.1636686], [80.3916382, 28.164551], [80.3898766, 28.1906901], [80.3760647, 28.1956235], [80.3788549, 28.2037837], [80.3539875, 28.2120078], [80.3531048, 28.225893], [80.3614055, 28.226691], [80.3559757, 28.2626351], [80.3809405, 28.2829923], [80.3772926, 28.2968828], [80.3911644, 28.3074647], [80.3792594, 28.3368889], [80.3663586, 28.3434512], [80.3543376, 28.3353133], [80.3497829, 28.3565526], [80.3571833, 28.3622516], [80.3424639, 28.3802465], [80.3471298, 28.3981985], [80.3296668, 28.4284434], [80.3176504, 28.4243857], [80.3085083, 28.4619576], [80.2910079, 28.4840321], [80.2716049, 28.4840663], [80.2550038, 28.4987876], [80.2643745, 28.5599935], [80.2412758, 28.5673762], [80.2006697, 28.613956], [80.199775, 28.6327289], [80.1886768, 28.6343746], [80.1970205, 28.6457905], [80.1548713, 28.7021154], [80.1267886, 28.7242054], [80.1036431, 28.721774], [80.0962544, 28.7438111], [80.0786569, 28.7348447], [80.0740409, 28.7568789], [80.0583023, 28.7634132], [80.0555311, 28.7789176], [80.0221937, 28.8009561], [80.0240531, 28.8360397], [80.0129339, 28.8327775], [80.0064498, 28.8662282], [80.0110867, 28.8988607], [79.9962534, 28.9192555], [80.020363, 28.9347537], [80.028714, 28.9567771], [80.0212965, 28.9706453], [80.0315003, 28.972275], [80.0342878, 28.9894038], [80.0250164, 29.0179533], [80.0110977, 29.022033], [80.0055307, 29.0399768], [80.0175998, 29.0660745], [80.0092475, 29.0986969], [79.9646697, 29.1264202], [79.895934, 29.136176], [79.8959148, 29.1590086], [79.9525806, 29.1663742], [79.9516366, 29.2046974], [79.9293278, 29.2128428], [79.9042126, 29.2405511], [79.8437625, 29.2608862], [79.7868855, 29.3545709], [79.7412295, 29.3846637], [79.760725, 29.4099615], [79.7671812, 29.4417577], [79.7643583, 29.4572387], [79.7447921, 29.4620988], [79.7652073, 29.500433], [79.7567685, 29.5281274], [79.7847132, 29.5330565], [79.803313, 29.5558964], [79.8517674, 29.5632819], [79.8470718, 29.5917959], [79.8358771, 29.5974884], [79.8405185, 29.6129737], [79.8311921, 29.6145937], [79.828346, 29.649624], [79.8357967, 29.6577787], [79.7639323, 29.6796857], [79.7573537, 29.704115], [79.6928147, 29.7659123], [79.6983622, 29.7879143], [79.7104874, 29.7936378], [79.6852293, 29.8115087], [79.6851834, 29.8294262], [79.6720718, 29.8424306], [79.6562048, 29.8375112], [79.6309396, 29.8521146], [79.608557, 29.8398461], [79.5748521, 29.8617493], [79.5094088, 29.8721506], [79.4943849, 29.8900198], [79.5046087, 29.9038948], [79.4988814, 29.9331911], [79.5072786, 29.9372881], [79.4828861, 29.9575678], [79.4875, 29.9722381], [79.4715675, 29.9803287], [79.4835469, 30.0227028], [79.5228771, 30.0130541], [79.544453, 29.9968335], [79.5874536, 30.0042761], [79.6107892, 30.0198022], [79.6407302, 30.0182432], [79.6622847, 30.0044495], [79.7773394, 30.0038345], [79.8119225, 30.0209749], [79.8118937, 30.0396989], [79.8259044, 30.0568098], [79.8923335, 30.0707062], [79.911992, 30.0642059], [79.9484805, 30.087014], [79.9943427, 30.1505095], [80.0168198, 30.1570198], [80.0355484, 30.148064], [80.0524091, 30.1570122], [80.096485, 30.2302353], [80.0655714, 30.2514079], [80.0665246, 30.2807004], [80.0421526, 30.2896588], [80.0252811, 30.3132576], [79.9877706, 30.3165135], [79.9980859, 30.3352265], [79.9980854, 30.3661412], [80.0309274, 30.3913567], [80.0393784, 30.4092509], [80.0299947, 30.4141335], [80.0393891, 30.4426009], [80.0224929, 30.4491111], [80.0102904, 30.4718862], [80.0178035, 30.4808321], [79.9971432, 30.5402013], [80.0196979, 30.581672], [80.0460186, 30.5971161]]]}}, {"type": "Feature", "properties": {"name": "Gandak and others", "basin": "Ganga Basin", "kind": "basin"}, "geometry": {"type": "Polygon", "coordinates": [[[84.1288649, 27.5108538], [84.1542491, 27.5186155], [84.1512465, 27.4907814], [84.211085, 27.4674596], [84.2184907, 27.4395766], [84.2295547, 27.4496397], [84.2551457, 27.4496921], [84.2745151, 27.4251088], [84.2773606, 27.3967195], [84.2942073, 27.3845644], [84.3037207, 27.3912641], [84.3405314, 27.3753544], [84.424369, 27.3711688], [84.4722797, 27.3545343], [84.4874731, 27.3597566], [84.626174, 27.3365077], [84.6914412, 27.2233208], [84.6776852, 27.1712293], [84.6889951, 27.1597816], [84.6783138, 27.1025571], [84.6505178, 27.0730624], [84.6461698, 27.0466699], [84.7632223, 27.0001529], [84.7775465, 27.018049], [84.7973027, 26.9966426], [84.8162278, 27.0193657], [84.8289963, 27.0208188], [84.8578193, 27.0084202], [84.8579792, 26.992172], [84.9009504, 26.9732793], [84.9616497, 26.9628068], [84.9812556, 26.9409196], [84.9714632, 26.9201877], [85.0016927, 26.9157051], [85.000972, 26.9002323], [85.0108155, 26.8943716], [85.0587904, 26.8845821], [85.032901, 26.8744908], [85.0273042, 26.8558559], [85.0340669, 26.8531048], [85.0871707, 26.854075], [85.087308, 26.8650934], [85.1103919, 26.8715409], [85.1956234, 26.8689651], [85.1938161, 26.8347457], [85.1792698, 26.8146389], [85.1963083, 26.7893652], [85.196933, 26.7752437], [85.178635, 26.7635688], [85.1940544, 26.7393174], [85.1882219, 26.7305049], [85.1944612, 26.7270236], [85.1852222, 26.7240545], [85.1918346, 26.7074617], [85.1742703, 26.7014925], [85.1775434, 26.6923786], [85.1675307, 26.6927089], [85.1677729, 26.6763264], [85.1563182, 26.6636039], [85.1158461, 26.6542865], [85.1123894, 26.6363869], [85.0975682, 26.6303197], [85.104998, 26.6112463], [85.0895226, 26.5888241], [85.067563, 26.5862609], [85.0583648, 26.5611758], [85.0673531, 26.5355022], [85.086051, 26.52507], [85.0666923, 26.4962195], [85.0799318, 26.4859641], [85.0768778, 26.4778746], [85.0975482, 26.4714706], [85.0867322, 26.4513506], [85.0992214, 26.4452118], [85.1151276, 26.4561571], [85.1640319, 26.4283455], [85.1562329, 26.4155], [85.195325, 26.3929139], [85.1821438, 26.3818859], [85.187224, 26.3727089], [85.2172534, 26.3733476], [85.2157738, 26.3594745], [85.2284499, 26.358232], [85.2446506, 26.3323005], [85.2833045, 26.3219894], [85.3077926, 26.2990457], [85.3186188, 26.2613424], [85.3827232, 26.2874724], [85.3783664, 26.270422], [85.3911057, 26.2495057], [85.3885281, 26.2315745], [85.4177924, 26.2149986], [85.4215583, 26.196847], [85.3976381, 26.1894847], [85.3945052, 26.1584655], [85.4291894, 26.1416984], [85.4383604, 26.1651349], [85.4872704, 26.1626036], [85.4963561, 26.1418043], [85.5212328, 26.1294571], [85.5422309, 26.1115091], [85.5424594, 26.0959357], [85.5523884, 26.0947633], [85.5489926, 26.0793187], [85.5605172, 26.0731735], [85.551473, 26.0530144], [85.5996588, 26.0144235], [85.6271429, 26.0208072], [85.6382234, 26.00484], [85.6689276, 26.0020874], [85.6820384, 26.0114417], [85.7335263, 26.0070979], [85.7881894, 26.0289797], [85.9587336, 25.9592435], [85.9761979, 25.9437744], [85.9771281, 25.9170982], [85.9963296, 25.89235], [86.0059181, 25.8296511], [86.0385339, 25.784972], [86.0248404, 25.7633756], [86.0280811, 25.7362048], [86.0468155, 25.7305599], [86.0523407, 25.7516534], [86.0632581, 25.7528672], [86.0686859, 25.7338055], [86.1026902, 25.7447679], [86.1338707, 25.7345255], [86.1347719, 25.7156393], [86.1496107, 25.7043981], [86.1667533, 25.6660163], [86.1980286, 25.6582146], [86.1950717, 25.6345628], [86.204454, 25.6415652], [86.2431404, 25.6375561], [86.2698301, 25.6102513], [86.280117, 25.6172128], [86.2970183, 25.6116103], [86.3105798, 25.6299127], [86.3006941, 25.6311337], [86.3002358, 25.6401688], [86.3253721, 25.6547212], [86.3422032, 25.6294443], [86.369029, 25.6234283], [86.3898653, 25.6061781], [86.3680903, 25.6046135], [86.3717438, 25.5872494], [86.355181, 25.5813705], [86.3480535, 25.5652676], [86.4206979, 25.5721167], [86.4199577, 25.5573919], [86.4313931, 25.5511802], [86.4315489, 25.518383], [86.4487609, 25.5193082], [86.4528141, 25.5101221], [86.4603155, 25.5155484], [86.4668238, 25.5013409], [86.4956409, 25.5173527], [86.5123111, 25.5076361], [86.5765655, 25.5098446], [86.5882577, 25.4913124], [86.6008761, 25.490776], [86.7257515, 25.4050634], [86.8569041, 25.3969707], [86.9161858, 25.4081616], [86.9442625, 25.3765671], [86.969928, 25.3672149], [86.9710599, 25.354864], [87.0072441, 25.3729119], [87.0291683, 25.3612587], [87.0623903, 25.3745084], [87.1616838, 25.3584702], [87.1749464, 25.3857384], [87.192908, 25.3840857], [87.2123861, 25.3999248], [87.2461359, 25.3994327], [87.2531305, 25.4225298], [87.3036473, 25.3721446], [87.3051836, 25.327987], [87.279466, 25.3029543], [87.3006404, 25.2945764], [87.3041246, 25.2607866], [87.3351459, 25.2355352], [87.3743367, 25.2271113], [87.4099735, 25.2508347], [87.4604546, 25.1885346], [87.5068734, 25.1961319], [87.5388169, 25.2487138], [87.5495603, 25.2473699], [87.5524819, 25.2357442], [87.5927516, 25.2304927], [87.5898162, 25.1961862], [87.610175, 25.1746794], [87.5994152, 25.1604435], [87.5822436, 25.1596458], [87.5860589, 25.1479748], [87.5617784, 25.1335789], [87.540343, 25.0755657], [87.5134832, 25.062929], [87.5137581, 25.0522519], [87.5006127, 25.043047], [87.5062754, 25.0321082], [87.4992733, 25.0201439], [87.4621744, 25.0014331], [87.4727472, 24.9820551], [87.4521372, 24.937114], [87.456427, 24.9180395], [87.4704936, 24.9124374], [87.4630258, 24.8922905], [87.4421099, 24.8727924], [87.4312966, 24.8413206], [87.3742101, 24.8178097], [87.3796422, 24.7871976], [87.3552786, 24.738321], [87.3671634, 24.7262685], [87.372734, 24.6981099], [87.3856498, 24.6884673], [87.3753817, 24.6659889], [87.3586971, 24.6612128], [87.3423209, 24.6734641], [87.2790426, 24.6451405], [87.256663, 24.6461965], [87.2341836, 24.5816265], [87.2389999, 24.5715558], [87.2306721, 24.5670251], [87.2184222, 24.5725222], [87.2080281, 24.5951585], [87.1919207, 24.5959118], [87.1723874, 24.6156905], [87.1388307, 24.625453], [87.0890142, 24.6170903], [87.0606868, 24.6241338], [87.052405, 24.604006], [87.0571467, 24.5923046], [87.0063644, 24.5823196], [86.9718016, 24.5404139], [86.9281003, 24.5448481], [86.8689904, 24.5294519], [86.844476, 24.513631], [86.8226015, 24.4831207], [86.788288, 24.4953018], [86.7209158, 24.492518], [86.6771689, 24.5477363], [86.659529, 24.5534217], [86.6576486, 24.5690867], [86.597693, 24.5716678], [86.5468918, 24.6132039], [86.5301141, 24.6007939], [86.4685566, 24.6074925], [86.449949, 24.576288], [86.3932418, 24.5540496], [86.3638339, 24.5577284], [86.3287935, 24.5198077], [86.309646, 24.513213], [86.2936936, 24.4802417], [86.2819875, 24.4790799], [86.2721279, 24.4606196], [86.2438304, 24.4683317], [86.2242259, 24.5076705], [86.1982446, 24.5078991], [86.1564791, 24.5341777], [86.1231781, 24.4748213], [86.0989145, 24.4733249], [86.0781194, 24.450366], [85.9860538, 24.4547964], [85.9703745, 24.4644261], [85.9620228, 24.4581897], [85.9438847, 24.4728321], [85.8958829, 24.4615588], [85.8750886, 24.4377539], [85.8389841, 24.4514288], [85.76686, 24.4435275], [85.7609003, 24.4702478], [85.7363466, 24.491414], [85.7314987, 24.5120492], [85.7160707, 24.5077032], [85.7127824, 24.514385], [85.6743316, 24.4756295], [85.6524725, 24.4879135], [85.627783, 24.4765192], [85.6013396, 24.4865035], [85.5906116, 24.466395], [85.5600596, 24.4642224], [85.5550936, 24.4529227], [85.520898, 24.4492341], [85.5132532, 24.4380292], [85.4823373, 24.4481533], [85.4425718, 24.4397264], [85.4135762, 24.4530482], [85.3842056, 24.4450518], [85.3734018, 24.4552574], [85.3579452, 24.4367057], [85.3356708, 24.4321706], [85.2949833, 24.4006034], [85.2778518, 24.3757757], [85.2532567, 24.3872765], [85.2275288, 24.3709358], [85.209784, 24.3748176], [85.1438236, 24.3368649], [85.1582625, 24.3175239], [85.1663695, 24.3188913], [85.1646896, 24.2992706], [85.1757452, 24.2849605], [85.1712865, 24.2629736], [85.2095591, 24.2362635], [85.2065848, 24.2068477], [85.19356, 24.1941703], [85.2322082, 24.1994174], [85.2376933, 24.1803723], [85.2325946, 24.1604577], [85.2214133, 24.1545476], [85.2505248, 24.1398289], [85.2864908, 24.1405005], [85.2874328, 24.1212139], [85.3110667, 24.0954481], [85.3025859, 24.0846712], [85.2864655, 24.0835877], [85.2776687, 24.0583988], [85.2917512, 24.0163426], [85.2768473, 24.0011043], [85.2762129, 23.985547], [85.2530088, 23.9855241], [85.2426418, 23.9719399], [85.1925428, 23.9687258], [85.1850903, 23.9607937], [85.1704371, 23.9609498], [85.1555737, 23.9814529], [85.126262, 23.9848958], [85.1200719, 24.0088803], [85.0906241, 24.0090411], [85.0531578, 24.0324179], [85.014408, 24.0230313], [84.9722767, 24.0416209], [84.9702311, 24.0580848], [84.937455, 24.0648826], [84.9324477, 24.0740623], [84.9084509, 24.0535155], [84.8667529, 24.0368074], [84.8475054, 24.0472553], [84.8259822, 24.0446547], [84.7909818, 24.0637887], [84.7713011, 24.0627625], [84.7514509, 24.081415], [84.7675501, 24.1063304], [84.7508705, 24.1142262], [84.7354188, 24.155695], [84.710313, 24.1777826], [84.6373208, 24.1665096], [84.6232995, 24.1475721], [84.5769435, 24.1440265], [84.4806663, 24.1650881], [84.4640374, 24.1807566], [84.4277181, 24.1714368], [84.4157068, 24.1845161], [84.4137204, 24.2325015], [84.3849975, 24.2527774], [84.3696175, 24.2547814], [84.3595466, 24.2430657], [84.329862, 24.2376256], [84.28934, 24.2556985], [84.2774022, 24.2461947], [84.2510376, 24.260042], [84.234824, 24.2563912], [84.2246138, 24.2722468], [84.1922657, 24.2673949], [84.1926389, 24.3064258], [84.172413, 24.3171169], [84.176419, 24.3579924], [84.1518353, 24.3725927], [84.1548894, 24.4118544], [84.1648108, 24.421978], [84.1598688, 24.4318447], [84.1758302, 24.4441555], [84.1772862, 24.4687996], [84.1679275, 24.4845055], [84.1903855, 24.5125296], [84.1696402, 24.508175], [84.1582955, 24.517498], [84.1326812, 24.5009752], [84.1091284, 24.5203409], [84.1136182, 24.6060188], [84.093952, 24.6703374], [84.12075, 24.7391526], [84.1484605, 24.7685638], [84.168244, 24.7696697], [84.1739972, 24.7809882], [84.1603086, 24.8018472], [84.2117107, 24.864815], [84.255291, 24.883063], [84.2598407, 24.8925625], [84.2468723, 24.8945588], [84.2462993, 24.9044091], [84.2808809, 24.9444318], [84.291548, 24.9408577], [84.2933493, 24.9678524], [84.312404, 24.9730585], [84.3206094, 25.003152], [84.4081396, 25.0275003], [84.4576085, 25.0916783], [84.6276915, 25.1962405], [84.6936759, 25.2089841], [84.7275647, 25.2429371], [84.767521, 25.3033939], [84.7721011, 25.3428015], [84.7653108, 25.3598818], [84.7847422, 25.4113427], [84.8306158, 25.449188], [84.8308634, 25.4715697], [84.8700952, 25.5845956], [84.8598419, 25.6973675], [84.7822166, 25.7095587], [84.733226, 25.6800516], [84.6853922, 25.7267735], [84.634755, 25.752992], [84.6445139, 25.7860612], [84.6077144, 25.8125445], [84.5802751, 25.8552295], [84.550835, 25.8644523], [84.5680872, 25.8817801], [84.5292421, 25.9270319], [84.5285572, 25.9539856], [84.5409313, 25.9685901], [84.5271462, 25.9886494], [84.5013536, 26.0025017], [84.516242, 26.0389289], [84.5112945, 26.0783859], [84.5243567, 26.0886549], [84.4890089, 26.1150654], [84.4832131, 26.1307929], [84.5098105, 26.1644236], [84.4837905, 26.2289385], [84.4849387, 26.2558692], [84.4992144, 26.2752851], [84.4842795, 26.2896356], [84.5051446, 26.3144205], [84.4975551, 26.3310163], [84.5033792, 26.3414937], [84.492069, 26.3557394], [84.5022309, 26.3603602], [84.4833529, 26.3920178], [84.474155, 26.389006], [84.462751, 26.4007951], [84.4676383, 26.4104811], [84.4391503, 26.4538683], [84.4464865, 26.4814974], [84.4103867, 26.4898874], [84.4073482, 26.507166], [84.4191377, 26.506015], [84.4240543, 26.5165193], [84.385212, 26.5511783], [84.3526232, 26.622742], [84.3381035, 26.6284052], [84.3401658, 26.6411342], [84.316601, 26.6480447], [84.3044712, 26.666387], [84.280694, 26.6637638], [84.2755918, 26.6745443], [84.2605036, 26.6594024], [84.2617443, 26.6691915], [84.2146432, 26.7048433], [84.2012008, 26.7665913], [84.1697205, 26.7797079], [84.1665074, 26.7928885], [84.1563767, 26.7898833], [84.1523313, 26.8055407], [84.1098392, 26.8451242], [84.103237, 26.8665748], [84.0677847, 26.8707705], [84.0563781, 26.8849776], [84.025244, 26.8816867], [84.0227689, 26.8899336], [83.9903052, 26.8888105], [83.9615803, 26.9032153], [83.921716, 26.9022615], [83.885055, 26.9621141], [83.8383512, 27.0116708], [83.8348304, 27.1024607], [83.8498206, 27.1143666], [83.8552136, 27.1412321], [83.8327486, 27.1843202], [83.8447563, 27.1881178], [83.8408094, 27.2147841], [83.7950593, 27.2542773], [83.8052729, 27.3005774], [83.8331428, 27.3418637], [83.8346912, 27.368315], [83.8665616, 27.3449053], [83.886321, 27.3760359], [83.834922, 27.4281274], [83.8508791, 27.4459697], [83.8743407, 27.434858], [83.9359816, 27.4488436], [84.0299472, 27.4361972], [84.063235, 27.4535392], [84.0701743, 27.4808663], [84.0977902, 27.4931515], [84.106378, 27.5190674], [84.1288649, 27.5108538]]]}}]}