{"type": "FeatureCollection", "features": [{"type": "Feature", "properties": {"name": "Saran main canal", "project": "Gandak Major Irrigation Project_Bihar", "kind": "canal"}, "geometry": {"type": "LineString", "coordinates": [[84.21424766344289, 26.618112494323196], [84.21428007341794, 26.614965439199267], [84.21524911564912, 26.61111279896468], [84.22021659664794, 26.60164089827113], [84.225304153893, 26.596398559963223], [84.23727634451673, 26.58713872188274], [84.24368473041065, 26.578457915260767], [84.24634463154669, 26.57220734547275], [84.24877368387155, 26.560747932075557], [84.25100688913794, 26.55511609666164], [84.2545182444397, 26.549750875030064], [84.2602002586663, 26.544623337882538], [84.29037843752329, 26.5237286907827], [84.31961534018998, 26.507520882505624], [84.38022836667625, 26.480663438760732], [84.3896328751296, 26.478043357792053], [84.39576808060092, 26.475254230114324], [84.41699580957557, 26.45937950332758], [84.45523892904382, 26.435819890032384], [84.47605214031717, 26.42483052761743], [84.47978204461334, 26.420992212113113], [84.48876132794403, 26.406105345750348], [84.49250814024768, 26.40219763945999], [84.5021978839848, 26.395547352453853], [84.52864306023285, 26.38535637717693], [84.55, 26.365366861291662]]}}, {"type": "Feature", "properties": {"name": "Parsadhi Minor", "project": "Gandak Major Irrigation Project_Bihar", "kind": "canal"}, "geometry": {"type": "LineString", "coordinates": [[84.13798161547761, 26.61961977870667], [84.13742233514586, 26.606392433854587], [84.13425200000981, 26.60030706419888], [84.13801366285946, 26.58516169619679], [84.1368393822901, 26.584818266681626], [84.13206953846476, 26.579345773916693], [84.13065851928539, 26.578593001251644], [84.12665642760625, 26.578744141077777], [84.12425108943233, 26.57365659677346]]}}, {"type": "Feature", "properties": {"name": "Tirhut Main Canal", "project": "Gandak Major Irrigation Project_Bihar", "kind": "canal"}, "geometry": {"type": "LineString", "coordinates": [[83.9129353190612, 27.4], [83.91286692806324, 27.359058286392727], [83.91391374119283, 27.354273691934743], [83.91604794617636, 27.349133572069025], [83.94840438077736, 27.305611637130937], [83.95531850085352, 27.293693748628016], [83.95982510779046, 27.287589624870137], [83.975046042119, 27.272130743897385], [84.00483505402697, 27.246394076504792], [84.06726514527332, 27.170407776878317], [84.07108696801629, 27.167096274115075], [84.09516874018802, 27.150115781131433], [84.1003554732432, 27.145207162590445], [84.13918383562866, 27.10005856129016], [84.14863541067841, 27.08973691813588], [84.15176688155184, 27.087276463502523], [84.1747799620123, 27.07575027913271], [84.19060442491431, 27.070633103067216], [84.19404181420842, 27.068364398100705], [84.21651003989871, 27.048835875875763], [84.26783123953733, 27.014733933607005], [84.274130238115, 27.012326237343128], [84.28779782975457, 27.00886395591962], [84.30596337330991, 27.001936047547293], [84.3212525650877, 26.999307328744607], [84.34548517852606, 26.986798631172963], [84.35255730595313, 26.981773485846052], [84.36576815437054, 26.966585199979175], [84.37012218784491, 26.963004039867197], [84.39139857590223, 26.952678640770404], [84.40292868591554, 26.946033566704916], [84.41200803595096, 26.94202193649097], [84.41454845187592, 26.94009262874629], [84.4182250400061, 26.9365746524901], [84.42060396413277, 26.933239164136257], [84.4381079058554, 26.89292365293044], [84.43927183264162, 26.889389186297528], [84.44641488751613, 26.85395147406147], [84.44753791791771, 26.851006894442296], [84.46549221430553, 26.82601221569024], [84.47269879518937, 26.80518390239486], [84.47623637117105, 26.798901042419164], [84.5036305006462, 26.769375326895705], [84.50828050667499, 26.765831042724287], [84.5133499302028, 26.763356668822755], [84.52189519675436, 26.761366427154748], [84.55, 26.76025003975708]]}}, {"type": "Feature", "properties": {"name": "Canal", "project": "Gandak Major Irrigation Project_Bihar", "kind": "canal"}, "geometry": {"type": "LineString", "coordinates": [[84.44654556887849, 26.825125526217487], [84.44348269497205, 26.833681403877822], [84.44396470935018, 26.841164387964838], [84.4427830225772, 26.85083561042006], [84.44359387806102, 26.8584050366439], [84.44101674245667, 26.862271817248438], [84.43867276691121, 26.863506833414313], [84.43329103988886, 26.864923468194988], [84.42861638517228, 26.867780901660623], [84.42928671741812, 26.871364083935802], [84.43284869457155, 26.88002450830115], [84.43244774059619, 26.884121790896934], [84.42899568450832, 26.89093928380919], [84.43139688419302, 26.900604699674396], [84.43354074839354, 26.903365525209185]]}}, {"type": "Feature", "properties": {"name": "Don Branch Canal", "project": "Gandak Major Irrigation Project_Bihar", "kind": "canal"}, "geometry": {"type": "LineString", "coordinates": [[84.55, 27.208455653634438], [84.52535587076227, 27.22885085840702], [84.52349766425456, 27.23098526629105], [84.51716517753235, 27.24217448935962], [84.5132501851272, 27.246051652750005], [84.49411229560559, 27.257897965764936], [84.48529829670217, 27.264766128327803], [84.48199385559586, 27.26618810187799], [84.47809191824521, 27.266750794019135], [84.45320029003325, 27.261801922742556], [84.44903977326564, 27.259815665387883], [84.42764586748136, 27.245354076395436], [84.41337632155324, 27.232862355739694], [84.40845757685629, 27.227254498449387], [84.40477413607955, 27.224258830647926], [84.38741338814914, 27.216232089303332], [84.36975702668683, 27.211976633757242], [84.34637831675656, 27.208999850816557], [84.32784286999048, 27.19869432979612], [84.322247397909, 27.197008807958873], [84.27666628888845, 27.194757191109773], [84.25305776486108, 27.194775753132216], [84.24669294961961, 27.195663963685433], [84.22155284801308, 27.204499359798024], [84.21051051877083, 27.209308193530568], [84.18497744947702, 27.21691585363585], [84.17176613933957, 27.225662874349133], [84.15390393026247, 27.239719792322134], [84.13116681614974, 27.253308999133942], [84.10366264950257, 27.261319445752367], [84.07903672861676, 27.264021193692837], [84.02897757308588, 27.276355739362614], [84.02593710193821, 27.27756959816556], [84.01654608899466, 27.28541556441884], [84.0056228814448, 27.292816141547277], [83.9971615531243, 27.300418118073793], [83.98639074954643, 27.308835368858993], [83.95768616731107, 27.32513088610003], [83.95301463480186, 27.328633523593517], [83.95078379047887, 27.331614059884544], [83.94712608461559, 27.34057530023448], [83.94463172870833, 27.353248510484867], [83.94446960498303, 27.35655123685464], [83.9482401254668, 27.378183139327373], [83.94742815925719, 27.38178489699701], [83.94588417302963, 27.383885687925744], [83.93398560818393, 27.39334841362584], [83.92352164406363, 27.4]]}}, {"type": "Feature", "properties": {"name": "Chhapra Branch Canal", "project": "Gandak Major Irrigation Project_Bihar", "kind": "canal"}, "geometry": {"type": "LineString", "coordinates": [[84.4699203292097, 26.428175598830467], [84.46838612398439, 26.418468106082116], [84.47052002937686, 26.402736326176317], [84.4666466280568, 26.389962158361335], [84.4661516406982, 26.386418210735204], [84.47335493895207, 26.340312424942823], [84.47130252053805, 26.32292241378042], [84.48089309754631, 26.28804634293573], [84.48582098199145, 26.273054558011662], [84.48536386496575, 26.228268752760123], [84.49187170733603, 26.200174562168804], [84.49593578213516, 26.171775178289828], [84.49691039139296, 26.152674041454983], [84.4983127245598, 26.149531656625406], [84.50147285840303, 26.145429430689898], [84.52036987387075, 26.126115708652044], [84.53686082864174, 26.10107618137408], [84.54037261422074, 26.098954654426876], [84.55, 26.09497615900962]]}}, {"type": "Feature", "properties": {"name": "Hathuwa Branch Canal", "project": "Gandak Major Irrigation Project_Bihar", "kind": "canal"}, "geometry": {"type": "LineString", "coordinates": [[84.25533230753395, 26.548893064630924], [84.24335379044004, 26.527804990848765], [84.23722955912534, 26.48236223192841], [84.242360393611, 26.461745091243536], [84.2427304571454, 26.457944457322206], [84.23524468267154, 26.429032303678827], [84.23454702406744, 26.42363458742115], [84.23215856353751, 26.41696725746121], [84.2207425719274, 26.370224043472025], [84.2223123754458, 26.35401320031572], [84.21732631766432, 26.339445260464814], [84.21426210530882, 26.308076062387105]]}}, {"type": "Feature", "properties": {"name": "Triveni Branch Canal", "project": "Gandak Major Irrigation Project_Bihar", "kind": "canal"}, "geometry": {"type": "LineString", "coordinates": [[83.91813691217087, 27.4], [83.91810873728176, 27.392324545134713], [83.9202308618167, 27.36219235369014], [83.92105928956441, 27.3595894331198], [83.92577915018059, 27.352496056709768], [83.92683019190855, 27.344754714544088], [83.92804000180203, 27.341120194794417], [83.94778649051753, 27.31408183284937], [83.9641610174932, 27.293914263502415], [83.98585389072063, 27.271570365429508], [84.01246166773181, 27.257580422331348], [84.05617815070592, 27.24712070237934], [84.07452591271311, 27.244712615254187], [84.1036714818107, 27.234807072450643], [84.10737724237184, 27.231662256520305], [84.12459244204241, 27.20661604948581], [84.12755997780496, 27.20356752860551], [84.15365601405429, 27.190268083451944], [84.18631773215994, 27.16326286023131], [84.19025073588728, 27.161090891359983], [84.19388168365793, 27.160117994962114], [84.24872854015918, 27.157515867462443], [84.34943033698663, 27.16258440134268], [84.35440548660935, 27.163332296322718], [84.36310079560336, 27.16762809789933], [84.3662700758177, 27.170000174933065], [84.37816707984346, 27.184757874149646], [84.38427468066511, 27.18751336397868], [84.40125030802781, 27.190334970218167], [84.41409228315459, 27.194598714205412], [84.45566608109058, 27.227017253153885], [84.45907577490958, 27.228732559757894], [84.46299505620472, 27.229698612685375], [84.46550426751018, 27.228618952624245], [84.46812616902044, 27.228845823143097], [84.4695489056258, 27.229950946625387], [84.48085307921744, 27.230127315389876], [84.48665680172127, 27.228524603238828], [84.50367787399026, 27.217400962920262], [84.51248724914583, 27.20240326150374], [84.51503767856241, 27.199509724130394], [84.52959197262736, 27.191351517195187], [84.55, 27.17740190682006]]}}, {"type": "Feature", "properties": {"name": "Mangalpur Branch Canal", "project": "Gandak Major Irrigation Project_Bihar", "kind": "canal"}, "geometry": {"type": "LineString", "coordinates": [[84.4485255257829, 26.700667174576324], [84.44391057398553, 26.703884745065306], [84.43594080187358, 26.711767776970817], [84.43278905353309, 26.719906901586494], [84.43241886947851, 26.723127304239725], [84.4299333900986, 26.72852608994786], [84.42427878040807, 26.7445113905015], [84.42484335123787, 26.751344369756655], [84.4197496772353, 26.76057864188478], [84.40774123341092, 26.779257337732915], [84.40736678256245, 26.786755698644672], [84.40458632018922, 26.794558958716895], [84.40432455999866, 26.808655963724977], [84.39220433575478, 26.83485493348828], [84.3934139344998, 26.841833683889032], [84.39003353955874, 26.852205054421685], [84.37436256414746, 26.889269939977904], [84.36919282613599, 26.897453153148415], [84.36492698143103, 26.915453405316466], [84.35836993659791, 26.920821362098703], [84.35608017723126, 26.93799913931735], [84.34662316164612, 26.955046256696516], [84.3466913558155, 26.95658273878537], [84.35011729727181, 26.96360916019521], [84.36128012976155, 26.971603294054468]]}}, {"type": "Feature", "properties": {"name": "Mangalpur Branch Canal", "project": "Gandak Major Irrigation Project_Bihar", "kind": "canal"}, "geometry": {"type": "LineString", "coordinates": [[84.48651639579336, 26.656775709641593], [84.48663163648854, 26.659452885920302], [84.48428153875972, 26.667712198823708], [84.4828175361396, 26.670288390007258], [84.48181446242138, 26.676408545967586], [84.47703613380821, 26.68243101922924], [84.46822632270539, 26.688887871130852], [84.46510035258856, 26.692209810871205], [84.45504054713206, 26.696121513771395], [84.4485255257829, 26.700667174576324]]}}, {"type": "Feature", "properties": {"name": "Sugauli Branch Canal", "project": "Gandak Major Irrigation Project_Bihar", "kind": "canal"}, "geometry": {"type": "LineString", "coordinates": [[84.43354074839354, 26.903365525209185], [84.4482143219692, 26.908524881397536], [84.45303819033202, 26.909146054537803], [84.47483382623938, 26.902701497384534], [84.47783355235909, 26.901136872918904], [84.47983512144467, 26.89913955945558], [84.48992412118675, 26.884730930216577], [84.49295029385559, 26.882781722406786], [84.49675978630592, 26.881672885504106], [84.53919867078423, 26.884606689115632], [84.55, 26.884582831397527]]}}, {"type": "Feature", "properties": {"name": "Western Gandak Main Canal", "project": "Gandak Canal Major Irrigation Project_Uttar Pradesh", "kind": "canal"}, "geometry": {"type": "LineString", "coordinates": [[83.7932258947601, 27.4], [83.79550105436208, 27.392291738216056], [83.79829361469321, 27.371544079732523], [83.80915022455497, 27.344460338933988], [83.80907951372379, 27.34060679747906], [83.80770313293172, 27.336319393321062], [83.7916947891098, 27.30759616608613], [83.78989888826939, 27.293417616891144], [83.79201025825364, 27.255692057633702], [83.7948020551731, 27.251595840460848], [83.82173673647712, 27.23641199745802], [83.82823899621948, 27.23183717479535], [83.83480455268042, 27.22449529286368], [83.85105081883367, 27.203437171396736], [83.85328476005222, 27.197386489066798], [83.85290351024817, 27.192764129231744], [83.85085067483124, 27.187543761730677], [83.84796294461378, 27.182047125555606], [83.8427002507082, 27.175796099534796], [83.84141110427692, 27.172674284100367], [83.8409368740978, 27.169336351977023], [83.84246068069977, 27.164261218514355], [83.85326245689569, 27.144109792759075], [83.85418007307973, 27.141422247234967], [83.85404038926443, 27.138856406093847], [83.84936208076647, 27.119625889125444], [83.84998977985566, 27.10594696523648], [83.84810578908466, 27.1023649002658], [83.83769978509271, 27.09153825941531], [83.83561863324317, 27.086819868576804], [83.83524767175022, 27.083173323641514], [83.84090465844173, 27.04124832193617], [83.84440553625156, 27.02199379507931], [83.85008851406039, 27.004652523287465], [83.85500124493088, 26.994335709775847], [83.85657534879674, 26.987158608419573], [83.85860162347873, 26.98461223081422], [83.88262963648491, 26.965288572226576], [83.89101053164718, 26.95013277755445], [83.89489870766351, 26.93897208883371], [83.89720414787732, 26.93660983897925], [83.9010078686049, 26.93411907180842], [83.9035095084831, 26.93086174763796], [83.90755107912744, 26.915168529647104], [83.91119808424418, 26.910933061680897], [83.92155856876818, 26.902860019664107], [83.92576687513707, 26.901148131335827], [83.93467516198127, 26.89995298707018], [83.95344432215445, 26.903937014673527], [83.96062365564343, 26.903135385957523], [83.99007246551541, 26.888298593997334], [83.99700615927203, 26.888455560084374], [84.01219522964158, 26.890948791865526], [84.01661297202229, 26.891068707638397], [84.05565152184958, 26.88140599820667], [84.06911668315851, 26.87319683769989], [84.0774623163905, 26.870277908300686], [84.07924787689618, 26.870085462205395], [84.08869730282713, 26.87203097397553], [84.09405887286202, 26.87081852404815], [84.1007531903505, 26.867229217048653], [84.10681600732718, 26.862231806385303], [84.1089570481205, 26.858888925314904], [84.10930983422986, 26.85627757421459], [84.10882494389352, 26.852323156562953], [84.11020767625797, 26.848831147660576], [84.12555181881201, 26.836189444109632], [84.1331133060729, 26.82263258142869], [84.14015584759458, 26.81658056937925], [84.14576324280496, 26.80976258938718], [84.15179379921227, 26.805932628062354], [84.15499793532223, 26.801099813930414], [84.18669571943813, 26.78380803672009], [84.19154065995708, 26.780345860463267], [84.20148182128835, 26.766159513173914], [84.20595207813027, 26.756205327069054], [84.20726532438833, 26.731323374003466], [84.20793131003543, 26.726123320839744], [84.20913465083146, 26.723168906789798], [84.22115856182985, 26.702573234441477], [84.23219916872638, 26.690837910351586], [84.23436935312614, 26.687637909919104], [84.23483774243833, 26.685534024059283], [84.23432362234159, 26.681411083579242], [84.2277991043124, 26.66868802011626], [84.2236255736143, 26.65723911811068], [84.21424766344289, 26.618112494323196]]}}, {"type": "Feature", "properties": {"name": "Canal", "project": "Saryu Nahar Pariyojana", "kind": "canal"}, "geometry": {"type": "LineString", "coordinates": [[83.14797966885621, 26.876811787203472], [83.1469722138412, 26.870081452614116], [83.1486668428396, 26.863949617737713], [83.14492060050165, 26.853088573855796], [83.15124195029463, 26.84762613229788], [83.15298701762612, 26.83945736396961], [83.15792388038464, 26.834013221514358], [83.15655843873583, 26.82823469514318], [83.17182202937727, 26.81406013625261], [83.18610609384267, 26.80535384143065], [83.19220554632481, 26.798921642724572], [83.20164275061497, 26.800190131585207], [83.2053084997792, 26.79851770400447], [83.20709495620204, 26.796554937855277], [83.21228072016332, 26.782846154803494], [83.21410161549751, 26.772647774209837], [83.21388699080353, 26.769205770322714]]}}, {"type": "Feature", "properties": {"name": "Gola Lift Main Canal", "project": "Saryu Nahar Pariyojana Major Irrigation Project", "kind": "canal"}, "geometry": {"type": "LineString", "coordinates": [[83.2723270409542, 26.37271056052469], [83.27468119047435, 26.37592632850731], [83.27601344263968, 26.379419186199847], [83.27589383307387, 26.382051979382904], [83.26919552811472, 26.40306980522764], [83.27430004250961, 26.415378968358272], [83.29726205833057, 26.406768569100816], [83.31163147959049, 26.39194380205345], [83.33107890675583, 26.3906906140641], [83.33545620493094, 26.385930379847487], [83.33906630876488, 26.38054249847105], [83.34606461395774, 26.36753808426652], [83.35103800648677, 26.36332622454328], [83.35412366538003, 26.358666059870057], [83.36310091273911, 26.351394944379283], [83.36574797743413, 26.347616154784458], [83.37064647759667, 26.34426371831188], [83.37527125184447, 26.338441866168342], [83.38981983526453, 26.33019009420414], [83.39744658438083, 26.327330134601148], [83.40165199494216, 26.32332494391351], [83.41079959633392, 26.317681973362582], [83.42933125120295, 26.31092400886948], [83.43389068248852, 26.308636373746477], [83.43648734222478, 26.3087208761533], [83.44119180631236, 26.311978589582807], [83.44291515722388, 26.312369923993597], [83.45363721567627, 26.31068110973723], [83.46652829705536, 26.31105336598803], [83.48188052291107, 26.313397457267648], [83.50309374993348, 26.308849764839366]]}}, {"type": "Feature", "properties": {"name": "Tanda Main Canal", "project": "Tanda Pump Canal Major Irrigation Project", "kind": "canal"}, "geometry": {"type": "LineString", "coordinates": [[82.95, 26.212850498821478], [82.95194947091025, 26.205551093132385]]}}, {"type": "Feature", "properties": {"name": "Banganga Main Canal", "project": "Banganga Canal Irrigation Project", "kind": "canal"}, "geometry": {"type": "LineString", "coordinates": [[82.95, 27.351887763349133], [82.96134146923424, 27.355321962587013], [82.96628802680127, 27.359704055763512], [82.97114795467644, 27.36170185945866], [82.97349463633171, 27.36155273358619], [82.97633807886548, 27.360157988039735], [82.98303422286675, 27.35297001015558], [82.98960435021829, 27.349109582783218], [82.9906399167043, 27.3458237360204], [82.99105536998863, 27.34138180968551], [82.98697967453919, 27.334744055434356], [82.9863901368099, 27.33207286109937], [82.9871654807394, 27.32342257557277], [82.98632645472148, 27.31368053805251], [82.98806279800594, 27.307438831109295], [82.99302721277854, 27.304881220386687], [83.00520713713631, 27.307236230646588], [83.00958458087642, 27.30662812368682], [83.01639349551183, 27.30093238301262], [83.0177918235127, 27.297912935392457], [83.02354157571924, 27.294075594208298], [83.02724923452878, 27.28453811325014], [83.02875867125088, 27.283820244517667], [83.03636858638394, 27.28411184079631], [83.04472704609894, 27.27777350156598], [83.0462380901839, 27.275230555124644], [83.04909523546465, 27.273459940731602], [83.05912122303204, 27.263525362422175], [83.0639133602637, 27.25695386792673], [83.06814900052541, 27.25375086744931], [83.06923653531764, 27.25061819449115], [83.0690217114569, 27.242642834223123], [83.07222397908924, 27.232675485791134], [83.08010706125799, 27.225892379714534], [83.08264275345479, 27.22460636872204], [83.09270792403987, 27.22172640992844], [83.0990221787354, 27.218869416509595], [83.10009520730117, 27.219751686478673], [83.10379495439594, 27.220568544261763], [83.10478036899607, 27.21996513031445], [83.10923119375886, 27.219781558022362], [83.11484191419952, 27.231003972086675], [83.11743258002136, 27.231742050955194]]}}, {"type": "Feature", "properties": {"name": "Doharighat Main Canal", "project": "Dohrighat Pump Canal Major Irrigation Project", "kind": "canal"}, "geometry": {"type": "LineString", "coordinates": [[83.9464801633468, 25.95], [83.94570342143179, 25.963200285808266], [83.94408882566213, 25.96540665856565], [83.94192090699066, 25.966393500325005], [83.9159140665185, 25.972668495390465], [83.91494444362384, 25.97483091537939], [83.91665452025703, 25.987045167540966], [83.91542074959429, 25.98933298230455], [83.91244165138372, 25.99141333986753], [83.90728082339054, 25.992575268618104], [83.88094298849633, 26.00596081202823], [83.88016589252165, 26.00700346928984], [83.87867173030169, 26.01902339023902], [83.876403597369, 26.025895704228404], [83.87497506182494, 26.02813312756347], [83.85937149675344, 26.034815206489874], [83.84669463044078, 26.047531152757717], [83.8227356266114, 26.061386212179883], [83.81206321520713, 26.061528675524034], [83.79633522366008, 26.066146936930238], [83.79248369505447, 26.066231504792462], [83.78794914363536, 26.06376074394041], [83.7787750822279, 26.05407511987634], [83.77479579977415, 26.047113762045424], [83.77168798240689, 26.044630813192793], [83.76998959096382, 26.043972960669205], [83.74805180727033, 26.045141340926705], [83.74385973869713, 26.044629919348424], [83.73826641394812, 26.040141185935703], [83.73272125081974, 26.03710832446071], [83.72409976146982, 26.03106071699949], [83.72167993569641, 26.030616001691214], [83.72001510041709, 26.03126329359716], [83.71567482493568, 26.0348339911033], [83.71393396613664, 26.03530486928946], [83.69809281052814, 26.033420176833236], [83.69305707583561, 26.034306972932935], [83.68024233305566, 26.047185845546057], [83.66367470280318, 26.06154948544091], [83.65932355409994, 26.067644805356526], [83.65626150606437, 26.069858983854484], [83.63021467143513, 26.075916913063725], [83.62269626315069, 26.071400481160136], [83.61829036878912, 26.070671393683043], [83.61479942298342, 26.071702462455082], [83.60380014386648, 26.077292275671855], [83.59824477685234, 26.075447208922487], [83.5740119615873, 26.080307256452723], [83.57143964013623, 26.081649734045648], [83.5649596428982, 26.092102931053983], [83.56513334970411, 26.095954167500974], [83.5676867283456, 26.102400290963672], [83.567325350379, 26.10412602782957], [83.56490598583274, 26.107876626528334], [83.56566493746705, 26.11419471047482], [83.56470805204019, 26.117240393067615], [83.55299837936671, 26.13619373122843], [83.54140439159107, 26.14252759316913], [83.53917363591438, 26.14583487864279], [83.53904512330398, 26.152853563557738], [83.53491208043643, 26.167115658236256], [83.53481913667862, 26.169597907880163], [83.53645807470954, 26.179202707175723], [83.53553329186056, 26.189450123954884], [83.5340119579085, 26.195910891915936], [83.53208047366074, 26.197457263572208], [83.52228887751927, 26.202382827774958], [83.52124490802433, 26.20362585467168], [83.51872308443023, 26.219700267106642], [83.52390101654015, 26.25668302846249], [83.5379949146335, 26.268234472957804]]}}, {"type": "Feature", "properties": {"name": "Kwano Pump Main Canal", "project": "Kuwano Pump Canal Project", "kind": "canal"}, "geometry": {"type": "LineString", "coordinates": [[83.02118439312697, 26.603617539529605], [83.0205271194136, 26.605657230294156], [83.02478834168234, 26.610131260443065], [83.02732587722295, 26.613876056935347], [83.02630102475405, 26.619022698745827], [83.03079823383938, 26.63311554801466], [83.04309600519589, 26.64493405706714], [83.04965329226359, 26.65500069350262], [83.0724570932194, 26.649209617857093], [83.07564581489699, 26.64955339548084], [83.0806377198752, 26.653011674839828], [83.1075518341861, 26.656612018635297], [83.11247404087545, 26.665453006432536], [83.11547486184884, 26.667224038958516], [83.12151480814173, 26.678489364023708], [83.12917846717632, 26.680769828283776], [83.13627195108442, 26.678487079629775], [83.14000377874706, 26.67385182679472], [83.15462044519015, 26.668030027040025], [83.16087680656328, 26.661978399441946], [83.1608753710768, 26.660700167900238], [83.15722909380383, 26.652423822684305], [83.15902370879276, 26.644937150801216], [83.15608253698817, 26.639449557390098], [83.15591435860058, 26.634129781027465], [83.15639331339544, 26.632965107843592]]}}, {"type": "Feature", "properties": {"name": "Chaf Branch Canal", "project": "Gandak Canal Major Irrigation Project_Uttar Pradesh", "kind": "canal"}, "geometry": {"type": "LineString", "coordinates": [[84.09370160922195, 26.870946527468014], [84.09296730194755, 26.866350392932425], [84.09809264317194, 26.854726384728135], [84.09800330096871, 26.852756579769096], [84.0966724984103, 26.84938570687448], [84.09700134679423, 26.846186082528796], [84.09835917888886, 26.84364437005797], [84.10523399508395, 26.83986284739218], [84.10887005197266, 26.8341479566475], [84.10965939863259, 26.82994097086834], [84.10913194971914, 26.82217099223644], [84.10713524157562, 26.819132538402563], [84.09589221987369, 26.810715667524352], [84.08571204274367, 26.807588924038566], [84.08475507849641, 26.80647249559813], [84.0737528558837, 26.79991953155003], [84.07134056685572, 26.796576361087347], [84.07009242467515, 26.7928879501265], [84.07185020960377, 26.786181436716824], [84.0731560385646, 26.78471400973205], [84.07583012636366, 26.783402788537906], [84.08288553077377, 26.78356180442898], [84.08815412061722, 26.785565841732225], [84.09049691696656, 26.78581068168911], [84.09435685265947, 26.78452301531642], [84.09583169321095, 26.783256426027098], [84.09691676852607, 26.781264956747982], [84.09712938771766, 26.77903602316662], [84.09159611972149, 26.76837843167474], [84.09149277105767, 26.76707082247472], [84.09746718949725, 26.758226692303698], [84.09892846438643, 26.757179533873487], [84.10172783701351, 26.75771816517758], [84.11283815282843, 26.76484637802385], [84.12735333809358, 26.772934341991526], [84.15528875270068, 26.76970887373955], [84.16418253080731, 26.763620019471194], [84.16461679806415, 26.761517443843402], [84.1588868668206, 26.751990281929594], [84.15911362811502, 26.750071259961253], [84.16419425937505, 26.743745427697306], [84.17230025932423, 26.740973259569646], [84.17446845707823, 26.738258328064024], [84.1751868300441, 26.733833270085636], [84.17275980333325, 26.729779535120034], [84.17132857976597, 26.72878117170726], [84.15559397658694, 26.72560554811774], [84.14769661377242, 26.70991190430047], [84.14766577761388, 26.70835120425596], [84.1506311604668, 26.70421371176651], [84.14918568285123, 26.692846384903717], [84.15332246638428, 26.679655449434847], [84.1532614452481, 26.676867254069055], [84.15149626669914, 26.67155352712973], [84.15183219190538, 26.667850727244744], [84.15394713839319, 26.66493180368893], [84.15804356370938, 26.66308354627285], [84.16227268511129, 26.65770208198009], [84.17282665985073, 26.647038170967168], [84.17970760788086, 26.631211130198032], [84.18087710503426, 26.62723929123937], [84.18263496279144, 26.626315670408378], [84.1861128320733, 26.625784453136635]]}}, {"type": "Feature", "properties": {"name": "Deoria Branch Canal", "project": "Gandak Canal Major Irrigation Project_Uttar Pradesh", "kind": "canal"}, "geometry": {"type": "LineString", "coordinates": [[83.79631947282391, 27.385880461664012], [83.78985735833948, 27.384457278646337], [83.7870314313373, 27.383110846617306], [83.78265110343702, 27.3796984603456], [83.74347799545315, 27.33229516668305], [83.73233057800009, 27.30300809857472], [83.72924595940226, 27.29767442362143], [83.71227890861228, 27.27911708673163], [83.70943965168912, 27.27738166078571], [83.70241261124819, 27.275101252254295], [83.69727428549552, 27.27174963661351], [83.66205939795366, 27.22126747122282], [83.6483961853292, 27.198550490093076], [83.64704887545398, 27.195022507899317], [83.6421852644527, 27.15617938385689], [83.64127046710284, 27.15435698323589], [83.63855298285334, 27.151759412565102], [83.62517165809494, 27.144990394659356], [83.62195731596813, 27.141591692578427], [83.61950714024981, 27.134780230108003], [83.62074132496996, 27.12767407783767], [83.6091827369186, 27.102329493265874], [83.61166272444245, 27.091890585615772], [83.60879390328161, 27.080374032368425], [83.60987503573512, 27.074685781018808], [83.61329816806204, 27.06391454721543], [83.61194936002083, 27.061316826089154], [83.60921136317464, 27.05880116147095], [83.60727349604686, 27.048969676746367], [83.60416861348675, 27.04198524121054], [83.60394013391056, 27.038804942961352], [83.60973444499103, 27.030594103246013], [83.61836354681122, 27.022637244367914], [83.62843071422816, 27.015641588567625], [83.63130151660698, 27.011636638780885], [83.63286263374994, 27.006393086348776], [83.63331118079421, 27.00215189454848], [83.62873696129172, 26.983768536316035], [83.6290044289844, 26.978897022846542], [83.63096438033388, 26.97442456201293], [83.63339414150751, 26.97105941550128], [83.63775489897117, 26.96789144712418], [83.64294523399242, 26.966119021407053], [83.64425777050958, 26.96465087768146], [83.64451711313474, 26.957579453693974], [83.65010632285089, 26.9490104483604], [83.65063870189078, 26.946638347336357], [83.65051792004695, 26.93788223256804], [83.64726224561915, 26.93218848537419], [83.64664315302832, 26.927679560969086], [83.64836375990751, 26.923431255399255], [83.65268692249276, 26.917976763064306], [83.65266035930102, 26.91248178862307], [83.65115498705028, 26.907258507103677], [83.65596665626624, 26.897246200332724], [83.65804984782129, 26.88198856071983], [83.66334100477742, 26.87452076997048], [83.66380968077121, 26.8724283579092], [83.66272855896341, 26.870075383825196], [83.65660156187828, 26.865192436565483], [83.65551971227366, 26.86280746412009], [83.65568735921424, 26.85998257716541], [83.65907430142408, 26.856201717855452], [83.67973429108979, 26.84458095956843], [83.68297493817172, 26.832850980298726], [83.68518190242403, 26.830535026322284], [83.6891477416644, 26.827817091237947], [83.69015338393237, 26.826186618232917], [83.69141831054827, 26.82019511406826], [83.69431839303053, 26.813580776678368], [83.69758929503226, 26.799653593911177], [83.70210910112392, 26.795917858781355], [83.70412299342941, 26.792775242664458], [83.70500501478433, 26.77878524839511], [83.70659269289959, 26.777076922382516], [83.71001635716178, 26.776233646819524]]}}, {"type": "Feature", "properties": {"name": "Madhubani Branch Canal", "project": "Gandak Canal Major Irrigation Project_Uttar Pradesh", "kind": "canal"}, "geometry": {"type": "LineString", "coordinates": [[83.72765949830382, 27.29584127266993], [83.70397264419556, 27.294971400802353], [83.70011794644051, 27.293446750782696], [83.68271302243694, 27.278428036260497], [83.67667615972746, 27.264055032002446], [83.67514763422446, 27.262416155809852], [83.65004547483682, 27.253349243358404], [83.6290429477869, 27.235487254719715], [83.62427249358394, 27.228474431929108], [83.60894595384511, 27.22069515143632], [83.58523334195611, 27.19901501178002], [83.5697156177921, 27.16428657339791], [83.54987153475955, 27.148759446310795], [83.52944364756686, 27.148086967130276], [83.51431856878685, 27.139828167769373], [83.49812462654441, 27.134699211154366], [83.49679028743913, 27.133483085370155], [83.49518732708512, 27.12754536714097], [83.47975521451524, 27.116857735768477], [83.47807386176162, 27.11654351693371], [83.4609060551375, 27.118496224073173], [83.44280330445471, 27.114243168592996]]}}, {"type": "Feature", "properties": {"name": "Chauk Branch Canal", "project": "Gandak Canal Major Irrigation Project_Uttar Pradesh", "kind": "canal"}, "geometry": {"type": "LineString", "coordinates": [[83.66029244105945, 27.257231779783666], [83.65938408334038, 27.258475686827637], [83.65764704251235, 27.259314484059214], [83.62591131654783, 27.267129007775765], [83.60421008067266, 27.25959182871018], [83.57895561456583, 27.257347539448602], [83.56968390706594, 27.2589585300379], [83.56176070046082, 27.26438936884804], [83.54878145222847, 27.26509274264848], [83.52605358209885, 27.25188294948174], [83.48997425393043, 27.234339428622935], [83.4853590129397, 27.22730087943866], [83.48544590673963, 27.224908067871556], [83.49453853529393, 27.204392949358056]]}}, {"type": "Feature", "properties": {"name": "Naraini Branch Canal", "project": "Gandak Canal Major Irrigation Project_Uttar Pradesh", "kind": "canal"}, "geometry": {"type": "LineString", "coordinates": [[83.71144859192972, 27.278493298961703], [83.71268364963454, 27.276219375619814], [83.74417683892634, 27.252441597835528], [83.74708940254656, 27.25149631317306], [83.74981881098137, 27.251773612954487], [83.75745561444279, 27.249693581940743], [83.76862387381955, 27.24825882719728], [83.77420073769855, 27.24542870055257], [83.78081723059917, 27.24373696930311], [83.78126533346757, 27.242339089113848], [83.77809141040635, 27.23370910459141], [83.7786167526009, 27.230292524896477], [83.77364656265922, 27.209736502589262], [83.74897008631783, 27.18401002601652], [83.7421627255431, 27.179184314533266], [83.73812032333997, 27.171230754056392], [83.70621767722575, 27.143500609003265], [83.70436506198018, 27.142426178881642], [83.6616244785334, 27.128366783120892], [83.65007918427975, 27.11645052096567], [83.63700734104974, 27.109342005795632], [83.59699227014596, 27.0598522499541], [83.59079339614149, 27.03405801220842], [83.58152017647781, 27.017442494464294], [83.58255158064702, 27.014644151702424], [83.59294033098917, 27.0052975381168], [83.59615580996204, 27.003165690572946], [83.59839135676725, 26.999728074785295], [83.59862668313193, 26.9829681156851], [83.59745555563397, 26.97440985186277], [83.59798694036108, 26.96731872022412], [83.59934270343769, 26.965740436442513], [83.60504022690408, 26.962807482553814], [83.6075364958968, 26.9594366157151], [83.61402912981244, 26.955827808734337], [83.61518724992106, 26.95465099356614], [83.61552027089857, 26.95329688639547], [83.61563694462558, 26.93567610127785], [83.61497035144966, 26.93355989714117], [83.61211945392317, 26.930562780942964], [83.60180276868691, 26.928070091368156], [83.59574349624044, 26.920572683196827], [83.594182048402, 26.920097194984358], [83.58490372613207, 26.906428804216834], [83.59059196161492, 26.89286569104931], [83.5881991300749, 26.882107008001462], [83.58698122528907, 26.872380338169364], [83.58601364344042, 26.87092806700394], [83.58481363144529, 26.86540945807838], [83.58515386250511, 26.864306182184734], [83.58719741307351, 26.86332377278983], [83.58810234493768, 26.86203413263225], [83.58814443084442, 26.855989567455495], [83.58682787358447, 26.85317584881475], [83.58838012663055, 26.849415600766818], [83.58763510139127, 26.845580008757555], [83.59507511496803, 26.837001601188778], [83.59172268939828, 26.828975836642766], [83.584830326644, 26.825819305764195], [83.58128723548515, 26.821444903668837], [83.58057579517633, 26.8203975258964], [83.5799747526268, 26.815882913126178], [83.58485646753691, 26.808444903727736], [83.58552548976927, 26.80333519798293], [83.59253271133532, 26.789991423230713], [83.58947540642374, 26.775649643515816], [83.59240713487075, 26.768388029875258], [83.59298607873927, 26.763526653894147], [83.59206574355635, 26.758160895546002], [83.60185644408293, 26.75178721369125], [83.60365548485657, 26.74996549163355], [83.60339507254933, 26.74528760017336], [83.60035592689027, 26.743019992345776], [83.60036394664024, 26.74223002912518], [83.60443381896579, 26.737845280749628], [83.61047345942534, 26.727311327190737], [83.60841970491573, 26.716803617196042], [83.60818106191869, 26.70790212992849], [83.60608640315185, 26.702896440534417], [83.60013727940496, 26.69836272482507], [83.59078971856393, 26.663254029854265]]}}, {"type": "Feature", "properties": {"name": "Mathia Branch Canal", "project": "Gandak Canal Major Irrigation Project_Uttar Pradesh", "kind": "canal"}, "geometry": {"type": "LineString", "coordinates": [[83.85255778560571, 27.145254218986864], [83.86655329647431, 27.145353818642292], [83.8715407100356, 27.143145740554832], [83.87409380532225, 27.139080726087403], [83.87528010370482, 27.135857046708285], [83.87545722417083, 27.132493901830152], [83.8781895959065, 27.125978259347914], [83.88006495544504, 27.123276022710694], [83.88224099867864, 27.121396920943898], [83.89656031365236, 27.113905552347507], [83.89950488604003, 27.110505697464237], [83.90351054422797, 27.090818751370076], [83.90509476731857, 27.087146648147343], [83.90747010914133, 27.08432656500582], [83.91187020110998, 27.08169343564348], [83.91933172485619, 27.079960620684506], [83.92300315540795, 27.08046700308628], [83.92785533244142, 27.082376889950282], [83.92987878574252, 27.082353754200884], [83.9392085919117, 27.07939127528533], [83.94394720279692, 27.075055525103917], [83.94667387459332, 27.071440981226708], [83.94838881203819, 27.06694353453759], [83.95686222534299, 27.057858256784737], [83.95890321493427, 27.047688416972377], [83.96487380879793, 27.042065702794844], [83.96889260958602, 27.037117260251318], [83.96782906451529, 27.02615359368763], [83.97629400498926, 27.011270377795555], [83.98158839392218, 27.006581267256628], [83.9813425978347, 26.99620822623064], [83.98240486208371, 26.993702882678313], [83.98504133631903, 26.992161795850368], [84.0090721011327, 26.990469148387163], [84.01233628011121, 26.9900937634348], [84.01525883987892, 26.98875025066628], [84.02129126123563, 26.980115352922045], [84.0192814290101, 26.957960398929725], [84.0196555180548, 26.955951551272282], [84.02441348921734, 26.948298216934255], [84.0241398456834, 26.944347693411906], [84.02796269030934, 26.937416477513423], [84.0324912788837, 26.930909776108066], [84.0377890865594, 26.92490350484828], [84.03806224497734, 26.914018648452895]]}}, {"type": "Feature", "properties": {"name": "Khuvria Branch Canal", "project": "Gandak Canal Major Irrigation Project_Uttar Pradesh", "kind": "canal"}, "geometry": {"type": "LineString", "coordinates": [[83.84961358932527, 27.11349990760922], [83.84450915538977, 27.111844836186027], [83.84119755639776, 27.1097762025197], [83.83301967952127, 27.099780303779475], [83.82630877947001, 27.089355760234906], [83.82452225796285, 27.084922139968338], [83.82229311426583, 27.070928918105707], [83.82325214805297, 27.06170031318464], [83.81904466873793, 27.054737586641068], [83.8181103503837, 27.051994528900778], [83.81818742231238, 27.048647294450706], [83.82283387679726, 27.034112268668334], [83.81930492640507, 27.014348882211202], [83.8187194887689, 27.013021248812688], [83.8120100028544, 27.006666449075656], [83.80636025806233, 26.99488169668021], [83.79923476548117, 26.988362897589028], [83.79786927659077, 26.98632829238124], [83.79790582609635, 26.97941714121726], [83.80121876251144, 26.970336302296783], [83.80047592158618, 26.96106128436008], [83.80273512987989, 26.95405054450371], [83.8028059996578, 26.94913297042756], [83.80110580785758, 26.94408932890601], [83.80104894364352, 26.939494307019125], [83.80667983903862, 26.922715847214764], [83.80451945406534, 26.916756649421483], [83.80748362512864, 26.910700681271834], [83.80784787728626, 26.90842781005151], [83.80485869229298, 26.893879676717614], [83.79920651765411, 26.873698904265762], [83.79158716394662, 26.86388157606336], [83.79057051601285, 26.861719572181006], [83.79037040065116, 26.859460251360726], [83.79435289285662, 26.85123865674078], [83.80355457026097, 26.844150462877707], [83.81515148713257, 26.826764237131663], [83.8268893863871, 26.8174991594046], [83.82778129227688, 26.815701608831677], [83.82764261450666, 26.813810488390793], [83.82667821585527, 26.812373176483845], [83.81441338251791, 26.80045548256043], [83.81057899706589, 26.79290658204146], [83.81005497022925, 26.79087867970156], [83.81301340266216, 26.78085930172652], [83.81464839854598, 26.778911311142032], [83.82140333396148, 26.774209134367613], [83.84173387544762, 26.76738527863634], [83.84350800679495, 26.765182448250222], [83.8440735897444, 26.75802386699546], [83.85410801676784, 26.744364637337377], [83.86512683061585, 26.73237406922208], [83.86553857138331, 26.729542458832643], [83.862532749393, 26.71635825633162], [83.86483722860612, 26.7059239602204], [83.86341735042816, 26.70121072162101], [83.86348428996111, 26.69924129358836], [83.86948968186009, 26.691500574977226], [83.8762045696693, 26.674259018038917], [83.87829245235197, 26.673234884442426], [83.88668860903071, 26.67341506526552], [83.89454299268805, 26.664577147507732], [83.89279967120491, 26.646064886356577], [83.89367595220452, 26.644819466478182], [83.89943223790159, 26.64249387814521], [83.90056635535261, 26.641374409982998], [83.8981264143806, 26.6184044499485], [83.90180501169444, 26.6085370436867], [83.92631676090485, 26.596340600441877], [83.93008680809102, 26.591474470207785], [83.93383460129066, 26.590152120344595], [83.9383556178744, 26.582992933163972], [83.9512953495027, 26.575000427576487], [83.95217146919717, 26.57394635678182], [83.95051417421732, 26.563143289122323], [83.95006123194554, 26.547967144946483], [83.95188204289433, 26.545953112409624], [83.95838080733894, 26.543355115995276], [83.95977246180287, 26.542073313494395], [83.95319111429667, 26.53112040256199], [83.95347261723776, 26.529729669012045], [83.95767396377765, 26.523490804876324], [83.95600375923989, 26.516820300306392]]}}, {"type": "Feature", "properties": {"name": "Khasarari Branch Canal", "project": "Gandak Canal Major Irrigation Project_Uttar Pradesh", "kind": "canal"}, "geometry": {"type": "LineString", "coordinates": [[83.90688023506785, 26.91685587754502], [83.89214063953531, 26.91211838403906], [83.88651522621608, 26.906360069580305], [83.8855255228608, 26.904476506494074], [83.8882754863343, 26.8993690314174], [83.89258293541835, 26.893926183376937], [83.89058677619944, 26.887630605602943], [83.8903257087189, 26.884113053521258], [83.89011791369296, 26.876704939852154], [83.89105152427875, 26.865370092505422], [83.89223524883054, 26.862985277078728], [83.89882312529993, 26.855618427423583], [83.89964215630152, 26.846372305868364]]}}, {"type": "Feature", "properties": {"name": "Khalilabad Branch", "project": "Saryu Nahar Pariyojana", "kind": "canal"}, "geometry": {"type": "LineString", "coordinates": [[82.95, 26.82285858614973], [82.96960678093224, 26.811305427549375], [82.97248310388453, 26.80772269984294], [82.97609613850229, 26.800437859371314], [82.97675065847966, 26.79669627553719], [82.97600359447124, 26.794346036406466], [82.96966209813131, 26.78096429067044], [82.97113102068529, 26.776600160501136], [82.97358224052476, 26.77357306995893], [82.97821279579975, 26.770239841958805], [82.98538293688121, 26.767652416291813], [82.99319925636296, 26.755425464134145], [82.99532220724083, 26.75317564728341], [82.99934887022158, 26.752304475641306], [83.0020682167264, 26.752909790303256], [83.00677047496711, 26.755435328630995], [83.00912154425384, 26.75530353290301], [83.01609464433318, 26.749418127162652], [83.02316908619339, 26.747373927896383], [83.025920788419, 26.744230553932894], [83.02686836736946, 26.741761001432334], [83.02798497809499, 26.734248648975484], [83.02550953940467, 26.71492322349564], [83.03296418213425, 26.699988917729513], [83.03877484612771, 26.69094734678453], [83.04293165119356, 26.689241606670254], [83.0475739497432, 26.68512054922621], [83.04976439948109, 26.68428365031284], [83.05866559706384, 26.684402454956412], [83.07436475250837, 26.67817914253452], [83.08023409444314, 26.678808070422086], [83.08384683209258, 26.678586416978074], [83.0868389533579, 26.677504965842648], [83.08857554570791, 26.67620167453851], [83.0982704220704, 26.664962803828736], [83.09984376362827, 26.658042862724], [83.10409101250757, 26.656164709723456]]}}, {"type": "Feature", "properties": {"name": "Dumariaganj Branch", "project": "Saryu Nahar Pariyojana", "kind": "canal"}, "geometry": {"type": "LineString", "coordinates": [[82.95, 27.13391219162816], [82.95417878200263, 27.13275782781166], [82.95736642941705, 27.130594510456557], [82.96928964536089, 27.11608820196346], [82.98628903301051, 27.110866026677474], [82.99498064155868, 27.110130533080874], [83.01855073141405, 27.113221227861153], [83.0252104306306, 27.110469662187175], [83.04150445427784, 27.11713252767378], [83.04378107285969, 27.1165957243357], [83.04788872906066, 27.11354573615532], [83.04873861765407, 27.11094661043194], [83.04872227114309, 27.104367020410926], [83.04994450478358, 27.09777251432354], [83.05376050069879, 27.089658316970283], [83.05857584237447, 27.084513404727062], [83.05972505808276, 27.082081712224596], [83.05897356670201, 27.062661545028703], [83.05794516311336, 27.057876395760257], [83.05685536377975, 27.055812143478743], [83.04203981450588, 27.03725268701791], [83.04066454365535, 27.030726230040933], [83.03589816062885, 27.02366282894451], [83.03516596633152, 27.019067864687663], [83.0397644013632, 27.00944135335058], [83.04375789335965, 26.998630648417016], [83.04542649594327, 26.995787176181913], [83.05432598731444, 26.985246025565573], [83.05521217607955, 26.98271423537154], [83.0555313144425, 26.978012014485344], [83.0588493022883, 26.97326058212188], [83.06075549476145, 26.963228905174862], [83.06116380460696, 26.957383888823177], [83.060565814285, 26.955615653490597], [83.06153327958698, 26.945529026697674], [83.0633693063556, 26.943754428626917], [83.06266545637196, 26.940349811793897], [83.05857570408214, 26.93380269039951], [83.05374047144412, 26.933677643986165], [83.05310176131013, 26.931901003952735]]}}, {"type": "Feature", "properties": {"name": "Rasulpur Branch", "project": "Tanda Pump Canal Major Irrigation Project", "kind": "canal"}, "geometry": {"type": "LineString", "coordinates": [[82.95195527358891, 26.20558295184132], [82.95251585679001, 26.203562910462384], [82.95924771365857, 26.198722410985482], [82.96078866880195, 26.198373515154366], [82.98322184946362, 26.205354149846567], [82.99416308538808, 26.202167103934464], [82.99673261640943, 26.200784263207687], [83.00094076525748, 26.201265187123063], [83.00275773706619, 26.20210254927083], [83.00728965204408, 26.211555692766222], [83.00858538777094, 26.22372894627375], [83.01360893869514, 26.225678063806203], [83.02194989251814, 26.223607947668174], [83.03572576963634, 26.218664283363804], [83.04360716982012, 26.220059080319505], [83.05509029385927, 26.217304799121617], [83.05800352461593, 26.218015031335334]]}}, {"type": "Feature", "properties": {"name": "Jahangirganj Dy", "project": "Tanda Pump Canal Major Irrigation Project", "kind": "canal"}, "geometry": {"type": "LineString", "coordinates": [[83.04926812088813, 26.374921865065033], [83.04429747097416, 26.37925167679535], [83.04422890978496, 26.385691489422378], [83.05193682736103, 26.39608935916345], [83.052184065754, 26.39730372269791], [83.05004462439148, 26.399423091014476], [83.0449660148352, 26.40246267936507], [83.03284545681579, 26.40110909561414], [83.02836203446748, 26.40318682120524], [83.02023477691212, 26.408334785631922], [83.01123753783547, 26.405700029127246], [83.00883685391085, 26.40560466956042], [83.0003172656157, 26.409640407246325], [83.00135550948993, 26.414944620092374], [83.00055782070335, 26.416594596633143], [82.9848427421221, 26.420913378596367], [82.97872990062493, 26.418669202532396], [82.97505264093671, 26.414099999307616], [82.97274665099259, 26.413289968348312], [82.96515683621334, 26.41790422264592], [82.95759132712884, 26.42097428524214], [82.95688770180311, 26.42168162877094], [82.95662335541353, 26.424047284794433], [82.95, 26.42808000098858]]}}, {"type": "Feature", "properties": {"name": "Dohrighat Link Canal", "project": "Dohrighat Pump Canal Major Irrigation Project", "kind": "canal"}, "geometry": {"type": "LineString", "coordinates": [[83.05800352461593, 26.218015031335334], [83.06084053469583, 26.219553319065305], [83.06450688366398, 26.230702342467676], [83.0687698372504, 26.235075934641273], [83.08015721252015, 26.235020778198194], [83.08248757551723, 26.236312907852522], [83.08804526755311, 26.24287534863223], [83.09618828983183, 26.24702071960423], [83.10616071268493, 26.24414656596555], [83.11025489061714, 26.241548750908606], [83.1133819130058, 26.241440790025145], [83.1160408084667, 26.24206824110049], [83.11938226935862, 26.244093187260965], [83.12441671962615, 26.244526901539437], [83.13184476523868, 26.24365202238513], [83.14082012660718, 26.23981829396745], [83.14833717159723, 26.24030177331231], [83.15362696260901, 26.237354438991588], [83.1553376312128, 26.23323704381482], [83.1570003450348, 26.23106611050363], [83.1713902072578, 26.22532619128543], [83.17805769628815, 26.224263564997216], [83.18641741209146, 26.223851187967508], [83.19033408570938, 26.222944603426345], [83.19628588306132, 26.218803928762334], [83.20070978803092, 26.21693674857639], [83.20383969527056, 26.21696848042897], [83.21024913717663, 26.218544941514004], [83.21571686698903, 26.21711714479172], [83.22010153727663, 26.217510910152033], [83.22347385383036, 26.218514601569435], [83.22645423380158, 26.221229828749916], [83.227898126311, 26.22484906239162], [83.22802696548905, 26.227129916443022], [83.22235671771892, 26.23835395538543], [83.22342106473933, 26.24198100992424], [83.22627085445676, 26.245913705374576], [83.22842354435905, 26.24771884872297], [83.23071355021774, 26.248548361188707], [83.2436284145275, 26.24697002045642], [83.24672745635506, 26.24576389957891], [83.25093398033518, 26.239944846593765], [83.25255545442086, 26.239189506412057], [83.25459413913735, 26.23870861071487], [83.26153048587786, 26.23963261550864], [83.26554964591051, 26.238575871611832], [83.26836005485642, 26.238567330376014], [83.27070379994892, 26.237349116059505], [83.28031024024841, 26.223021764878563], [83.28159510211299, 26.22022711712775], [83.28747620330392, 26.215623101123008], [83.28833044095738, 26.2126319197085], [83.28788283293477, 26.210791655568176], [83.28351809076196, 26.204704143497175], [83.28375648044104, 26.202369879530547], [83.28504293177917, 26.199451803140146], [83.2904627203708, 26.1956474031487], [83.29405135766048, 26.194644597462595], [83.30682470287866, 26.198174519981745], [83.31195411439316, 26.198211958970326], [83.31586036893816, 26.199101871792127], [83.33100535652444, 26.214650494653977], [83.33584102223911, 26.21600876864647], [83.34236271804347, 26.215627270252966], [83.35380868795805, 26.21976179360045], [83.35776263886666, 26.220311669705374], [83.36040550469092, 26.220108678032076], [83.36757658747345, 26.21785788762117], [83.36995907043409, 26.21814903421622], [83.37462390573057, 26.222967143771097], [83.38145023205388, 26.22603020871804], [83.39756765349496, 26.227141923161177], [83.40283539149226, 26.226246259044526], [83.41944174987978, 26.209765884946695], [83.42203477602986, 26.20527885130847], [83.42666513615768, 26.20406746709209], [83.4355449952958, 26.199551705096646], [83.44019107514833, 26.19874605054409], [83.44475913223071, 26.200106877740765], [83.45199566779043, 26.204272295661873], [83.46188516275501, 26.203582931588894], [83.48028285391291, 26.220177966036385], [83.48616841560101, 26.22226638326016], [83.49142105584276, 26.22232260290512], [83.49717196404222, 26.219508384302124], [83.51399248098029, 26.214166176900743], [83.51642699209447, 26.210836618077316], [83.5201725460429, 26.20804837699294], [83.52134180683369, 26.202554910397016], [83.53182126273147, 26.19705663030173], [83.5338705835455, 26.195014316690887], [83.53595438348903, 26.18074877739038], [83.53442319453625, 26.168465002098785], [83.5388187707013, 26.1518127272098], [83.53866846288777, 26.14641271196588], [83.53920454165761, 26.144399959381175], [83.54093201813397, 26.142465229775016], [83.55305361748923, 26.1356352240694], [83.56471343461384, 26.116710417218748], [83.56531970128671, 26.11451320360284], [83.56454348344639, 26.108300572129576], [83.56703550186472, 26.104073274224316], [83.56741390581561, 26.10223295492983], [83.56502423728996, 26.096212456198344], [83.5645477119665, 26.09310812097366], [83.56506408997963, 26.09077588540037], [83.569987706827, 26.08362429560463]]}}]}