{"type": "FeatureCollection", "features": [{"type": "Feature", "properties": {"name": "Cluster 1", "cluster": 1, "status": "confirmed", "villages": ["Badhya Buzurg", "Banki", "Jungle Thakurahi", "Parsa Jungle", "Mishrauliya"], "block": "Deoria Sadar", "district": "Deoria"}, "geometry": {"type": "Polygon", "coordinates": [[[83.72047427602962, 26.428902875683217], [83.71364376641162, 26.428032894527213], [83.69713183971328, 26.43482511632845], [83.67009258393247, 26.4801089776152], [83.67145257528601, 26.48682449940857], [83.69504661044945, 26.521165453136504], [83.70988396031984, 26.529001150842234], [83.72917888580818, 26.524875602572894], [83.73470342312544, 26.520080562643457], [83.74167012025096, 26.502950204902604], [83.74774359467163, 26.461583658610074], [83.74711445051621, 26.45639144490477], [83.73879058827258, 26.44104943211883], [83.72047427602962, 26.428902875683217]]]}}]}