{"type": "FeatureCollection", "features": [{"type": "Feature", "properties": {"name": "Kushinagar", "kind": "district", "dist_lgd": 160, "crops": "", "soil": "alluvial soil, sand, and gravels- Bhat and Bangar(Bhat (silt-rich soil containing aluminum brought down by the Gandak River) and Bangar (highly fertile, level alluvial plains situated in the western parts).", "water": "Gandak and Little Gandak rivers.", "odop": "Banana Fiber Products", "valuechain": ""}, "geometry": {"type": "Polygon", "coordinates": [[[83.8787268, 27.2913213], [83.8811316, 27.2836319], [83.8944197, 27.2853533], [83.9071425, 27.2757758], [83.9046853, 27.272381], [83.905072, 27.2576158], [83.9103047, 27.2500008], [83.91177, 27.2459497], [83.919302, 27.2445442], [83.9232992, 27.2417767], [83.9324003, 27.2393592], [83.9482624, 27.2378222], [83.9556297, 27.2353002], [83.9630707, 27.2289062], [83.9625439, 27.2266368], [83.9701839, 27.223992], [83.9711719, 27.2224346], [83.9727431, 27.2181919], [83.9675249, 27.2130648], [83.9674665, 27.2095091], [83.9717706, 27.2084458], [83.9745234, 27.2052627], [83.9789077, 27.203829], [83.9873137, 27.1970134], [83.988819, 27.1884251], [83.9933882, 27.1816393], [83.9930264, 27.1782824], [83.9942082, 27.1745316], [83.9787352, 27.1648737], [83.9753621, 27.1558198], [83.9590642, 27.1368783], [83.9586903, 27.1359038], [83.9628045, 27.1276931], [83.9595171, 27.1220682], [83.9521873, 27.1186159], [83.9476749, 27.1124949], [83.9463827, 27.1024733], [83.9473801, 27.0931636], [83.9464712, 27.0908222], [83.9494682, 27.0867007], [83.9528397, 27.0849256], [83.9564336, 27.0839488], [83.9644039, 27.0841244], [83.9669825, 27.087119], [83.9783998, 27.0907617], [83.9855581, 27.0900163], [83.9892596, 27.0908525], [83.9919734, 27.0922808], [83.9999854, 27.1002922], [84.0031972, 27.1018602], [84.0087663, 27.0992387], [84.0164444, 27.1054224], [84.0220123, 27.1041271], [84.0239672, 27.1001169], [84.028173, 27.0992806], [84.0303374, 27.0976304], [84.0303709, 27.0938355], [84.0249421, 27.092478], [84.0251256, 27.0903077], [84.0287732, 27.0872236], [84.0286231, 27.0860277], [84.0240146, 27.0810156], [84.0204772, 27.0794112], [84.0165979, 27.0717957], [84.0121527, 27.0709258], [84.0039609, 27.0715191], [84.0002125, 27.069756], [84.0000627, 27.0685871], [84.0024846, 27.066333], [84.005601, 27.0602303], [84.0118895, 27.056982], [84.0180041, 27.0560211], [84.0281806, 27.0494718], [84.0313185, 27.0456293], [84.0390757, 27.0440414], [84.0471378, 27.0457608], [84.0495031, 27.0432712], [84.0495287, 27.0350224], [84.0441302, 27.0231831], [84.0442457, 27.0167212], [84.0373089, 27.0090774], [84.0398346, 27.006773], [84.0437542, 27.0065768], [84.0458964, 27.0050032], [84.0528063, 26.9969515], [84.0525609, 26.9947044], [84.0566992, 26.9896621], [84.0566698, 26.9881732], [84.0539974, 26.9851669], [84.0478485, 26.9845951], [84.04576, 26.9822387], [84.0537871, 26.9752314], [84.0543425, 26.9728449], [84.0529963, 26.967502], [84.0548339, 26.9600626], [84.0527978, 26.9549811], [84.0459722, 26.9524507], [84.042009, 26.9467994], [84.0349063, 26.9452069], [84.0321357, 26.9411849], [84.0349724, 26.9381998], [84.043111, 26.9404968], [84.0465352, 26.9391632], [84.0463656, 26.9369974], [84.0432332, 26.9317932], [84.0533576, 26.9296691], [84.0550703, 26.9277163], [84.0562058, 26.9231055], [84.0599718, 26.9201891], [84.0590917, 26.9164571], [84.0530907, 26.9096042], [84.0523679, 26.9064133], [84.055277, 26.9026296], [84.0580555, 26.9018864], [84.0608489, 26.8956348], [84.0602675, 26.8881032], [84.0669851, 26.8884942], [84.0752146, 26.8834213], [84.0782153, 26.879041], [84.0814111, 26.8773727], [84.0842085, 26.8774367], [84.0873618, 26.8816923], [84.0943308, 26.8816174], [84.0964908, 26.8762349], [84.0981361, 26.8759375], [84.1014061, 26.8780271], [84.1044999, 26.881908], [84.1067631, 26.8877378], [84.1075769, 26.896929], [84.110415, 26.8985988], [84.1158654, 26.8949382], [84.1163608, 26.8891209], [84.1179545, 26.8877137], [84.1290012, 26.8932011], [84.1307072, 26.8900739], [84.1300311, 26.8866738], [84.1312755, 26.8844511], [84.1354725, 26.8833317], [84.1399968, 26.8846265], [84.141527, 26.8871218], [84.1464082, 26.8854244], [84.1477121, 26.8822777], [84.1435146, 26.8796059], [84.1470913, 26.872446], [84.1460648, 26.8714986], [84.1423266, 26.8715262], [84.1403739, 26.867601], [84.1397691, 26.8598087], [84.1406083, 26.8526525], [84.1428111, 26.8497329], [84.1458391, 26.8480992], [84.1459746, 26.8462763], [84.1491729, 26.8425804], [84.1562185, 26.8375616], [84.1660956, 26.8337689], [84.1776026, 26.8323935], [84.1817425, 26.8334792], [84.1867916, 26.8416439], [84.1833039, 26.8475111], [84.190126, 26.8584724], [84.1930301, 26.8607542], [84.1978638, 26.8595515], [84.2061056, 26.8617174], [84.211355, 26.8646741], [84.2194857, 26.8715995], [84.2355719, 26.8677119], [84.2540946, 26.8565944], [84.2569283, 26.8492193], [84.2618108, 26.8425786], [84.2600979, 26.8335138], [84.2609316, 26.8302186], [84.2535443, 26.8252302], [84.2503631, 26.8193307], [84.2568154, 26.8182334], [84.2542051, 26.8124263], [84.2600021, 26.8069942], [84.259984, 26.805027], [84.2587035, 26.8020428], [84.2571734, 26.7893768], [84.2499986, 26.7737292], [84.2431576, 26.7646726], [84.2325764, 26.7536669], [84.2394816, 26.7429498], [84.240669, 26.7387233], [84.2453341, 26.7346636], [84.2494157, 26.7291623], [84.2554202, 26.7266215], [84.2581063, 26.7285773], [84.2662898, 26.7399507], [84.2756778, 26.7419721], [84.2857944, 26.7499349], [84.2910507, 26.7488715], [84.2947641, 26.7497275], [84.3058652, 26.7494879], [84.3105204, 26.744925], [84.3142113, 26.7390443], [84.3146759, 26.7353086], [84.3181053, 26.7319854], [84.3217773, 26.7240874], [84.3242421, 26.7151561], [84.3258581, 26.7141489], [84.3300556, 26.6840999], [84.3350318, 26.6815496], [84.3430422, 26.6809012], [84.3449129, 26.6792805], [84.3501845, 26.6780481], [84.3765783, 26.6774961], [84.4039131, 26.6717725], [84.4051551, 26.6730314], [84.4062113, 26.6727394], [84.4063027, 26.6709228], [84.4104108, 26.6702489], [84.4112214, 26.6503623], [84.4097817, 26.6467447], [84.4132676, 26.6373291], [84.4181317, 26.6302963], [84.4195649, 26.6261919], [84.4104031, 26.6232244], [84.4062248, 26.6229732], [84.3998793, 26.6245414], [84.3907291, 26.6210941], [84.3861919, 26.6216849], [84.3787939, 26.6146996], [84.3648738, 26.616317], [84.3539946, 26.6199752], [84.3350215, 26.6155483], [84.3316262, 26.612493], [84.3257994, 26.6116214], [84.3190985, 26.6115129], [84.3160001, 26.6144849], [84.3072672, 26.6163228], [84.3054225, 26.614267], [84.3032497, 26.6144386], [84.3001127, 26.6037822], [84.2958237, 26.6044642], [84.2945073, 26.6025957], [84.2858249, 26.6057983], [84.2845325, 26.5995872], [84.2813213, 26.5995998], [84.26792, 26.6016478], [84.2686027, 26.6036107], [84.2664689, 26.6057408], [84.2416431, 26.6104753], [84.2395614, 26.6100107], [84.2390986, 26.6129793], [84.2336171, 26.6138472], [84.2292275, 26.6131482], [84.229281, 26.6165372], [84.2279526, 26.6175083], [84.218419, 26.619677], [84.2110779, 26.6200069], [84.2084764, 26.6227574], [84.2011945, 26.6247706], [84.1912678, 26.6251161], [84.1832709, 26.6235233], [84.174432, 26.6242697], [84.173621, 26.6228219], [84.1692739, 26.6226407], [84.1602936, 26.6245052], [84.1566238, 26.6269671], [84.1570649, 26.630436], [84.1588451, 26.6321272], [84.1586993, 26.6362024], [84.1468395, 26.6357121], [84.1451625, 26.6347221], [84.1363154, 26.6360282], [84.1305516, 26.6334624], [84.1125129, 26.6344007], [84.1119651, 26.6306363], [84.1082308, 26.6314265], [84.1081305, 26.6328184], [84.1029581, 26.633507], [84.1005974, 26.6359534], [84.0864991, 26.639142], [84.0883971, 26.6348739], [84.0873118, 26.6262559], [84.0855492, 26.6254552], [84.085199, 26.6238285], [84.0886334, 26.6178361], [84.0863623, 26.6123989], [84.0899838, 26.606929], [84.089087, 26.6030231], [84.0848768, 26.5982835], [84.0832894, 26.5924919], [84.0778401, 26.5903275], [84.0750372, 26.5859123], [84.0756023, 26.5834113], [84.0661133, 26.5769862], [84.0668799, 26.572694], [84.0606435, 26.5681987], [84.0583816, 26.5632711], [84.0594107, 26.561276], [84.0550957, 26.5583765], [84.0547696, 26.5511316], [84.051871, 26.5513237], [84.0455319, 26.5536399], [84.0373263, 26.5620289], [84.033827, 26.5639402], [84.0312104, 26.5726075], [84.0237245, 26.5758967], [84.0179116, 26.5770974], [84.0148716, 26.5755066], [84.0099346, 26.5789414], [84.0072477, 26.5855504], [84.0045998, 26.5881069], [84.004283, 26.5934814], [83.9969423, 26.596234], [83.995047, 26.5933925], [83.9926793, 26.5950732], [83.9883086, 26.6015572], [83.9862511, 26.6127504], [83.9802051, 26.6168075], [83.9788421, 26.6197779], [83.9746174, 26.6229895], [83.9663895, 26.6246286], [83.9629983, 26.628629], [83.9615401, 26.6326192], [83.965345, 26.6373824], [83.9671785, 26.6444707], [83.9652313, 26.6524008], [83.9633695, 26.6542703], [83.9624832, 26.6577637], [83.9604784, 26.6567676], [83.9590126, 26.6577612], [83.9606575, 26.6610591], [83.9599069, 26.6648773], [83.9612447, 26.6672231], [83.9612169, 26.670355], [83.9573173, 26.6748294], [83.9552971, 26.6736798], [83.9506027, 26.6771301], [83.946774, 26.6756203], [83.9400737, 26.6768465], [83.9368096, 26.6787884], [83.9316797, 26.6767643], [83.927386, 26.6792795], [83.9243365, 26.6785721], [83.9208966, 26.6813486], [83.9206064, 26.684467], [83.9149353, 26.6860572], [83.9125505, 26.6904487], [83.9091998, 26.6914965], [83.9058387, 26.6908294], [83.9041117, 26.695681], [83.9021879, 26.6973014], [83.9030782, 26.7017237], [83.8945828, 26.7062784], [83.8943575, 26.7111431], [83.8960965, 26.7133812], [83.8952932, 26.7172352], [83.8895154, 26.7261936], [83.8876267, 26.7342624], [83.8760976, 26.7417586], [83.8699653, 26.7494797], [83.8616464, 26.7507336], [83.8499702, 26.7484667], [83.8441928, 26.7560231], [83.8399643, 26.7591765], [83.8372607, 26.7565178], [83.8357697, 26.7506871], [83.8410775, 26.7504833], [83.8364244, 26.7471685], [83.8340418, 26.747574], [83.8317609, 26.7444911], [83.8303781, 26.7458535], [83.8279107, 26.744878], [83.8240044, 26.7469254], [83.8189884, 26.7461473], [83.8157606, 26.7478608], [83.8140582, 26.744981], [83.8128652, 26.7482477], [83.8100904, 26.7486165], [83.8091298, 26.7503232], [83.8096192, 26.7463102], [83.8089204, 26.7464904], [83.8084151, 26.7425913], [83.8093606, 26.7415357], [83.8071708, 26.7304515], [83.8086289, 26.7292699], [83.8080385, 26.7248111], [83.8013687, 26.7264278], [83.8008681, 26.7244336], [83.8021698, 26.723328], [83.8014777, 26.7210668], [83.8027494, 26.7206252], [83.8022779, 26.7193298], [83.8005141, 26.7192205], [83.8010881, 26.7175241], [83.7996762, 26.7173068], [83.7991851, 26.7151314], [83.7946273, 26.7154582], [83.7938894, 26.7142214], [83.7910956, 26.7143145], [83.7902903, 26.7091651], [83.7772101, 26.7103074], [83.7760047, 26.7038398], [83.7695084, 26.7034515], [83.7704107, 26.700185], [83.7677615, 26.7017489], [83.7663473, 26.6989455], [83.7606986, 26.7052634], [83.7569187, 26.7067765], [83.7568827, 26.7026835], [83.7556065, 26.7026644], [83.753936, 26.6955328], [83.7501805, 26.6931333], [83.7465332, 26.6920675], [83.7419921, 26.6926264], [83.7417722, 26.6937367], [83.7377894, 26.6950847], [83.7381474, 26.6963254], [83.7232073, 26.6983988], [83.7201923, 26.6917853], [83.7217494, 26.691342], [83.7216454, 26.6873212], [83.7110412, 26.6884787], [83.7110002, 26.6874543], [83.7089055, 26.687582], [83.7030546, 26.6830139], [83.695258, 26.6828419], [83.6937409, 26.6828743], [83.6932996, 26.6841651], [83.6954969, 26.6874494], [83.6948599, 26.6890652], [83.6988549, 26.698558], [83.698358, 26.6994156], [83.6943505, 26.7023735], [83.6884526, 26.7037255], [83.6881491, 26.7002283], [83.6822056, 26.7007497], [83.6800508, 26.7020457], [83.6762177, 26.6919793], [83.6735498, 26.6913033], [83.6722104, 26.6838308], [83.6641924, 26.6830615], [83.6634124, 26.6789281], [83.6615386, 26.6790684], [83.6570701, 26.6690377], [83.6550153, 26.6673323], [83.6533765, 26.6619264], [83.6544714, 26.6616735], [83.6545111, 26.6602926], [83.6489565, 26.6613541], [83.6492976, 26.6598106], [83.6439687, 26.6593963], [83.6308298, 26.6612296], [83.6279369, 26.6623308], [83.6278465, 26.6640817], [83.6241297, 26.6668661], [83.6246821, 26.6726831], [83.6237327, 26.674813], [83.6255511, 26.6750026], [83.6266311, 26.6773085], [83.6244561, 26.678518], [83.6262142, 26.6803727], [83.6250437, 26.6816995], [83.6257621, 26.6827915], [83.6241344, 26.6836941], [83.6258275, 26.6844612], [83.6244258, 26.6876337], [83.6257773, 26.6895877], [83.6233508, 26.6881752], [83.6216728, 26.6886355], [83.6246268, 26.6919614], [83.6222856, 26.6934505], [83.6218383, 26.6959687], [83.6203864, 26.6968441], [83.6194114, 26.7020924], [83.6178437, 26.7026969], [83.6159546, 26.7017357], [83.6154923, 26.703464], [83.6175924, 26.7044795], [83.6195822, 26.7032115], [83.6198484, 26.7051384], [83.6169693, 26.7056437], [83.6207829, 26.7074128], [83.6197125, 26.7089697], [83.6214158, 26.7116007], [83.6201042, 26.7131756], [83.6205966, 26.7143895], [83.6232197, 26.711691], [83.622285, 26.7146693], [83.6237573, 26.7188933], [83.6224457, 26.7201613], [83.6229782, 26.723248], [83.622144, 26.7254502], [83.6232345, 26.7270567], [83.6214253, 26.728054], [83.6185306, 26.7275891], [83.6132836, 26.7309462], [83.6131726, 26.7347775], [83.6100259, 26.7394162], [83.6135738, 26.7444707], [83.6129401, 26.7472731], [83.6144227, 26.7494529], [83.6185294, 26.7487716], [83.6188812, 26.7508418], [83.622114, 26.754356], [83.6166288, 26.7561892], [83.6153974, 26.7548128], [83.6100691, 26.7548303], [83.609531, 26.7562382], [83.6113606, 26.7577141], [83.6099027, 26.7587564], [83.6052232, 26.7555337], [83.6005579, 26.7576585], [83.5979242, 26.7560966], [83.5961992, 26.759016], [83.5865472, 26.760354], [83.5859336, 26.7611931], [83.588042, 26.7701875], [83.5930495, 26.7694983], [83.5926907, 26.7761048], [83.5911967, 26.7784374], [83.5907632, 26.7824085], [83.5926323, 26.7868899], [83.5955429, 26.7892192], [83.5955728, 26.7906903], [83.5896019, 26.7979182], [83.5848866, 26.8076327], [83.5833528, 26.8075826], [83.5809177, 26.8103345], [83.5790669, 26.8106182], [83.5796089, 26.8132809], [83.578019, 26.8149726], [83.5690008, 26.8159305], [83.5658758, 26.8193679], [83.5655719, 26.8235238], [83.5610399, 26.8238332], [83.5623206, 26.8362932], [83.552939, 26.836406], [83.5477215, 26.8380368], [83.5466394, 26.8388576], [83.5485767, 26.8455508], [83.5411199, 26.8472524], [83.5313413, 26.8517769], [83.5287257, 26.8511299], [83.5244531, 26.8525844], [83.5268665, 26.8544092], [83.5266728, 26.8573242], [83.5281565, 26.8578081], [83.5267062, 26.8593955], [83.5296795, 26.859551], [83.5329073, 26.8624728], [83.5386935, 26.8625126], [83.5403353, 26.8671345], [83.5415832, 26.8670586], [83.5428188, 26.8701503], [83.5405742, 26.8706725], [83.5408694, 26.872956], [83.5423735, 26.8803621], [83.5461717, 26.8894211], [83.5534091, 26.8886668], [83.5550892, 26.8899177], [83.5568987, 26.8935828], [83.5554488, 26.8944214], [83.5574243, 26.8984882], [83.5568092, 26.9001711], [83.5585675, 26.9058172], [83.5554306, 26.9075304], [83.5580004, 26.9201173], [83.5595438, 26.9235882], [83.5647647, 26.9225617], [83.566132, 26.9265468], [83.5677175, 26.9271476], [83.5682549, 26.9297697], [83.569287, 26.9296528], [83.5705787, 26.9339131], [83.5723964, 26.9335032], [83.5717078, 26.9311022], [83.5738123, 26.9309496], [83.5735056, 26.9301598], [83.5774635, 26.9283426], [83.5844102, 26.9301633], [83.5863021, 26.9333362], [83.5889103, 26.932669], [83.5889863, 26.9309047], [83.5915641, 26.9307158], [83.5918918, 26.9291725], [83.5940113, 26.9288978], [83.59445, 26.9263618], [83.5958446, 26.9260869], [83.5939573, 26.9236181], [83.5953066, 26.9234462], [83.5937671, 26.9196741], [83.5909343, 26.9156752], [83.5991906, 26.9119045], [83.6063687, 26.9116123], [83.6070725, 26.917375], [83.60904, 26.9220231], [83.607872, 26.922384], [83.6085411, 26.9257098], [83.6110481, 26.925683], [83.6119992, 26.9288916], [83.6137764, 26.9288737], [83.6168522, 26.9315047], [83.6265538, 26.930079], [83.6284823, 26.9413107], [83.6263274, 26.9447042], [83.6227676, 26.9454894], [83.621987, 26.946974], [83.6244542, 26.9557419], [83.6302451, 26.9549837], [83.630361, 26.9560126], [83.6332564, 26.9554755], [83.6340421, 26.9568337], [83.6435893, 26.9541072], [83.6440069, 26.9525503], [83.6507543, 26.9519987], [83.6519172, 26.9508027], [83.6569627, 26.950734], [83.657784, 26.9527644], [83.6593905, 26.9532469], [83.6696908, 26.9476078], [83.6787288, 26.9469548], [83.6787295, 26.948444], [83.6799328, 26.948051], [83.6799132, 26.9493866], [83.681867, 26.9493498], [83.6832624, 26.9506354], [83.6824016, 26.9511365], [83.6834147, 26.9530359], [83.6815807, 26.9611458], [83.6820813, 26.9651075], [83.697525, 26.9622937], [83.7007536, 26.9632035], [83.7073753, 26.9624282], [83.7126887, 26.9564954], [83.7126268, 26.9547266], [83.7202472, 26.950507], [83.7235811, 26.9511906], [83.7280148, 26.9540168], [83.7311465, 26.9588428], [83.7288354, 26.9592688], [83.730442, 26.9648315], [83.7285238, 26.9655008], [83.7307859, 26.9664152], [83.728583, 26.9695711], [83.7303466, 26.9705761], [83.7315275, 26.973197], [83.7302364, 26.9766862], [83.7321775, 26.9788462], [83.7315857, 26.981509], [83.7329381, 26.9894951], [83.7344685, 26.9886096], [83.7363863, 26.992358], [83.7389912, 26.9930553], [83.7385199, 26.9952127], [83.7397028, 26.9963678], [83.7406614, 26.9958246], [83.739844, 26.994467], [83.7412297, 26.9948855], [83.7422592, 26.9967078], [83.7417522, 26.998441], [83.7433079, 26.9975372], [83.7429532, 26.9956106], [83.7455491, 26.9972059], [83.7489238, 26.9975116], [83.7489771, 26.9949621], [83.7516363, 26.9954834], [83.7527612, 26.9939501], [83.7583574, 26.9941895], [83.7591062, 26.995959], [83.7630991, 26.9977086], [83.7652204, 27.0023929], [83.7634979, 27.0019267], [83.7632498, 27.0031494], [83.7617138, 27.0027059], [83.7586284, 27.0049552], [83.7560528, 27.0031675], [83.7567214, 27.0075212], [83.7479253, 27.0119448], [83.7455727, 27.0119368], [83.7441596, 27.0182272], [83.7454185, 27.0231877], [83.7452209, 27.0285619], [83.7461516, 27.0298443], [83.7479272, 27.0298778], [83.7486741, 27.0316381], [83.7548956, 27.0330739], [83.7555838, 27.0352225], [83.7519181, 27.037268], [83.7440464, 27.0340278], [83.7368836, 27.036854], [83.7355164, 27.0403883], [83.7364214, 27.0433433], [83.7346835, 27.0492606], [83.7299266, 27.0554147], [83.7352918, 27.058082], [83.7450187, 27.0574784], [83.7513592, 27.055137], [83.7571621, 27.0487116], [83.7590072, 27.0481221], [83.7632199, 27.0486445], [83.7681643, 27.0534225], [83.7686415, 27.0552143], [83.7667509, 27.061025], [83.7685914, 27.070868], [83.7678425, 27.0738322], [83.7630073, 27.0748257], [83.7562294, 27.0728481], [83.7475936, 27.0736393], [83.7459541, 27.0746666], [83.7458404, 27.0770987], [83.7602942, 27.0858294], [83.7728293, 27.0890565], [83.7752098, 27.0936564], [83.7752285, 27.1010839], [83.77656, 27.1062787], [83.793361, 27.1064248], [83.8010885, 27.1099714], [83.8049275, 27.1153432], [83.8060806, 27.1426982], [83.8112145, 27.1618378], [83.8148092, 27.166045], [83.8251578, 27.1744467], [83.8242185, 27.1762468], [83.8220692, 27.1763227], [83.8122686, 27.1714453], [83.7980119, 27.1696873], [83.7911091, 27.164291], [83.7870332, 27.1639185], [83.7823396, 27.1660137], [83.7819954, 27.16748], [83.7849439, 27.1708888], [83.7962329, 27.1742348], [83.8075656, 27.1811763], [83.8126792, 27.186025], [83.8120673, 27.188272], [83.8061266, 27.1909721], [83.8002342, 27.196235], [83.7997696, 27.2041675], [83.7974734, 27.2115531], [83.7988085, 27.2149787], [83.801765, 27.2166138], [83.806071, 27.2157045], [83.8084192, 27.2135622], [83.8120474, 27.2058658], [83.8168189, 27.2015179], [83.8212355, 27.1999042], [83.8268868, 27.2016074], [83.8305391, 27.2052953], [83.8328479, 27.2120872], [83.830369, 27.2140086], [83.8305195, 27.2163957], [83.8269485, 27.2223058], [83.8260484, 27.2259199], [83.8211239, 27.2323031], [83.8169989, 27.233777], [83.8127606, 27.230057], [83.8075421, 27.2285204], [83.8050307, 27.2326344], [83.8006288, 27.2327404], [83.7952402, 27.2360315], [83.7942439, 27.2385714], [83.7949011, 27.2442212], [83.8001699, 27.247085], [83.8046137, 27.2455801], [83.8074535, 27.2497781], [83.8169143, 27.2410735], [83.8173, 27.2470706], [83.8190916, 27.2484295], [83.8234786, 27.2492434], [83.8379334, 27.2484538], [83.8494811, 27.2533093], [83.8478604, 27.2566794], [83.837656, 27.2691947], [83.8368572, 27.2785237], [83.8396239, 27.2828864], [83.8473814, 27.2890882], [83.857868, 27.2914876], [83.8612327, 27.2932941], [83.8621166, 27.2949128], [83.8664755, 27.2909362], [83.8671208, 27.2930504], [83.8734237, 27.2972451], [83.8782792, 27.293942], [83.8787268, 27.2913213]]]}}, {"type": "Feature", "properties": {"name": "Deoria", "kind": "district", "dist_lgd": 137, "crops": "Wheat\nRice\nMustard\nSugarcane\nMaize\nnatural farming (vegetables)\nNenua\nMoonj\nTurmeric", "soil": "sandy, loam, sandy loam, calcareous clay, and deep alluvial soils", "water": "Drained by the Ghaghra River and its tributaries, namely the Little Gandak and Rapti rivers. triveni canal system", "odop": "Decorative Products, Embroidery & Weaving Related Products, and Readymade Garments", "valuechain": "Bajaj hindustan sugar Ltd- Pratappur \n U.P. State Sugar and Cane Development Corporation Ltd.- Bhatni"}, "geometry": {"type": "Polygon", "coordinates": [[[83.8482706, 26.7512992], [83.8501813, 26.7484532], [83.8604099, 26.7506298], [83.868201, 26.7502468], [83.8703926, 26.7491548], [83.8760976, 26.7417586], [83.8876267, 26.7342624], [83.8895154, 26.7261936], [83.8952932, 26.7172352], [83.8960965, 26.7133812], [83.8943575, 26.7111431], [83.8945828, 26.7062784], [83.9030782, 26.7017237], [83.9021879, 26.6973014], [83.9041117, 26.695681], [83.9058387, 26.6908294], [83.9091998, 26.6914965], [83.9125505, 26.6904487], [83.9149353, 26.6860572], [83.9206064, 26.684467], [83.9208966, 26.6813486], [83.9243365, 26.6785721], [83.927386, 26.6792795], [83.9316797, 26.6767643], [83.9368096, 26.6787884], [83.9400737, 26.6768465], [83.946774, 26.6756203], [83.9506027, 26.6771301], [83.9552971, 26.6736798], [83.9573173, 26.6748294], [83.9612169, 26.670355], [83.9612447, 26.6672231], [83.9599069, 26.6648773], [83.9606575, 26.6610591], [83.9590126, 26.6577612], [83.9604784, 26.6567676], [83.9624832, 26.6577637], [83.9633695, 26.6542703], [83.9652313, 26.6524008], [83.9671785, 26.6444707], [83.965345, 26.6373824], [83.9615401, 26.6326192], [83.9629983, 26.628629], [83.9663895, 26.6246286], [83.9746174, 26.6229895], [83.9788421, 26.6197779], [83.9802051, 26.6168075], [83.9862511, 26.6127504], [83.9883086, 26.6015572], [83.9926793, 26.5950732], [83.995047, 26.5933925], [83.9969423, 26.596234], [84.004283, 26.5934814], [84.0045998, 26.5881069], [84.0072477, 26.5855504], [84.0099346, 26.5789414], [84.0148716, 26.5755066], [84.0179116, 26.5770974], [84.0237245, 26.5758967], [84.0312104, 26.5726075], [84.033827, 26.5639402], [84.0373263, 26.5620289], [84.0455319, 26.5536399], [84.0547696, 26.5511316], [84.0564416, 26.5491271], [84.0563265, 26.5441743], [84.0481197, 26.5364036], [84.0238072, 26.5319144], [84.0140605, 26.52738], [84.0121974, 26.5245803], [84.0083194, 26.5219412], [84.006491, 26.5222592], [84.0068479, 26.5252814], [83.9988181, 26.5272268], [83.9926439, 26.5331666], [83.9827374, 26.5315339], [83.9761288, 26.5335126], [83.9767218, 26.5316192], [83.9751052, 26.5278548], [83.9765221, 26.5258269], [83.9715065, 26.5176133], [83.9724273, 26.5159883], [83.9718351, 26.5142143], [83.9736151, 26.512657], [83.9720146, 26.5102815], [83.9736766, 26.508041], [83.966079, 26.5075858], [83.9629379, 26.5082736], [83.9614704, 26.5102844], [83.9510199, 26.5090531], [83.9477231, 26.512482], [83.9485456, 26.5150408], [83.9526105, 26.5163505], [83.9527921, 26.5177632], [83.9466805, 26.5187784], [83.9403568, 26.5252424], [83.934622, 26.5251261], [83.9312403, 26.5203193], [83.927062, 26.5188849], [83.9257622, 26.5200304], [83.9222967, 26.5196143], [83.9164004, 26.5166675], [83.9080855, 26.5190771], [83.9060648, 26.5126472], [83.9067447, 26.5093809], [83.9085275, 26.507107], [83.9151686, 26.5028437], [83.9123977, 26.497731], [83.9126891, 26.4838765], [83.9124883, 26.4830733], [83.9106027, 26.4832181], [83.9096202, 26.4756919], [83.9123104, 26.4757039], [83.9097301, 26.4661598], [83.9112028, 26.4617278], [83.9114557, 26.4559143], [83.909225, 26.4537541], [83.9080199, 26.447089], [83.9110378, 26.4470476], [83.9105625, 26.4499133], [83.921945, 26.4464399], [83.9221365, 26.4451128], [83.9244473, 26.4444892], [83.9418811, 26.4410253], [83.9467788, 26.4409823], [83.9462366, 26.4386207], [83.9542907, 26.4372236], [83.963329, 26.437304], [83.9736039, 26.4355193], [83.9810102, 26.4327973], [83.9844447, 26.4335709], [83.991301, 26.4323622], [83.9935736, 26.439313], [83.997896, 26.4468112], [84.000135, 26.4470916], [84.0046844, 26.4442145], [84.0076323, 26.443965], [84.0168301, 26.4475542], [84.0195978, 26.4459385], [84.023793, 26.4402519], [84.0244236, 26.4342384], [84.0226056, 26.430894], [84.0311157, 26.4239619], [84.0348584, 26.4194564], [84.0338608, 26.4116543], [84.0370769, 26.4130292], [84.0384615, 26.4121692], [84.040968, 26.4126903], [84.0396765, 26.4108862], [84.0412019, 26.4072593], [84.0436292, 26.4095109], [84.0478192, 26.4068729], [84.0495114, 26.4071108], [84.0493717, 26.4037427], [84.0528663, 26.4046042], [84.055377, 26.4022019], [84.0631288, 26.4007194], [84.0624356, 26.3984225], [84.0654705, 26.3964684], [84.0651314, 26.3928481], [84.067976, 26.391084], [84.0681623, 26.3882684], [84.0737056, 26.3875293], [84.0760867, 26.3850653], [84.0791775, 26.3846503], [84.0791663, 26.3825073], [84.0840079, 26.381776], [84.0877144, 26.3841612], [84.0887556, 26.3867808], [84.098119, 26.3856945], [84.0992935, 26.384595], [84.1028968, 26.3857147], [84.1219897, 26.3851212], [84.1246559, 26.3830365], [84.1356043, 26.3816894], [84.1375187, 26.3779396], [84.1611332, 26.3740703], [84.1619815, 26.3739924], [84.1623061, 26.375668], [84.1637842, 26.3754402], [84.1754159, 26.3730898], [84.1766814, 26.3706832], [84.1759049, 26.360603], [84.1728428, 26.3534958], [84.1725424, 26.3343527], [84.1745353, 26.3293935], [84.1812823, 26.3216134], [84.1859735, 26.3128994], [84.1839427, 26.3086999], [84.1777389, 26.3032003], [84.1745053, 26.2922732], [84.1748868, 26.2856219], [84.1760996, 26.2834848], [84.1765471, 26.2769927], [84.1752077, 26.2725858], [84.1766185, 26.2645381], [84.1727841, 26.2615077], [84.1640762, 26.2591117], [84.1611719, 26.2559189], [84.1615031, 26.2503223], [84.1660405, 26.2433291], [84.1662084, 26.2409459], [84.1630852, 26.2418361], [84.1511629, 26.2577902], [84.1465496, 26.2552139], [84.1322217, 26.2590336], [84.1291704, 26.2555485], [84.1269071, 26.258115], [84.1216889, 26.2588678], [84.1200226, 26.2580675], [84.1167861, 26.2497379], [84.1196829, 26.2479103], [84.117444, 26.240115], [84.1070764, 26.2412283], [84.1060182, 26.2366912], [84.0994947, 26.2373174], [84.0981234, 26.2333198], [84.0941056, 26.2333649], [84.0937203, 26.2345751], [84.091044, 26.2337768], [84.0901726, 26.2303886], [84.0876376, 26.2303647], [84.08714, 26.2262495], [84.0882531, 26.2235337], [84.0864117, 26.2187506], [84.0802139, 26.2200154], [84.0801611, 26.2223048], [84.0634595, 26.2241477], [84.0620812, 26.2222745], [84.0619971, 26.2234321], [84.0565601, 26.2246336], [84.0567475, 26.2260912], [84.0512043, 26.2291521], [84.0422813, 26.2299529], [84.0376958, 26.2320589], [84.038231, 26.2369916], [84.0272638, 26.2396475], [84.0246556, 26.2377665], [84.0192284, 26.2389396], [84.0157422, 26.2340367], [84.0123127, 26.2323992], [84.0157946, 26.2223894], [84.0230219, 26.2200222], [84.0285914, 26.2202999], [84.0312138, 26.2168852], [84.0276612, 26.2143235], [84.0290717, 26.2111854], [84.031881, 26.2093999], [84.0392436, 26.2090523], [84.0383502, 26.2009736], [84.0353809, 26.1986336], [84.0323516, 26.1998423], [84.0285894, 26.1956518], [84.0266388, 26.1969094], [84.0223195, 26.1957607], [84.0166468, 26.1960491], [84.0125856, 26.1933832], [84.0080073, 26.1874068], [84.0083835, 26.1795384], [84.0099526, 26.1744781], [84.0166863, 26.1688953], [84.033454, 26.1606871], [84.0347068, 26.1554259], [84.0343591, 26.1511918], [84.0274393, 26.1424013], [84.0434488, 26.1348365], [84.0482807, 26.1305012], [84.0496352, 26.1306959], [84.0506533, 26.1289619], [84.0517739, 26.1205625], [84.0516609, 26.1196895], [84.0500437, 26.1200128], [84.0487298, 26.1090643], [84.0559518, 26.1000551], [84.0526535, 26.089481], [84.0487491, 26.0910947], [84.0440804, 26.0955195], [84.0377391, 26.0970187], [84.0152708, 26.1141462], [84.0057122, 26.1122161], [84.0021071, 26.1130592], [83.9967915, 26.116922], [83.9809416, 26.1139648], [83.9773184, 26.1153124], [83.9759494, 26.1160083], [83.9727361, 26.1234165], [83.9633285, 26.1318394], [83.959003, 26.1308943], [83.9537405, 26.1266685], [83.9361547, 26.1218029], [83.930341, 26.1230193], [83.9239757, 26.1203272], [83.9195212, 26.1196924], [83.904919, 26.1223453], [83.896791, 26.1271351], [83.8957513, 26.1289992], [83.8875576, 26.1347633], [83.885673, 26.1393577], [83.876218, 26.1468318], [83.8719623, 26.1576675], [83.8642653, 26.1652311], [83.8649041, 26.1811667], [83.8611974, 26.1838381], [83.8555324, 26.2004634], [83.8475812, 26.2086759], [83.8440515, 26.2182563], [83.8341193, 26.233589], [83.8293101, 26.2342645], [83.8222456, 26.2312925], [83.8112115, 26.2317167], [83.7894953, 26.2301124], [83.7773036, 26.2326318], [83.7715935, 26.2388694], [83.7667274, 26.2408019], [83.7572104, 26.2493284], [83.7578873, 26.2531285], [83.7571605, 26.254211], [83.7526141, 26.2559988], [83.7535252, 26.2605893], [83.7496421, 26.2597556], [83.7438523, 26.2638914], [83.7425183, 26.266176], [83.7419403, 26.2638072], [83.7400364, 26.2619945], [83.7301174, 26.2581254], [83.723111, 26.2590556], [83.7196712, 26.2575912], [83.7152321, 26.2580769], [83.7077521, 26.2548455], [83.7066881, 26.2506085], [83.690222, 26.2412258], [83.6744672, 26.2392419], [83.6645277, 26.2366589], [83.6624054, 26.2350077], [83.6630147, 26.231325], [83.6603721, 26.229552], [83.6447942, 26.2250329], [83.6369182, 26.2240996], [83.6313942, 26.2249078], [83.6342327, 26.2428965], [83.6380066, 26.248208], [83.6382747, 26.2729839], [83.6452988, 26.2793643], [83.6550059, 26.280703], [83.671043, 26.2871749], [83.6695318, 26.2890663], [83.6680572, 26.3088607], [83.665285, 26.3143041], [83.6596777, 26.3181055], [83.6558418, 26.3181334], [83.6464316, 26.3142089], [83.6324447, 26.3016597], [83.6251594, 26.2972958], [83.6184902, 26.3010279], [83.6180395, 26.3018132], [83.6200723, 26.3028015], [83.6203673, 26.3119494], [83.6226256, 26.3154696], [83.6232715, 26.3206595], [83.6289805, 26.3221713], [83.6345893, 26.3221123], [83.6381405, 26.3272027], [83.6381707, 26.3291702], [83.6343996, 26.329667], [83.624849, 26.322072], [83.6221748, 26.3219276], [83.6198808, 26.3295499], [83.6108854, 26.3346218], [83.6173409, 26.3414324], [83.6167296, 26.3428944], [83.5995583, 26.3487683], [83.6000386, 26.351237], [83.6128756, 26.365319], [83.6131008, 26.3668895], [83.6112919, 26.3700304], [83.6090324, 26.3700888], [83.5996099, 26.3641258], [83.5898123, 26.3596785], [83.58604, 26.3600521], [83.5833591, 26.3623529], [83.5796891, 26.3699696], [83.5785244, 26.3757909], [83.5804254, 26.3834409], [83.5851079, 26.3903425], [83.585231, 26.3962771], [83.583266, 26.3983163], [83.5797131, 26.3983423], [83.5625927, 26.3929655], [83.5506013, 26.3932531], [83.5471797, 26.3920553], [83.5458585, 26.3896718], [83.5469571, 26.3877228], [83.5627723, 26.3852666], [83.5647735, 26.3813502], [83.5685831, 26.3780618], [83.5689402, 26.375282], [83.5659398, 26.3738547], [83.5581265, 26.3781566], [83.5553511, 26.3778349], [83.5509402, 26.3649979], [83.5469128, 26.3567912], [83.5448849, 26.3555491], [83.5392378, 26.3576984], [83.5365248, 26.3614786], [83.5332567, 26.3764685], [83.5328938, 26.3854399], [83.5299568, 26.386485], [83.5221979, 26.3834559], [83.5160006, 26.3827248], [83.5105924, 26.3845257], [83.5127199, 26.3866801], [83.5223866, 26.3911506], [83.5246141, 26.3937968], [83.5260931, 26.3988297], [83.524026, 26.4015721], [83.5114036, 26.4004569], [83.4997716, 26.401237], [83.5006498, 26.395362], [83.4951411, 26.3909574], [83.4900452, 26.3911466], [83.4871213, 26.3937394], [83.4853043, 26.40102], [83.4865663, 26.4053605], [83.4920884, 26.4097968], [83.502258, 26.4146199], [83.5057033, 26.4174524], [83.497988, 26.4220018], [83.4960039, 26.4351694], [83.4875817, 26.4447391], [83.4815704, 26.4551323], [83.4767505, 26.4587777], [83.4772892, 26.4613045], [83.4798377, 26.4628822], [83.4915834, 26.4608243], [83.4937713, 26.4626817], [83.4936209, 26.4675919], [83.4871904, 26.4807611], [83.4930911, 26.4889336], [83.4935408, 26.4922005], [83.4993676, 26.4963408], [83.5057483, 26.4953038], [83.5076979, 26.4966864], [83.5091745, 26.4946162], [83.5112899, 26.4956649], [83.5137933, 26.4949087], [83.5146605, 26.495478], [83.5146721, 26.4989799], [83.5174621, 26.4974838], [83.5189302, 26.4991592], [83.5276197, 26.496056], [83.5274373, 26.498186], [83.5311905, 26.496266], [83.533648, 26.496385], [83.5398232, 26.5015967], [83.5430692, 26.5003034], [83.5435657, 26.4933177], [83.5445744, 26.4922984], [83.5440194, 26.4899514], [83.5462365, 26.4892261], [83.5515913, 26.4914809], [83.5550528, 26.4979676], [83.5529516, 26.5056104], [83.5496814, 26.5053515], [83.5484614, 26.5070883], [83.549057, 26.5092638], [83.5535694, 26.5124116], [83.5683191, 26.507612], [83.5736524, 26.5156109], [83.577877, 26.5135183], [83.5792406, 26.5154864], [83.5859634, 26.5125731], [83.5979165, 26.5138034], [83.6005497, 26.5151938], [83.5998117, 26.5180638], [83.6011761, 26.5181408], [83.6010001, 26.5202798], [83.6033175, 26.5216205], [83.6022034, 26.5233803], [83.6037531, 26.5258085], [83.601375, 26.5270853], [83.6029195, 26.529924], [83.6029491, 26.5326363], [83.606596, 26.535728], [83.6057829, 26.5376324], [83.6080458, 26.5367346], [83.6056973, 26.5391216], [83.6092041, 26.5413784], [83.6071718, 26.5430614], [83.6087219, 26.5448984], [83.6063284, 26.5462429], [83.6093134, 26.5490322], [83.6112402, 26.5493708], [83.6086708, 26.5514555], [83.6113403, 26.551731], [83.6129608, 26.5537123], [83.6140348, 26.5523451], [83.6162324, 26.5546693], [83.6122882, 26.5556979], [83.6149876, 26.5580809], [83.6147716, 26.5609916], [83.6124378, 26.5636766], [83.6145354, 26.5643807], [83.6131752, 26.5664295], [83.6170392, 26.5699226], [83.6183689, 26.5732712], [83.6199651, 26.5704643], [83.6233426, 26.5707893], [83.6232724, 26.5678695], [83.6245621, 26.5681809], [83.6247629, 26.5698777], [83.625069, 26.5681041], [83.6265746, 26.5684562], [83.6262635, 26.5712045], [83.6274278, 26.5697739], [83.6281655, 26.5705004], [83.626645, 26.5744537], [83.6288533, 26.5767642], [83.6253099, 26.5812771], [83.6307808, 26.5824277], [83.6318249, 26.5846299], [83.6314937, 26.5856362], [83.6300431, 26.5847789], [83.6290694, 26.5862998], [83.6308512, 26.5862545], [83.6319205, 26.5888222], [83.6295765, 26.5898738], [83.6309569, 26.5915841], [83.6281762, 26.5961602], [83.6263892, 26.5970131], [83.6267707, 26.5993236], [83.6244415, 26.5983805], [83.622072, 26.6012912], [83.6213089, 26.6049014], [83.6205509, 26.6032542], [83.6185278, 26.6033399], [83.6202394, 26.6094547], [83.617935, 26.6101586], [83.6198828, 26.6113997], [83.6196367, 26.6134756], [83.6182561, 26.6144187], [83.6196367, 26.6141841], [83.6198977, 26.6151003], [83.6163681, 26.6171128], [83.6191445, 26.6182275], [83.6198274, 26.6163006], [83.6221068, 26.6158268], [83.6234322, 26.6172936], [83.6231711, 26.6197755], [83.6257618, 26.6195409], [83.626289, 26.6213144], [83.6296128, 26.6199018], [83.6296882, 26.6226636], [83.6335544, 26.6236653], [83.6318224, 26.6271673], [83.6315463, 26.6293109], [83.633339, 26.6308135], [83.6312052, 26.635737], [83.6316422, 26.6375196], [83.6290712, 26.6394646], [83.6302162, 26.6424024], [83.6279917, 26.6443882], [83.6282679, 26.64525], [83.6310852, 26.6450559], [83.6320194, 26.6470415], [83.6272134, 26.649104], [83.6266108, 26.6526193], [83.6301717, 26.6550968], [83.6289059, 26.6549119], [83.6284691, 26.6564778], [83.6300412, 26.6581068], [83.6281828, 26.6580572], [83.6295842, 26.6595374], [83.6269374, 26.6614779], [83.6279369, 26.6623308], [83.6439687, 26.6593963], [83.6492976, 26.6598106], [83.6489565, 26.6613541], [83.6545111, 26.6602926], [83.6544714, 26.6616735], [83.6533765, 26.6619264], [83.6550153, 26.6673323], [83.6570701, 26.6690377], [83.6615386, 26.6790684], [83.6634124, 26.6789281], [83.6641924, 26.6830615], [83.6722104, 26.6838308], [83.6735498, 26.6913033], [83.6762177, 26.6919793], [83.6800508, 26.7020457], [83.6822056, 26.7007497], [83.6881491, 26.7002283], [83.6884526, 26.7037255], [83.6943505, 26.7023735], [83.698358, 26.6994156], [83.6988549, 26.698558], [83.6948599, 26.6890652], [83.6954969, 26.6874494], [83.6932996, 26.6841651], [83.6937409, 26.6828743], [83.695258, 26.6828419], [83.7030546, 26.6830139], [83.7089055, 26.687582], [83.7110002, 26.6874543], [83.7110412, 26.6884787], [83.7216454, 26.6873212], [83.7217494, 26.691342], [83.7201923, 26.6917853], [83.7232073, 26.6983988], [83.7381474, 26.6963254], [83.7377894, 26.6950847], [83.7417722, 26.6937367], [83.7419921, 26.6926264], [83.7465332, 26.6920675], [83.7501805, 26.6931333], [83.753936, 26.6955328], [83.7556065, 26.7026644], [83.7568827, 26.7026835], [83.7569187, 26.7067765], [83.7606986, 26.7052634], [83.7663473, 26.6989455], [83.7677615, 26.7017489], [83.7704107, 26.700185], [83.7695084, 26.7034515], [83.7760047, 26.7038398], [83.7772101, 26.7103074], [83.7902903, 26.7091651], [83.7910956, 26.7143145], [83.7938894, 26.7142214], [83.7946273, 26.7154582], [83.7991851, 26.7151314], [83.7996762, 26.7173068], [83.8010881, 26.7175241], [83.8005141, 26.7192205], [83.8022779, 26.7193298], [83.8027494, 26.7206252], [83.8014777, 26.7210668], [83.8021698, 26.723328], [83.8008681, 26.7244336], [83.8013687, 26.7264278], [83.8080385, 26.7248111], [83.8086289, 26.7292699], [83.8071708, 26.7304515], [83.8093606, 26.7415357], [83.8084151, 26.7425913], [83.8089204, 26.7464904], [83.8096192, 26.7463102], [83.8091298, 26.7503232], [83.8100904, 26.7486165], [83.8128652, 26.7482477], [83.8140582, 26.744981], [83.8157606, 26.7478608], [83.8189884, 26.7461473], [83.8240044, 26.7469254], [83.8279107, 26.744878], [83.8303781, 26.7458535], [83.8317609, 26.7444911], [83.8340418, 26.747574], [83.8364244, 26.7471685], [83.8410775, 26.7504833], [83.8357697, 26.7506871], [83.8372607, 26.7565178], [83.8399643, 26.7591765], [83.8416284, 26.7585677], [83.8482706, 26.7512992]]]}}, {"type": "Feature", "properties": {"name": "Gorakhpur", "kind": "district", "dist_lgd": 148, "crops": "", "soil": "Composed of sandy loam (70%), silty loam (20%), and clay loam (10%) soils.", "water": "Rapti, Rohini (Rohin), Ami, and Ghaghra rivers. Canal networks such as the Saryu Canal system, wetlands and lakes, such as the freshwater Ramgarh Tal", "odop": "Terracotta and Readymade Garments `", "valuechain": "India Glycols\n Sarraiya Distillery\n Kaptanganj Distillery"}, "geometry": {"type": "Polygon", "coordinates": [[[83.1524668, 27.110076], [83.1522915, 27.1003287], [83.1539166, 27.0965798], [83.1562377, 27.0976617], [83.1620573, 27.1071734], [83.1653737, 27.1080635], [83.1692123, 27.1076551], [83.1732886, 27.1055369], [83.1741085, 27.1005652], [83.1727404, 27.0951838], [83.1743161, 27.0943916], [83.1789931, 27.0933037], [83.1813763, 27.0957578], [83.1863067, 27.0960261], [83.1924935, 27.0929079], [83.1976569, 27.0926437], [83.2000857, 27.0955259], [83.2040417, 27.0919375], [83.2037684, 27.0903485], [83.2122202, 27.0882752], [83.2126331, 27.0859363], [83.214149, 27.0849609], [83.2163226, 27.088032], [83.2216075, 27.0906593], [83.2233763, 27.090206], [83.2237053, 27.0880773], [83.2267294, 27.0853047], [83.2296965, 27.0845938], [83.2307653, 27.0827443], [83.2309775, 27.0755276], [83.2278465, 27.0703666], [83.2324336, 27.0695611], [83.2350808, 27.0667959], [83.236752, 27.0625544], [83.238882, 27.0639212], [83.23697, 27.0681188], [83.237758, 27.0702737], [83.2394841, 27.0697721], [83.2413379, 27.0659805], [83.2434159, 27.066919], [83.2432205, 27.0657087], [83.2507108, 27.0655748], [83.2523324, 27.0669299], [83.2534749, 27.0732484], [83.270584, 27.0780634], [83.2736262, 27.058635], [83.2671866, 27.0356345], [83.2697921, 27.0300094], [83.2870305, 27.036104], [83.292568, 27.0368836], [83.2927918, 27.0409991], [83.2979921, 27.0414939], [83.2966297, 27.0439886], [83.2974896, 27.046692], [83.2966016, 27.0482032], [83.2981423, 27.0502708], [83.2977967, 27.0544988], [83.2996352, 27.0562688], [83.2941743, 27.0580563], [83.2939899, 27.061063], [83.295977, 27.0623185], [83.2965797, 27.0646813], [83.2980888, 27.0636652], [83.2997396, 27.0658984], [83.3022402, 27.0650108], [83.3046334, 27.0667448], [83.3033217, 27.0684092], [83.3063348, 27.0705316], [83.3031895, 27.0701691], [83.3051089, 27.071957], [83.3027998, 27.0726868], [83.3053943, 27.0751835], [83.3055775, 27.0805083], [83.3074834, 27.0799678], [83.3064692, 27.0814203], [83.3077434, 27.0834741], [83.312764, 27.0846677], [83.3133321, 27.0873168], [83.3165837, 27.087634], [83.3185457, 27.0860419], [83.3184945, 27.087513], [83.3205367, 27.0867286], [83.3210551, 27.0886195], [83.3247502, 27.0893339], [83.3261489, 27.0840458], [83.3278387, 27.0820428], [83.336419, 27.0816303], [83.3395365, 27.0911073], [83.3419356, 27.0936349], [83.3470531, 27.0929952], [83.3517528, 27.089526], [83.3567893, 27.0889311], [83.3582813, 27.0914493], [83.3588859, 27.093683], [83.3579784, 27.0940664], [83.3598783, 27.0999419], [83.3607253, 27.1001766], [83.3732146, 27.0974293], [83.3744952, 27.0942841], [83.3894073, 27.0826186], [83.3947563, 27.0833219], [83.4032519, 27.0877472], [83.4074566, 27.0881344], [83.4050955, 27.0817813], [83.3981737, 27.0806365], [83.396257, 27.0750639], [83.3860692, 27.0740001], [83.3835385, 27.0716177], [83.3818395, 27.0661532], [83.3858467, 27.0659318], [83.387399, 27.0648397], [83.3885578, 27.0606113], [83.3876452, 27.0579401], [83.3861735, 27.0572994], [83.380584, 27.058297], [83.3791878, 27.0561129], [83.3755538, 27.0545156], [83.373926, 27.0501881], [83.3707964, 27.047273], [83.3649906, 27.0482113], [83.3621786, 27.0474349], [83.3625673, 27.0410137], [83.3586822, 27.038915], [83.362608, 27.0369028], [83.3664126, 27.0382884], [83.3683578, 27.0370701], [83.3687611, 27.0338347], [83.3671086, 27.0299042], [83.367356, 27.0235777], [83.3652599, 27.0231083], [83.3632997, 27.0253102], [83.3574092, 27.0268394], [83.3540938, 27.0262433], [83.3495766, 27.0147942], [83.3524952, 27.0077778], [83.3486461, 27.0081155], [83.3477093, 27.0072083], [83.3515945, 27.0021866], [83.3513027, 27.0005079], [83.3495548, 27.0001421], [83.3448691, 27.0029119], [83.3450422, 26.9960542], [83.3441459, 26.9945063], [83.3354768, 26.9943101], [83.3329824, 26.9969897], [83.3292546, 26.9970789], [83.3274742, 26.9902282], [83.3228304, 26.9892564], [83.322464, 26.9864315], [83.3266299, 26.9858102], [83.3207695, 26.980375], [83.3235958, 26.9788508], [83.3236527, 26.9756108], [83.3256339, 26.9713742], [83.3239623, 26.97025], [83.3240587, 26.9685488], [83.3268706, 26.964669], [83.3311705, 26.9669989], [83.3331457, 26.9640348], [83.3386609, 26.961419], [83.3390899, 26.9585627], [83.3331477, 26.9587009], [83.3339001, 26.9539983], [83.340713, 26.9534775], [83.3435232, 26.951637], [83.349334, 26.9520037], [83.3556187, 26.9497439], [83.3553104, 26.9562104], [83.3566438, 26.9623431], [83.3724415, 26.9580845], [83.4378855, 26.9581247], [83.4309554, 26.9456775], [83.438287, 26.9464596], [83.4453238, 26.9508153], [83.4513157, 26.9505415], [83.452671, 26.9517366], [83.4644038, 26.9455339], [83.4734593, 26.9424955], [83.4732409, 26.9401988], [83.4768297, 26.9390139], [83.4766237, 26.9338066], [83.4737502, 26.9295713], [83.4706333, 26.9288469], [83.4709029, 26.9261708], [83.4776529, 26.9251282], [83.4775355, 26.9177412], [83.4836452, 26.916349], [83.4833096, 26.9126151], [83.484457, 26.9124021], [83.4852503, 26.9103257], [83.4968314, 26.909161], [83.495169, 26.8983683], [83.5007092, 26.8962926], [83.5050019, 26.8966438], [83.5096898, 26.8944681], [83.5125331, 26.8947367], [83.5126504, 26.893207], [83.5183282, 26.8923314], [83.5223679, 26.8941259], [83.5281813, 26.8936562], [83.5461343, 26.8885475], [83.5421629, 26.8794776], [83.5405742, 26.8706725], [83.5428188, 26.8701503], [83.5415832, 26.8670586], [83.5403353, 26.8671345], [83.5386935, 26.8625126], [83.5329073, 26.8624728], [83.5296795, 26.859551], [83.5268268, 26.8595219], [83.5281565, 26.8578081], [83.5266728, 26.8573242], [83.5267961, 26.8543009], [83.5244069, 26.8526509], [83.5287257, 26.8511299], [83.5313413, 26.8517769], [83.5411199, 26.8472524], [83.5485767, 26.8455508], [83.5466394, 26.8388576], [83.5477215, 26.8380368], [83.552939, 26.836406], [83.5623206, 26.8362932], [83.5610399, 26.8238332], [83.5655719, 26.8235238], [83.5658758, 26.8193679], [83.5690008, 26.8159305], [83.578019, 26.8149726], [83.5796089, 26.8132809], [83.5790669, 26.8106182], [83.5809177, 26.8103345], [83.5833528, 26.8075826], [83.5848866, 26.8076327], [83.5896019, 26.7979182], [83.5956534, 26.7899908], [83.5926323, 26.7868899], [83.5907632, 26.7824085], [83.5911967, 26.7784374], [83.5926907, 26.7761048], [83.5930495, 26.7694983], [83.588042, 26.7701875], [83.5859336, 26.7611931], [83.5865472, 26.760354], [83.5961992, 26.759016], [83.5979242, 26.7560966], [83.6005579, 26.7576585], [83.6052232, 26.7555337], [83.6099027, 26.7587564], [83.6113606, 26.7577141], [83.609531, 26.7562382], [83.6100691, 26.7548303], [83.6153974, 26.7548128], [83.6166288, 26.7561892], [83.622114, 26.754356], [83.6188812, 26.7508418], [83.6185294, 26.7487716], [83.6144227, 26.7494529], [83.6129401, 26.7472731], [83.6135738, 26.7444707], [83.6100259, 26.7394162], [83.6131726, 26.7347775], [83.6132836, 26.7309462], [83.6185306, 26.7275891], [83.6214253, 26.728054], [83.6232345, 26.7270567], [83.622144, 26.7254502], [83.6229782, 26.723248], [83.6224457, 26.7201613], [83.6237573, 26.7188933], [83.622285, 26.7146693], [83.6232197, 26.711691], [83.6205966, 26.7143895], [83.6201042, 26.7131756], [83.6214158, 26.7116007], [83.6197125, 26.7089697], [83.6207829, 26.7074128], [83.6169693, 26.7056437], [83.6198484, 26.7051384], [83.6195822, 26.7032115], [83.6175924, 26.7044795], [83.6154923, 26.703464], [83.6159546, 26.7017357], [83.6178437, 26.7026969], [83.6194114, 26.7020924], [83.6203864, 26.6968441], [83.6218383, 26.6959687], [83.6222856, 26.6934505], [83.6246268, 26.6919614], [83.6216728, 26.6886355], [83.6233508, 26.6881752], [83.6257773, 26.6895877], [83.6244258, 26.6876337], [83.6258275, 26.6844612], [83.6241344, 26.6836941], [83.6257621, 26.6827915], [83.6250437, 26.6816995], [83.6262142, 26.6803727], [83.6244561, 26.678518], [83.6266311, 26.6773085], [83.6255511, 26.6750026], [83.6237327, 26.674813], [83.6248127, 26.6697046], [83.6238282, 26.6674888], [83.6278465, 26.6640817], [83.6268419, 26.6611529], [83.6296445, 26.6593162], [83.6281828, 26.6580572], [83.6300964, 26.6579353], [83.6284691, 26.6564778], [83.6289059, 26.6549119], [83.6301515, 26.6549479], [83.6266108, 26.6526193], [83.6272134, 26.649104], [83.6320194, 26.6470415], [83.6310852, 26.6450559], [83.6282679, 26.64525], [83.6279917, 26.6443882], [83.6302162, 26.6424024], [83.6290712, 26.6394646], [83.6316422, 26.6375196], [83.6312052, 26.635737], [83.633339, 26.6308135], [83.6315463, 26.6293109], [83.6318224, 26.6271673], [83.6335544, 26.6236653], [83.6296882, 26.6226636], [83.6296128, 26.6199018], [83.626289, 26.6213144], [83.6257618, 26.6195409], [83.6231711, 26.6197755], [83.6234322, 26.6172936], [83.6221068, 26.6158268], [83.6198274, 26.6163006], [83.6191445, 26.6182275], [83.6163681, 26.6171128], [83.6198977, 26.6151003], [83.6196367, 26.6141841], [83.6182561, 26.6144187], [83.6196367, 26.6134756], [83.6198828, 26.6113997], [83.617935, 26.6101586], [83.6202394, 26.6094547], [83.6185278, 26.6033399], [83.6205509, 26.6032542], [83.6213089, 26.6049014], [83.622072, 26.6012912], [83.6244415, 26.5983805], [83.6267707, 26.5993236], [83.6263892, 26.5970131], [83.6281762, 26.5961602], [83.6309569, 26.5915841], [83.6295765, 26.5898738], [83.6319205, 26.5888222], [83.6308512, 26.5862545], [83.6290894, 26.5866607], [83.6300431, 26.5847789], [83.6317747, 26.585379], [83.631087, 26.582748], [83.6253099, 26.5812771], [83.6288533, 26.5767642], [83.626645, 26.5744537], [83.628055, 26.5700176], [83.6263839, 26.5713534], [83.6265746, 26.5684562], [83.625069, 26.5681041], [83.6247629, 26.5698777], [83.6245621, 26.5681809], [83.6232724, 26.5678695], [83.6233426, 26.5707893], [83.6199651, 26.5704643], [83.6183689, 26.5732712], [83.6170392, 26.5699226], [83.6133759, 26.5668356], [83.6145354, 26.5643807], [83.6124378, 26.5636766], [83.6147716, 26.5609916], [83.6149876, 26.5580809], [83.6122882, 26.5556979], [83.6162324, 26.5546693], [83.6140348, 26.5523451], [83.6129608, 26.5537123], [83.6113403, 26.551731], [83.6086708, 26.5514555], [83.6112402, 26.5493708], [83.6093134, 26.5490322], [83.6063284, 26.5462429], [83.6087219, 26.5448984], [83.6071718, 26.5430614], [83.6092041, 26.5413784], [83.6056973, 26.5391216], [83.6080458, 26.5367346], [83.6057829, 26.5376324], [83.606596, 26.535728], [83.6029491, 26.5326363], [83.6029195, 26.529924], [83.601375, 26.5270853], [83.6037531, 26.5258085], [83.6022034, 26.5233803], [83.6033175, 26.5216205], [83.6010001, 26.5202798], [83.6011761, 26.5181408], [83.5998117, 26.5180638], [83.6005497, 26.5151938], [83.5979165, 26.5138034], [83.5859634, 26.5125731], [83.5792406, 26.5154864], [83.577877, 26.5135183], [83.5736524, 26.5156109], [83.5683191, 26.507612], [83.5535694, 26.5124116], [83.549057, 26.5092638], [83.5484614, 26.5070883], [83.5496814, 26.5053515], [83.5529516, 26.5056104], [83.5550528, 26.4979676], [83.5515913, 26.4914809], [83.5462365, 26.4892261], [83.5441149, 26.4896581], [83.5438634, 26.4977812], [83.5415687, 26.5013945], [83.5389255, 26.5013659], [83.5323842, 26.4962081], [83.5274373, 26.498186], [83.5276197, 26.496056], [83.5186693, 26.4992131], [83.5174621, 26.4974838], [83.5146721, 26.4989799], [83.5146605, 26.495478], [83.5137933, 26.4949087], [83.5112899, 26.4956649], [83.5091745, 26.4946162], [83.5076979, 26.4966864], [83.5057483, 26.4953038], [83.4993676, 26.4963408], [83.4931792, 26.4917676], [83.4930911, 26.4889336], [83.4871904, 26.4807611], [83.4936209, 26.4675919], [83.4937713, 26.4626817], [83.4915834, 26.4608243], [83.4798377, 26.4628822], [83.4772892, 26.4613045], [83.4767505, 26.4587777], [83.4815704, 26.4551323], [83.4875817, 26.4447391], [83.4960039, 26.4351694], [83.497988, 26.4220018], [83.5057033, 26.4174524], [83.502258, 26.4146199], [83.4920884, 26.4097968], [83.4860344, 26.4046794], [83.4855782, 26.399147], [83.4871213, 26.3937394], [83.4892188, 26.3914767], [83.4951411, 26.3909574], [83.5003246, 26.3949509], [83.5008733, 26.3973072], [83.4997716, 26.401237], [83.5114036, 26.4004569], [83.524026, 26.4015721], [83.5260931, 26.3988297], [83.5246141, 26.3937968], [83.5223866, 26.3911506], [83.5127199, 26.3866801], [83.5105924, 26.3845257], [83.5160006, 26.3827248], [83.5221979, 26.3834559], [83.5299568, 26.386485], [83.5328938, 26.3854399], [83.5332567, 26.3764685], [83.5365248, 26.3614786], [83.5392378, 26.3576984], [83.5448849, 26.3555491], [83.5469128, 26.3567912], [83.5509402, 26.3649979], [83.5553511, 26.3778349], [83.5581265, 26.3781566], [83.5659398, 26.3738547], [83.5689402, 26.375282], [83.5685831, 26.3780618], [83.5647735, 26.3813502], [83.5627723, 26.3852666], [83.5469571, 26.3877228], [83.5458585, 26.3896718], [83.5471797, 26.3920553], [83.5506013, 26.3932531], [83.5625927, 26.3929655], [83.5797131, 26.3983423], [83.583266, 26.3983163], [83.585231, 26.3962771], [83.5851079, 26.3903425], [83.5804254, 26.3834409], [83.5785244, 26.3757909], [83.5796891, 26.3699696], [83.5833591, 26.3623529], [83.58604, 26.3600521], [83.5898123, 26.3596785], [83.5996099, 26.3641258], [83.6090324, 26.3700888], [83.6112919, 26.3700304], [83.6131008, 26.3668895], [83.6128756, 26.365319], [83.6000386, 26.351237], [83.5995583, 26.3487683], [83.6167296, 26.3428944], [83.6173409, 26.3414324], [83.6108854, 26.3346218], [83.6198808, 26.3295499], [83.6221748, 26.3219276], [83.624849, 26.322072], [83.6343996, 26.329667], [83.6381707, 26.3291702], [83.6381405, 26.3272027], [83.6345893, 26.3221123], [83.6289805, 26.3221713], [83.6232715, 26.3206595], [83.6226256, 26.3154696], [83.6203673, 26.3119494], [83.6200723, 26.3028015], [83.6180395, 26.3018132], [83.6184902, 26.3010279], [83.6251594, 26.2972958], [83.6324447, 26.3016597], [83.6464316, 26.3142089], [83.6558418, 26.3181334], [83.6614452, 26.3173018], [83.6663811, 26.3127919], [83.6680572, 26.3088607], [83.6695318, 26.2890663], [83.671043, 26.2871749], [83.6550059, 26.280703], [83.6452988, 26.2793643], [83.6382747, 26.2729839], [83.6380066, 26.248208], [83.6342327, 26.2428965], [83.6329508, 26.2314515], [83.6296076, 26.218752], [83.6260151, 26.2198939], [83.6231931, 26.2221369], [83.6231481, 26.2236443], [83.6173987, 26.2256975], [83.6134953, 26.2300568], [83.6083509, 26.2325745], [83.6105619, 26.239236], [83.616096, 26.2473689], [83.6052761, 26.2459191], [83.6020022, 26.2506663], [83.5986837, 26.2518887], [83.5895858, 26.2484433], [83.5803406, 26.2523761], [83.5778343, 26.2497623], [83.5657749, 26.2552451], [83.5630653, 26.2589085], [83.5576283, 26.2611265], [83.5451336, 26.2706785], [83.5326709, 26.2752337], [83.5098962, 26.2781506], [83.5040953, 26.2771845], [83.4992924, 26.2791617], [83.4868426, 26.2807716], [83.4651401, 26.2795819], [83.4345158, 26.2751977], [83.4313585, 26.2780331], [83.4178545, 26.2842024], [83.4179009, 26.2740988], [83.4109695, 26.2796147], [83.405203, 26.2815701], [83.4010636, 26.2843824], [83.4000082, 26.2888145], [83.4007557, 26.2958139], [83.3910991, 26.3059921], [83.3741996, 26.3196987], [83.3682649, 26.3268291], [83.3498381, 26.3362771], [83.3392312, 26.3490961], [83.3347325, 26.3506879], [83.3323603, 26.3449288], [83.3246621, 26.3438025], [83.3182384, 26.3487012], [83.3179667, 26.3511742], [83.3097475, 26.349731], [83.3014875, 26.3498895], [83.2883983, 26.3572382], [83.283899, 26.3581921], [83.279532, 26.3629053], [83.2714059, 26.3688116], [83.2684146, 26.3693284], [83.2590525, 26.3778459], [83.2526479, 26.3792487], [83.2498976, 26.3835606], [83.2443925, 26.387407], [83.2359059, 26.3889934], [83.2283799, 26.3947845], [83.2221266, 26.3953666], [83.2097028, 26.3934203], [83.203114, 26.3943988], [83.1982125, 26.3931603], [83.1838533, 26.3975761], [83.1701916, 26.3940339], [83.1583113, 26.3968757], [83.1479775, 26.392419], [83.1438929, 26.3880782], [83.1321726, 26.3854302], [83.1166742, 26.3933592], [83.1096991, 26.3922484], [83.0987647, 26.3948418], [83.087055, 26.3913371], [83.067767, 26.4081513], [83.0781213, 26.4144135], [83.0786858, 26.4191071], [83.08094, 26.4223074], [83.0862231, 26.4215778], [83.0880265, 26.4246787], [83.0907032, 26.4244492], [83.0935794, 26.4273967], [83.0965053, 26.4330205], [83.0925601, 26.4337281], [83.0973251, 26.4427233], [83.0970923, 26.4517986], [83.091003, 26.4613285], [83.0835857, 26.4660108], [83.0864459, 26.4754956], [83.0876942, 26.4755658], [83.0915543, 26.4794026], [83.095118, 26.4862133], [83.0972644, 26.4858798], [83.0984176, 26.4872294], [83.1021038, 26.4862327], [83.1027504, 26.4880875], [83.1178807, 26.4891767], [83.1221937, 26.4922998], [83.1242249, 26.4914108], [83.1271537, 26.4932159], [83.1317628, 26.4934369], [83.1441463, 26.4978042], [83.1444527, 26.500863], [83.1669549, 26.5067565], [83.1703657, 26.506742], [83.1695426, 26.5055237], [83.1706752, 26.502942], [83.1696872, 26.5003773], [83.1831529, 26.4939263], [83.182726, 26.4889352], [83.188217, 26.487931], [83.1930588, 26.4919001], [83.196616, 26.5021597], [83.1929684, 26.5172705], [83.2024619, 26.521282], [83.2046815, 26.5244849], [83.2006359, 26.5288781], [83.1895304, 26.5319207], [83.1867354, 26.5310284], [83.1808628, 26.5250152], [83.1774763, 26.524669], [83.1744718, 26.5257576], [83.170701, 26.5304116], [83.1643964, 26.5350391], [83.1547597, 26.5393602], [83.1534807, 26.5412288], [83.1526191, 26.5472084], [83.1478392, 26.5567358], [83.1398813, 26.5623734], [83.143741, 26.5659154], [83.1448609, 26.5708839], [83.1418558, 26.5785515], [83.1369373, 26.5798562], [83.1389405, 26.5844726], [83.1378966, 26.5848789], [83.1393875, 26.5868598], [83.1372852, 26.594437], [83.1326772, 26.5954527], [83.130067, 26.5975242], [83.1273312, 26.5953852], [83.1226729, 26.5945458], [83.1190086, 26.5923524], [83.1170057, 26.5934895], [83.1176431, 26.5952947], [83.1168499, 26.5964093], [83.1179391, 26.5982506], [83.1094551, 26.6013547], [83.1109507, 26.6042746], [83.1111511, 26.6079977], [83.1083897, 26.6091707], [83.1084647, 26.6112286], [83.1074856, 26.6118151], [83.1105874, 26.6189772], [83.1122189, 26.6203989], [83.1147193, 26.6200516], [83.1165116, 26.6222675], [83.1207493, 26.6198669], [83.1224915, 26.623441], [83.1256697, 26.6240096], [83.1275828, 26.6277192], [83.1327046, 26.6309185], [83.1347385, 26.6349122], [83.1351906, 26.6368391], [83.128502, 26.6385453], [83.1347647, 26.6472004], [83.1313147, 26.6499804], [83.1325256, 26.6580085], [83.1266242, 26.6595927], [83.1203259, 26.6599401], [83.1171768, 26.6589788], [83.1145952, 26.6602196], [83.1110995, 26.6595921], [83.1074434, 26.6573262], [83.1012606, 26.6584129], [83.1008532, 26.6614003], [83.104624, 26.6676285], [83.1047838, 26.672615], [83.1129207, 26.6782975], [83.1162909, 26.6845659], [83.1094283, 26.6865148], [83.105812, 26.6823807], [83.1036267, 26.6823082], [83.0991856, 26.6833679], [83.0975074, 26.6849335], [83.0973209, 26.6874425], [83.0903128, 26.687423], [83.0885891, 26.6892547], [83.0881962, 26.6921563], [83.0898718, 26.7004015], [83.0845562, 26.699705], [83.0827215, 26.7020015], [83.086527, 26.7106489], [83.0869278, 26.7143494], [83.0929556, 26.7218511], [83.0983833, 26.7202141], [83.1013034, 26.718053], [83.1019225, 26.7133509], [83.1080581, 26.7112714], [83.1090704, 26.7153342], [83.1072635, 26.7159871], [83.1057656, 26.718681], [83.1066197, 26.7191008], [83.1061972, 26.7219978], [83.1074129, 26.7245251], [83.1176801, 26.7202209], [83.1186901, 26.7214394], [83.1189662, 26.7257491], [83.1203531, 26.7274549], [83.1222176, 26.725862], [83.1254742, 26.7263809], [83.1273085, 26.7252076], [83.1279919, 26.7272113], [83.1302936, 26.7287365], [83.133555, 26.7256045], [83.1348619, 26.7293139], [83.1317361, 26.7303611], [83.1323745, 26.7331092], [83.1308166, 26.7345488], [83.131083, 26.7355552], [83.1391802, 26.7394987], [83.1399898, 26.7422288], [83.1443376, 26.7436949], [83.1386391, 26.7538299], [83.1403131, 26.7554227], [83.1430324, 26.7536895], [83.1432545, 26.7601381], [83.1421792, 26.7634054], [83.144683, 26.7653094], [83.1414563, 26.7698857], [83.1375351, 26.7720477], [83.134212, 26.772445], [83.1337999, 26.7740065], [83.1354139, 26.7758565], [83.1348157, 26.7769937], [83.1332018, 26.7771608], [83.1283299, 26.7730139], [83.1299737, 26.7695751], [83.1251223, 26.7653965], [83.1176269, 26.7635461], [83.1102572, 26.7640013], [83.1062699, 26.7680126], [83.1098086, 26.7725302], [83.1088278, 26.775143], [83.1116786, 26.7746603], [83.1099036, 26.7768759], [83.1145537, 26.7816236], [83.1124011, 26.7873681], [83.1099672, 26.7898408], [83.1110728, 26.7942137], [83.1092674, 26.7952107], [83.1074674, 26.7939877], [83.1039874, 26.7957787], [83.1051736, 26.7991633], [83.1027094, 26.7997586], [83.1018843, 26.801717], [83.099606, 26.8027409], [83.0973572, 26.8067478], [83.100173, 26.8085083], [83.1069771, 26.8100436], [83.1085961, 26.8129454], [83.1117899, 26.8111587], [83.1132131, 26.8115244], [83.1199871, 26.8198506], [83.1198561, 26.8256223], [83.1224513, 26.8289211], [83.1214705, 26.8301981], [83.1187492, 26.8302567], [83.1180851, 26.8316195], [83.120298, 26.8397198], [83.1183059, 26.840884], [83.1185071, 26.8422242], [83.1208158, 26.84819], [83.1231502, 26.847107], [83.1264303, 26.8486458], [83.1345361, 26.8626527], [83.1306721, 26.8652702], [83.1328257, 26.8673188], [83.1336511, 26.870076], [83.1347279, 26.8696923], [83.1354828, 26.8712175], [83.1310851, 26.8729732], [83.1335862, 26.8769803], [83.1298826, 26.8770662], [83.1324492, 26.880816], [83.1341552, 26.8812717], [83.1357106, 26.8859602], [83.1385897, 26.8901386], [83.1497337, 26.8743655], [83.1528077, 26.8722351], [83.1585996, 26.8728295], [83.1623353, 26.8789657], [83.1651891, 26.8804721], [83.1688321, 26.8795595], [83.1731031, 26.8764896], [83.1791525, 26.8781074], [83.1821759, 26.8763463], [83.1822928, 26.8787018], [83.191225, 26.878716], [83.1966464, 26.8815518], [83.2031313, 26.8789085], [83.2050095, 26.880753], [83.2078926, 26.8801242], [83.2081707, 26.8819065], [83.2092627, 26.8819103], [83.2097046, 26.880606], [83.2135105, 26.8825982], [83.2166402, 26.8820862], [83.2156674, 26.8864732], [83.2136403, 26.8876658], [83.2174917, 26.895813], [83.21699, 26.8977853], [83.21193, 26.9018814], [83.2062287, 26.9038162], [83.2030002, 26.9080238], [83.2032031, 26.9101716], [83.2072655, 26.9106792], [83.2132722, 26.9062714], [83.2158841, 26.9057056], [83.2202098, 26.9081396], [83.2194099, 26.9086951], [83.2210598, 26.9132969], [83.2078952, 26.9251914], [83.208279, 26.9267796], [83.2122073, 26.9288259], [83.2067647, 26.935246], [83.2077137, 26.9387156], [83.2094261, 26.939396], [83.2186684, 26.9310916], [83.2234884, 26.9334213], [83.2265925, 26.9366004], [83.2117801, 26.9494485], [83.2084799, 26.9467249], [83.2087357, 26.945362], [83.2073399, 26.9438286], [83.2079737, 26.9430294], [83.2034096, 26.9396251], [83.198465, 26.9392307], [83.1940134, 26.9420709], [83.1928293, 26.9446982], [83.195686, 26.9475938], [83.2038576, 26.9467366], [83.2074697, 26.9492931], [83.2084837, 26.9518467], [83.1949356, 26.9637311], [83.1943021, 26.9654913], [83.2084944, 26.9663951], [83.2133149, 26.967755], [83.2258692, 26.9780984], [83.2257465, 26.9817897], [83.2231538, 26.9890116], [83.2183436, 26.9953775], [83.2113826, 27.0003265], [83.2137036, 27.0062325], [83.2139555, 27.0148482], [83.2117387, 27.0145731], [83.2068125, 27.0176442], [83.2039534, 27.0176734], [83.1988844, 27.0112819], [83.1891581, 27.0095863], [83.1723206, 27.0029078], [83.1683837, 26.9994631], [83.1679914, 27.0006651], [83.1719265, 27.0092066], [83.1598293, 27.0094792], [83.1592365, 27.0117628], [83.16156, 27.0145609], [83.1606994, 27.0163002], [83.1585014, 27.0169926], [83.1549583, 27.012708], [83.1523603, 27.0123144], [83.1580122, 27.0073793], [83.1572294, 27.0027354], [83.1542102, 27.00312], [83.1510126, 27.0081274], [83.1498301, 27.0132767], [83.1481375, 27.01248], [83.1472753, 27.0078173], [83.1457395, 27.0055993], [83.1434164, 27.0039845], [83.1406751, 27.0050927], [83.1407443, 27.0142283], [83.139556, 27.018709], [83.1450614, 27.0196525], [83.1454445, 27.020516], [83.1426969, 27.0236503], [83.1403153, 27.0201525], [83.1383192, 27.0203342], [83.1372937, 27.0245482], [83.1379082, 27.0260756], [83.1421212, 27.02822], [83.1454947, 27.0315966], [83.1468482, 27.0346489], [83.1465055, 27.0372287], [83.1499384, 27.0393479], [83.150459, 27.0411811], [83.149447, 27.0418496], [83.1454438, 27.0399849], [83.1425827, 27.0399407], [83.1359269, 27.0473261], [83.1308548, 27.0474878], [83.1306861, 27.0498007], [83.1330565, 27.0537444], [83.1375063, 27.0558234], [83.139395, 27.0544892], [83.1380633, 27.0509503], [83.1382584, 27.0478875], [83.1478678, 27.0515041], [83.1493982, 27.0534791], [83.1415182, 27.0562094], [83.1437781, 27.0611477], [83.1356775, 27.0641252], [83.1407513, 27.0694532], [83.1378477, 27.0759126], [83.135308, 27.0778368], [83.1352556, 27.0803601], [83.128718, 27.0834883], [83.131623, 27.0848081], [83.1247671, 27.0869701], [83.1283489, 27.091862], [83.128627, 27.0962321], [83.1272993, 27.0987907], [83.1238054, 27.1009927], [83.1247616, 27.1054834], [83.1205301, 27.1094776], [83.1194634, 27.1141495], [83.1225085, 27.1132058], [83.1295034, 27.1077405], [83.1309101, 27.1103498], [83.1455534, 27.1128874], [83.1492581, 27.1162122], [83.1524668, 27.110076]]]}}]}