{"type": "FeatureCollection", "features": [{"type": "Feature", "properties": {"name": null, "type": "Reserved", "kind": "forest"}, "geometry": {"type": "Polygon", "coordinates": [[[84.2036127, 26.8327637], [84.2052879, 26.832984], [84.2062375, 26.8313904], [84.2057127, 26.8290576], [84.2022265, 26.8285001], [84.2001215, 26.8321429], [84.2019737, 26.833604], [84.2036127, 26.8327637]]]}}, {"type": "Feature", "properties": {"name": null, "type": "Reserved", "kind": "forest"}, "geometry": {"type": "Polygon", "coordinates": [[[84.2036127, 26.8327637], [84.2052879, 26.832984], [84.2062375, 26.8313904], [84.2057127, 26.8290576], [84.2022265, 26.8285001], [84.2001215, 26.8321429], [84.2019737, 26.833604], [84.2036127, 26.8327637]]]}}, {"type": "Feature", "properties": {"name": "Bansgaon RF", "type": "Reserved", "kind": "forest"}, "geometry": {"type": "Polygon", "coordinates": [[[84.1541153, 26.8345249], [84.1567413, 26.8363246], [84.1591603, 26.8351464], [84.1609608, 26.8351459], [84.1606536, 26.8338239], [84.1655725, 26.8335429], [84.1657732, 26.8319095], [84.1640782, 26.8317611], [84.1636956, 26.8308632], [84.1625488, 26.8308816], [84.1622767, 26.829131], [84.1598018, 26.8275479], [84.1578353, 26.8278101], [84.1536265, 26.8307168], [84.1511122, 26.8318092], [84.1498898, 26.8314664], [84.1493066, 26.8318771], [84.1471593, 26.8339214], [84.1469032, 26.835997], [84.148196, 26.8367144], [84.1472154, 26.837468], [84.148689, 26.8378918], [84.1504897, 26.837499], [84.1522196, 26.8359646], [84.1523652, 26.8351118], [84.1541153, 26.8345249]]]}}, {"type": "Feature", "properties": {"name": null, "type": "Reserved", "kind": "forest"}, "geometry": {"type": "Polygon", "coordinates": [[[84.0429868, 26.9015368], [84.042023, 26.9009274], [84.0411808, 26.9023216], [84.0428067, 26.9018798], [84.0445482, 26.9031961], [84.0433683, 26.9051653], [84.043527, 26.907356], [84.0464554, 26.9077149], [84.0470315, 26.9087656], [84.0471651, 26.9075247], [84.0452524, 26.9064354], [84.0448235, 26.9056529], [84.0454981, 26.9029549], [84.0429868, 26.9015368]]]}}, {"type": "Feature", "properties": {"name": null, "type": "Reserved", "kind": "forest"}, "geometry": {"type": "Polygon", "coordinates": [[[84.0486364, 26.9016781], [84.0458851, 26.9015724], [84.0452719, 26.9019704], [84.0463869, 26.9033504], [84.0454292, 26.9055788], [84.0460679, 26.9064817], [84.0477536, 26.9068164], [84.0472663, 26.9052324], [84.0486364, 26.9016781]]]}}, {"type": "Feature", "properties": {"name": null, "type": "Protected", "kind": "forest"}, "geometry": {"type": "Polygon", "coordinates": [[[83.4864926, 26.6790145], [83.485932, 26.6779384], [83.4829232, 26.6782981], [83.4821323, 26.6789866], [83.4820597, 26.6797471], [83.4849908, 26.6793964], [83.4858979, 26.6803753], [83.4867264, 26.6793912], [83.4864926, 26.6790145]]]}}, {"type": "Feature", "properties": {"name": null, "type": "Protected", "kind": "forest"}, "geometry": {"type": "Polygon", "coordinates": [[[83.4758963, 26.6807033], [83.4745879, 26.6814031], [83.4744727, 26.6823215], [83.472893, 26.6831341], [83.473275, 26.6835898], [83.4732027, 26.6856431], [83.4746425, 26.6871884], [83.4739747, 26.6883122], [83.4757913, 26.6896046], [83.4766852, 26.6886771], [83.4768582, 26.6877542], [83.4782445, 26.6869821], [83.4775757, 26.6849493], [83.4762441, 26.6840494], [83.4772586, 26.6834376], [83.4758963, 26.6807033]]]}}, {"type": "Feature", "properties": {"name": null, "type": "Protected", "kind": "forest"}, "geometry": {"type": "Polygon", "coordinates": [[[83.4756907, 26.6740764], [83.475319, 26.6742141], [83.4754925, 26.6747308], [83.4747893, 26.6749453], [83.4751713, 26.6757665], [83.4761758, 26.6752857], [83.4756907, 26.6740764]]]}}, {"type": "Feature", "properties": {"name": null, "type": "Protected", "kind": "forest"}, "geometry": {"type": "Polygon", "coordinates": [[[83.4775936, 26.6788774], [83.4761119, 26.6793516], [83.476484, 26.6805339], [83.4781593, 26.6802197], [83.4775936, 26.6788774]]]}}, {"type": "Feature", "properties": {"name": null, "type": "Protected", "kind": "forest"}, "geometry": {"type": "Polygon", "coordinates": [[[83.4746345, 26.6699542], [83.4748647, 26.6674022], [83.4742419, 26.6674227], [83.4718643, 26.6696842], [83.473698, 26.6708864], [83.4747025, 26.6704055], [83.4746345, 26.6699542]]]}}, {"type": "Feature", "properties": {"name": "Bharatpur Lachhmanpur PF", "type": "Protected", "kind": "forest"}, "geometry": {"type": "Polygon", "coordinates": [[[83.5391922, 26.6474615], [83.5398451, 26.6473807], [83.5391938, 26.6453044], [83.5412982, 26.6449582], [83.5417377, 26.6482573], [83.5447011, 26.6478077], [83.5442555, 26.6459211], [83.5448782, 26.6458402], [83.5441405, 26.6451494], [83.5436345, 26.6434432], [83.5421277, 26.643817], [83.5419221, 26.6433656], [83.5406464, 26.6435769], [83.5408583, 26.6422187], [83.5424853, 26.6422467], [83.5429589, 26.6401982], [83.5440536, 26.6401988], [83.5436386, 26.6376985], [83.543965, 26.6375904], [83.5432579, 26.6363671], [83.5419572, 26.6364476], [83.5418623, 26.6358699], [83.5450332, 26.6323607], [83.5446769, 26.6321394], [83.5431697, 26.6332848], [83.5409381, 26.6362438], [83.5385577, 26.6364455], [83.5360204, 26.6382129], [83.5359089, 26.6396028], [83.5371506, 26.6443961], [83.5369875, 26.6475639], [83.5395777, 26.6490277], [83.5391922, 26.6474615]]]}}, {"type": "Feature", "properties": {"name": "Mithabel Panrar PF", "type": "Protected", "kind": "forest"}, "geometry": {"type": "Polygon", "coordinates": [[[83.6120172, 26.5521183], [83.6086704, 26.5514501], [83.6086304, 26.55071], [83.6109788, 26.5500559], [83.6112397, 26.5493654], [83.609313, 26.5490268], [83.6063279, 26.5462375], [83.6067495, 26.5453395], [83.608852, 26.5446718], [83.608812, 26.5441123], [83.6071714, 26.5432095], [83.6083605, 26.5424695], [83.6079693, 26.5416617], [83.6091885, 26.5415671], [83.608712, 26.5406825], [83.6075128, 26.540335], [83.5994847, 26.5426939], [83.5996802, 26.5434701], [83.6071265, 26.5413909], [83.6064889, 26.5431824], [83.6034383, 26.5436693], [83.6032923, 26.5460114], [83.6014256, 26.5467873], [83.6020123, 26.5487099], [83.6029707, 26.5485566], [83.6040041, 26.5496173], [83.6054292, 26.5492655], [83.6058004, 26.5502132], [83.606804, 26.5494868], [83.6077069, 26.5521044], [83.6093024, 26.5530522], [83.6103813, 26.5524341], [83.6123683, 26.5530435], [83.6120172, 26.5521183]]]}}, {"type": "Feature", "properties": {"name": "Ramgarh RF", "type": "Reserved", "kind": "forest"}, "geometry": {"type": "Polygon", "coordinates": [[[83.4645279, 26.7568613], [83.4820975, 26.7583183], [83.4837145, 26.7573196], [83.4840621, 26.7566141], [83.483433, 26.755547], [83.4842583, 26.7548416], [83.4832067, 26.7534194], [83.4850754, 26.7525591], [83.4853405, 26.7519533], [83.4859212, 26.747574], [83.484658, 26.743847], [83.485291, 26.7429533], [83.4850309, 26.7402683], [83.484317, 26.7396661], [83.4829576, 26.7400185], [83.4813813, 26.738408], [83.4818103, 26.7365215], [83.4813853, 26.7355965], [83.4819578, 26.7343757], [83.4802989, 26.7332052], [83.4806278, 26.7327335], [83.4802557, 26.7319235], [83.4807729, 26.7309261], [83.4803176, 26.7294776], [83.4781686, 26.7278357], [83.4791123, 26.7250239], [83.478235, 26.7239028], [83.4784178, 26.722391], [83.4773067, 26.7207555], [83.4773362, 26.7190023], [83.4767102, 26.717933], [83.4758408, 26.7176172], [83.4766225, 26.7166429], [83.4765753, 26.7152147], [83.475312, 26.7141697], [83.4752614, 26.7129603], [83.4735195, 26.7103321], [83.4752574, 26.7084859], [83.4754403, 26.7070757], [83.4763268, 26.7058976], [83.4754819, 26.7035693], [83.4761795, 26.7012632], [83.4752496, 26.7001239], [83.4764928, 26.6991556], [83.4762604, 26.6974007], [83.4604089, 26.7057161], [83.4610209, 26.7006324], [83.4563205, 26.7000148], [83.4547507, 26.7015449], [83.4575158, 26.7072749], [83.4567018, 26.707691], [83.4599275, 26.7104138], [83.4557747, 26.7115111], [83.4534108, 26.7136616], [83.4484491, 26.716882], [83.4468033, 26.7167737], [83.4405749, 26.718631], [83.4448421, 26.734942], [83.4483292, 26.7326278], [83.4524077, 26.7322734], [83.4525465, 26.7319225], [83.4654723, 26.7311465], [83.4670664, 26.7319837], [83.4729919, 26.7289301], [83.4780207, 26.7289368], [83.479764, 26.7334057], [83.475708, 26.733863], [83.475565, 26.7346866], [83.4662868, 26.7361623], [83.4664501, 26.7370422], [83.4683871, 26.7369442], [83.4687157, 26.7394578], [83.4654682, 26.7403073], [83.464022, 26.7383352], [83.4583652, 26.7405702], [83.459308, 26.7430385], [83.4493867, 26.7469928], [83.4501639, 26.7500138], [83.4508102, 26.7570228], [83.4513376, 26.7574907], [83.4530547, 26.7573475], [83.4548098, 26.7599855], [83.4600909, 26.7600619], [83.4611547, 26.7617576], [83.4658793, 26.7603868], [83.4645279, 26.7568613]]]}}, {"type": "Feature", "properties": {"name": null, "type": "Protected", "kind": "forest"}, "geometry": {"type": "Polygon", "coordinates": [[[83.4622217, 26.8019519], [83.4603939, 26.8021626], [83.4599046, 26.8002332], [83.4585937, 26.7998103], [83.4572217, 26.7983013], [83.4574924, 26.7975943], [83.4585934, 26.7977069], [83.4591801, 26.7963023], [83.4580476, 26.7962983], [83.4573865, 26.7951248], [83.4575912, 26.7939733], [83.4567366, 26.792901], [83.4573452, 26.7909389], [83.4562381, 26.7907151], [83.4548623, 26.7890191], [83.4599047, 26.7881207], [83.4596657, 26.7870692], [83.4572824, 26.787284], [83.4564374, 26.7861356], [83.4560151, 26.786174], [83.4555173, 26.7864065], [83.4556257, 26.7876429], [83.4543658, 26.7880127], [83.4547807, 26.7862148], [83.453536, 26.7843309], [83.455097, 26.782643], [83.4530204, 26.7825371], [83.4514188, 26.7809556], [83.4515519, 26.7803403], [83.4526329, 26.7796627], [83.4553631, 26.7808604], [83.4596168, 26.7814736], [83.4612659, 26.7812476], [83.4613639, 26.7806385], [83.4585582, 26.780314], [83.4595232, 26.7778589], [83.4591762, 26.7776378], [83.4578337, 26.7774215], [83.4565342, 26.778437], [83.4550937, 26.7778596], [83.4526851, 26.7752425], [83.4512899, 26.7726941], [83.4527827, 26.7717293], [83.4547785, 26.7714088], [83.4558276, 26.7694762], [83.455135, 26.7685635], [83.4540089, 26.7685659], [83.4500169, 26.7663934], [83.4422122, 26.7654598], [83.435702, 26.7628785], [83.431532, 26.7629551], [83.4288348, 26.7652542], [83.4225586, 26.7641819], [83.4208342, 26.7647503], [83.4208743, 26.7652918], [83.4231086, 26.7667948], [83.4236515, 26.7676658], [83.4232166, 26.7680583], [83.424961, 26.7686339], [83.4247473, 26.769225], [83.4260091, 26.7696877], [83.4281609, 26.7694735], [83.4284926, 26.7703603], [83.4300435, 26.7714141], [83.4299653, 26.7743382], [83.4309255, 26.7750784], [83.4305962, 26.7761366], [83.431041, 26.7785035], [83.4315839, 26.7793045], [83.4354076, 26.7808051], [83.4359304, 26.7825132], [83.4348922, 26.7841896], [83.4349499, 26.7851147], [83.4373559, 26.7888016], [83.4386556, 26.7886098], [83.4392188, 26.7894107], [83.4387335, 26.7900922], [83.4405187, 26.7922266], [83.4402176, 26.7947299], [83.4495233, 26.7992791], [83.4568647, 26.8001767], [83.459988, 26.8026875], [83.4611144, 26.8027076], [83.4629923, 26.8037139], [83.4628106, 26.802914], [83.4621439, 26.8025306], [83.4622217, 26.8019519]]]}}, {"type": "Feature", "properties": {"name": null, "type": "Protected", "kind": "forest"}, "geometry": {"type": "Polygon", "coordinates": [[[83.4622217, 26.8019519], [83.4603939, 26.8021626], [83.4599046, 26.8002332], [83.4585937, 26.7998103], [83.4572217, 26.7983013], [83.4574924, 26.7975943], [83.4585934, 26.7977069], [83.4591801, 26.7963023], [83.4580476, 26.7962983], [83.4573865, 26.7951248], [83.4575912, 26.7939733], [83.4567366, 26.792901], [83.4573452, 26.7909389], [83.4562381, 26.7907151], [83.4548623, 26.7890191], [83.4599047, 26.7881207], [83.4596657, 26.7870692], [83.4572824, 26.787284], [83.4564374, 26.7861356], [83.4560151, 26.786174], [83.4555173, 26.7864065], [83.4556257, 26.7876429], [83.4543658, 26.7880127], [83.4547807, 26.7862148], [83.453536, 26.7843309], [83.455097, 26.782643], [83.4530204, 26.7825371], [83.4514188, 26.7809556], [83.4515519, 26.7803403], [83.4526329, 26.7796627], [83.4553631, 26.7808604], [83.4596168, 26.7814736], [83.4612659, 26.7812476], [83.4613639, 26.7806385], [83.4585582, 26.780314], [83.4595232, 26.7778589], [83.4591762, 26.7776378], [83.4578337, 26.7774215], [83.4565342, 26.778437], [83.4550937, 26.7778596], [83.4526851, 26.7752425], [83.4512899, 26.7726941], [83.4527827, 26.7717293], [83.4547785, 26.7714088], [83.4558276, 26.7694762], [83.455135, 26.7685635], [83.4540089, 26.7685659], [83.4500169, 26.7663934], [83.4422122, 26.7654598], [83.435702, 26.7628785], [83.431532, 26.7629551], [83.4288348, 26.7652542], [83.4225586, 26.7641819], [83.4208342, 26.7647503], [83.4208743, 26.7652918], [83.4231086, 26.7667948], [83.4236515, 26.7676658], [83.4232166, 26.7680583], [83.424961, 26.7686339], [83.4247473, 26.769225], [83.4260091, 26.7696877], [83.4281609, 26.7694735], [83.4284926, 26.7703603], [83.4300435, 26.7714141], [83.4299653, 26.7743382], [83.4309255, 26.7750784], [83.4305962, 26.7761366], [83.431041, 26.7785035], [83.4315839, 26.7793045], [83.4354076, 26.7808051], [83.4359304, 26.7825132], [83.4348922, 26.7841896], [83.4349499, 26.7851147], [83.4373559, 26.7888016], [83.4386556, 26.7886098], [83.4392188, 26.7894107], [83.4387335, 26.7900922], [83.4405187, 26.7922266], [83.4402176, 26.7947299], [83.4495233, 26.7992791], [83.4568647, 26.8001767], [83.459988, 26.8026875], [83.4611144, 26.8027076], [83.4629923, 26.8037139], [83.4628106, 26.802914], [83.4621439, 26.8025306], [83.4622217, 26.8019519]]]}}, {"type": "Feature", "properties": {"name": null, "type": "Protected", "kind": "forest"}, "geometry": {"type": "Polygon", "coordinates": [[[83.3981749, 26.8716073], [83.3946523, 26.8724547], [83.3951751, 26.8740162], [83.3984735, 26.8740149], [83.3981749, 26.8716073]]]}}, {"type": "Feature", "properties": {"name": null, "type": "Protected", "kind": "forest"}, "geometry": {"type": "Polygon", "coordinates": [[[83.3981749, 26.8716073], [83.3946523, 26.8724547], [83.3951751, 26.8740162], [83.3984735, 26.8740149], [83.3981749, 26.8716073]]]}}, {"type": "Feature", "properties": {"name": null, "type": "Protected", "kind": "forest"}, "geometry": {"type": "Polygon", "coordinates": [[[83.3981749, 26.8716073], [83.3946523, 26.8724547], [83.3951751, 26.8740162], [83.3984735, 26.8740149], [83.3981749, 26.8716073]]]}}, {"type": "Feature", "properties": {"name": "Bangain PF", "type": "Protected", "kind": "forest"}, "geometry": {"type": "Polygon", "coordinates": [[[83.4054546, 26.8552081], [83.4079568, 26.8524786], [83.4079797, 26.8514135], [83.4071578, 26.8490307], [83.4039345, 26.8442624], [83.4015477, 26.8433051], [83.401259, 26.841861], [83.400273, 26.8417593], [83.4002958, 26.8414185], [83.4012037, 26.8414797], [83.4009851, 26.8408614], [83.3992393, 26.8412625], [83.3974714, 26.8405288], [83.3969884, 26.8408491], [83.3931459, 26.8385126], [83.391574, 26.8384196], [83.3922734, 26.8380701], [83.3922056, 26.8376774], [83.3928821, 26.8378221], [83.3921479, 26.8373886], [83.3909756, 26.8376973], [83.3907922, 26.8372844], [83.3912626, 26.8372553], [83.3909534, 26.8367588], [83.3914463, 26.8367792], [83.3908733, 26.8357298], [83.3922868, 26.8359469], [83.3920003, 26.8353918], [83.3863611, 26.8359358], [83.387027, 26.8371522], [83.3865668, 26.8372333], [83.3852017, 26.8356353], [83.3845124, 26.8359555], [83.3855557, 26.8372645], [83.3877384, 26.8381521], [83.3872999, 26.8401713], [83.3876443, 26.840661], [83.3874497, 26.8425359], [83.3887019, 26.84366], [83.3882639, 26.8443639], [83.3885853, 26.8457042], [83.3876092, 26.8461348], [83.3892742, 26.8465574], [83.3906169, 26.8477446], [83.3910861, 26.8505765], [83.3922353, 26.8514635], [83.3922473, 26.8528016], [83.3932405, 26.8540406], [83.3935491, 26.8560894], [83.3943865, 26.8568839], [83.395907, 26.8608373], [83.3956096, 26.8623197], [83.3933149, 26.863244], [83.39192, 26.8661678], [83.3985796, 26.8652628], [83.4044621, 26.8635743], [83.4047695, 26.8616655], [83.4044251, 26.860799], [83.4055981, 26.8586761], [83.4050479, 26.8560406], [83.4057372, 26.8557316], [83.4054546, 26.8552081]]]}}, {"type": "Feature", "properties": {"name": null, "type": "Protected", "kind": "forest"}, "geometry": {"type": "Polygon", "coordinates": [[[83.4026947, 26.8837757], [83.4033191, 26.8833258], [83.4025157, 26.882125], [83.4016542, 26.8822688], [83.3996212, 26.8787891], [83.3979271, 26.8790763], [83.3972455, 26.8781834], [83.3982324, 26.8771589], [83.3968443, 26.8755545], [83.3937625, 26.8756349], [83.3912818, 26.8768633], [83.3921231, 26.8785028], [83.3946075, 26.8801662], [83.3997794, 26.8849105], [83.401243, 26.8846273], [83.4033275, 26.8850828], [83.4026947, 26.8837757]]]}}, {"type": "Feature", "properties": {"name": "Ekla PF", "type": "Protected", "kind": "forest"}, "geometry": {"type": "Polygon", "coordinates": [[[83.4026947, 26.8837757], [83.4033191, 26.8833258], [83.4025157, 26.882125], [83.4016542, 26.8822688], [83.3996212, 26.8787891], [83.3979271, 26.8790763], [83.3972455, 26.8781834], [83.3982324, 26.8771589], [83.3968443, 26.8755545], [83.3937625, 26.8756349], [83.3912818, 26.8768633], [83.3921231, 26.8785028], [83.3946075, 26.8801662], [83.3997794, 26.8849105], [83.401243, 26.8846273], [83.4033275, 26.8850828], [83.4026947, 26.8837757]]]}}, {"type": "Feature", "properties": {"name": null, "type": "Reserved", "kind": "forest"}, "geometry": {"type": "Polygon", "coordinates": [[[83.4316428, 26.9474709], [83.4309456, 26.9463563], [83.4309558, 26.943933], [83.4303641, 26.9432899], [83.4281186, 26.9423648], [83.4260894, 26.9427008], [83.4246245, 26.9412476], [83.4231895, 26.941525], [83.4236878, 26.9433165], [83.4219431, 26.9429531], [83.4221598, 26.9416647], [83.4188443, 26.9413078], [83.4182202, 26.9398683], [83.4164705, 26.9403644], [83.4162919, 26.9398522], [83.4172208, 26.9397079], [83.4166672, 26.9381871], [83.4148245, 26.9384034], [83.4141047, 26.9377535], [83.4144698, 26.9370157], [83.4131158, 26.9356392], [83.4119755, 26.935366], [83.4107417, 26.936688], [83.4098152, 26.9367555], [83.408932, 26.9353655], [83.4069686, 26.9346273], [83.4060118, 26.9354867], [83.4067086, 26.9373685], [83.4006423, 26.9357854], [83.3986611, 26.9356811], [83.3984519, 26.9365767], [83.3988368, 26.9373372], [83.3982097, 26.9378086], [83.3959673, 26.9363414], [83.3948168, 26.9365215], [83.3948365, 26.9375166], [83.3961274, 26.9393107], [83.3963106, 26.9406149], [83.3951372, 26.9413929], [83.3920482, 26.9414641], [83.387637, 26.9426224], [83.3834655, 26.942763], [83.3897769, 26.948855], [83.3938597, 26.9507877], [83.3997971, 26.9562474], [83.405215, 26.9579792], [83.4378855, 26.9581247], [83.4316428, 26.9474709]]]}}, {"type": "Feature", "properties": {"name": null, "type": "Protected", "kind": "forest"}, "geometry": {"type": "MultiPolygon", "coordinates": [[[[83.4534712, 26.9512855], [83.45330256448877, 26.95140271507445], [83.45350273055, 26.95129689463704], [83.4534712, 26.9512855]]], [[[83.4508878, 26.9503607], [83.4483778, 26.9502346], [83.4472975, 26.9485289], [83.4455144, 26.9475963], [83.4450186, 26.9492929], [83.44424978656063, 26.950150497769176], [83.4453238, 26.9508153], [83.4508878, 26.9503607]]]]}}, {"type": "Feature", "properties": {"name": null, "type": "Protected", "kind": "forest"}, "geometry": {"type": "Polygon", "coordinates": [[[83.3187512, 26.9996204], [83.3182152, 26.9999956], [83.3195504, 26.9999958], [83.3187512, 26.9996204]]]}}, {"type": "Feature", "properties": {"name": null, "type": "Protected", "kind": "forest"}, "geometry": {"type": "Polygon", "coordinates": [[[83.3193843, 26.9952161], [83.3199949, 26.9947526], [83.3197028, 26.992759], [83.3201889, 26.9920167], [83.3201359, 26.990611], [83.3198639, 26.9899974], [83.319126, 26.9900943], [83.3203471, 26.9860171], [83.3180008, 26.9856876], [83.3148753, 26.9876264], [83.3141169, 26.9864371], [83.3169159, 26.9840783], [83.315051, 26.9813767], [83.3140482, 26.9812231], [83.3124942, 26.9819629], [83.3097865, 26.9844561], [83.3076061, 26.9873824], [83.307309, 26.986798], [83.3059591, 26.9868995], [83.3053539, 26.9890787], [83.3061161, 26.9912506], [83.3070317, 26.9902266], [83.3066759, 26.9889173], [83.3087228, 26.988759], [83.3101174, 26.9919786], [83.3109504, 26.9912507], [83.3117198, 26.9923604], [83.3119027, 26.9914051], [83.3128305, 26.9909817], [83.313068, 26.9889825], [83.3142663, 26.9881692], [83.3148986, 26.9893832], [83.3157749, 26.9889153], [83.3173058, 26.9899327], [83.3179023, 26.9915], [83.3162917, 26.9925234], [83.3154178, 26.9943404], [83.3178428, 26.99472], [83.318948, 26.9955407], [83.3193843, 26.9952161]]]}}, {"type": "Feature", "properties": {"name": null, "type": "Protected", "kind": "forest"}, "geometry": {"type": "Polygon", "coordinates": [[[83.3193843, 26.9952161], [83.3199949, 26.9947526], [83.3197028, 26.992759], [83.3201889, 26.9920167], [83.3201359, 26.990611], [83.3198639, 26.9899974], [83.319126, 26.9900943], [83.3203471, 26.9860171], [83.3180008, 26.9856876], [83.3148753, 26.9876264], [83.3141169, 26.9864371], [83.3169159, 26.9840783], [83.315051, 26.9813767], [83.3140482, 26.9812231], [83.3124942, 26.9819629], [83.3097865, 26.9844561], [83.3076061, 26.9873824], [83.307309, 26.986798], [83.3059591, 26.9868995], [83.3053539, 26.9890787], [83.3061161, 26.9912506], [83.3070317, 26.9902266], [83.3066759, 26.9889173], [83.3087228, 26.988759], [83.3101174, 26.9919786], [83.3109504, 26.9912507], [83.3117198, 26.9923604], [83.3119027, 26.9914051], [83.3128305, 26.9909817], [83.313068, 26.9889825], [83.3142663, 26.9881692], [83.3148986, 26.9893832], [83.3157749, 26.9889153], [83.3173058, 26.9899327], [83.3179023, 26.9915], [83.3162917, 26.9925234], [83.3154178, 26.9943404], [83.3178428, 26.99472], [83.318948, 26.9955407], [83.3193843, 26.9952161]]]}}, {"type": "Feature", "properties": {"name": null, "type": "Protected", "kind": "forest"}, "geometry": {"type": "Polygon", "coordinates": [[[83.2958522, 26.9877719], [83.2961973, 26.9869594], [83.2937317, 26.9875282], [83.2935855, 26.9879001], [83.2953207, 26.9886134], [83.2959327, 26.9884848], [83.2958522, 26.9877719]]]}}, {"type": "Feature", "properties": {"name": null, "type": "Protected", "kind": "forest"}, "geometry": {"type": "Polygon", "coordinates": [[[83.2961973, 26.9869594], [83.2937317, 26.9875282], [83.2935855, 26.9879001], [83.2938524, 26.9883018], [83.2959327, 26.9884848], [83.2961973, 26.9869594]]]}}, {"type": "Feature", "properties": {"name": null, "type": "Protected", "kind": "forest"}, "geometry": {"type": "Polygon", "coordinates": [[[83.2985196, 26.9862446], [83.296691, 26.9868987], [83.2967816, 26.9875169], [83.2985948, 26.9876976], [83.2985196, 26.9862446]]]}}, {"type": "Feature", "properties": {"name": null, "type": "Protected", "kind": "forest"}, "geometry": {"type": "Polygon", "coordinates": [[[83.2985196, 26.9862446], [83.296691, 26.9868987], [83.2967816, 26.9875169], [83.2985948, 26.9876976], [83.2985196, 26.9862446]]]}}, {"type": "Feature", "properties": {"name": null, "type": "Protected", "kind": "forest"}, "geometry": {"type": "Polygon", "coordinates": [[[83.3176362, 26.9620513], [83.3182329, 26.9615865], [83.3181246, 26.960517], [83.3190456, 26.9598139], [83.3189127, 26.9594204], [83.3161154, 26.9601989], [83.3163068, 26.9619047], [83.3136981, 26.9622206], [83.3135833, 26.9643087], [83.3169169, 26.9634134], [83.3166778, 26.962677], [83.3176362, 26.9620513]]]}}, {"type": "Feature", "properties": {"name": null, "type": "Protected", "kind": "forest"}, "geometry": {"type": "Polygon", "coordinates": [[[83.3176362, 26.9620513], [83.3182329, 26.9615865], [83.3181246, 26.960517], [83.3190456, 26.9598139], [83.3189127, 26.9594204], [83.3161154, 26.9601989], [83.3163068, 26.9619047], [83.3136981, 26.9622206], [83.3135833, 26.9643087], [83.3169169, 26.9634134], [83.3166778, 26.962677], [83.3176362, 26.9620513]]]}}, {"type": "Feature", "properties": {"name": null, "type": "Protected", "kind": "forest"}, "geometry": {"type": "Polygon", "coordinates": [[[83.3200506, 26.9560676], [83.3194286, 26.9553591], [83.3199724, 26.9543957], [83.3188469, 26.9531999], [83.3160875, 26.9550929], [83.3163216, 26.9564851], [83.3172533, 26.9565889], [83.3183033, 26.9580057], [83.3191719, 26.9569159], [83.3202595, 26.9567399], [83.3200506, 26.9560676]]]}}, {"type": "Feature", "properties": {"name": null, "type": "Protected", "kind": "forest"}, "geometry": {"type": "Polygon", "coordinates": [[[83.3200506, 26.9560676], [83.3194286, 26.9553591], [83.3199724, 26.9543957], [83.3188469, 26.9531999], [83.3160875, 26.9550929], [83.3163216, 26.9564851], [83.3172533, 26.9565889], [83.3183033, 26.9580057], [83.3191719, 26.9569159], [83.3202595, 26.9567399], [83.3200506, 26.9560676]]]}}, {"type": "Feature", "properties": {"name": null, "type": "Protected", "kind": "forest"}, "geometry": {"type": "Polygon", "coordinates": [[[83.3132726, 26.9572275], [83.3122352, 26.9580894], [83.313333, 26.9597116], [83.3130863, 26.960111], [83.3142546, 26.9614354], [83.3145895, 26.9612662], [83.3142647, 26.9604404], [83.3158383, 26.9598898], [83.3132726, 26.9572275]]]}}, {"type": "Feature", "properties": {"name": null, "type": "Protected", "kind": "forest"}, "geometry": {"type": "Polygon", "coordinates": [[[83.3132726, 26.9572275], [83.3122352, 26.9580894], [83.313333, 26.9597116], [83.3130863, 26.960111], [83.3142546, 26.9614354], [83.3145895, 26.9612662], [83.3142647, 26.9604404], [83.3158383, 26.9598898], [83.3132726, 26.9572275]]]}}, {"type": "Feature", "properties": {"name": null, "type": "Protected", "kind": "forest"}, "geometry": {"type": "Polygon", "coordinates": [[[83.3111451, 26.9540258], [83.3103273, 26.9545528], [83.3113641, 26.9556368], [83.3121799, 26.9551427], [83.3111451, 26.9540258]]]}}, {"type": "Feature", "properties": {"name": null, "type": "Protected", "kind": "forest"}, "geometry": {"type": "Polygon", "coordinates": [[[83.3111451, 26.9540258], [83.3103273, 26.9545528], [83.3113641, 26.9556368], [83.3121799, 26.9551427], [83.3111451, 26.9540258]]]}}, {"type": "Feature", "properties": {"name": null, "type": "Protected", "kind": "forest"}, "geometry": {"type": "Polygon", "coordinates": [[[83.2911444, 26.9916677], [83.2900134, 26.9922316], [83.2910759, 26.9940955], [83.293252, 26.9938454], [83.2920448, 26.9916679], [83.2911444, 26.9916677]]]}}, {"type": "Feature", "properties": {"name": null, "type": "Protected", "kind": "forest"}, "geometry": {"type": "Polygon", "coordinates": [[[83.2911444, 26.9916677], [83.2900134, 26.9922316], [83.2910759, 26.9940955], [83.293252, 26.9938454], [83.2920448, 26.9916679], [83.2911444, 26.9916677]]]}}, {"type": "Feature", "properties": {"name": null, "type": "Protected", "kind": "forest"}, "geometry": {"type": "Polygon", "coordinates": [[[83.2861111, 26.9963419], [83.2855624, 26.9950602], [83.2845248, 26.9947757], [83.285832, 26.9943585], [83.2859339, 26.9932237], [83.2851297, 26.9927159], [83.2824322, 26.9927424], [83.2801322, 26.9946281], [83.2801471, 26.9953727], [83.2822679, 26.99524], [83.2835722, 26.9964768], [83.2861111, 26.9963419]]]}}, {"type": "Feature", "properties": {"name": null, "type": "Protected", "kind": "forest"}, "geometry": {"type": "Polygon", "coordinates": [[[83.2861111, 26.9963419], [83.2855624, 26.9950602], [83.2845248, 26.9947757], [83.285832, 26.9943585], [83.2859339, 26.9932237], [83.2851297, 26.9927159], [83.2824322, 26.9927424], [83.2801322, 26.9946281], [83.2801471, 26.9953727], [83.2822679, 26.99524], [83.2835722, 26.9964768], [83.2861111, 26.9963419]]]}}, {"type": "Feature", "properties": {"name": "Chhitahi RF", "type": "Reserved", "kind": "forest"}, "geometry": {"type": "Polygon", "coordinates": [[[83.2693753, 27.0776989], [83.269328, 27.0775518], [83.268953419395, 27.077604507035844], [83.26938390045389, 27.077725656967665], [83.2693753, 27.0776989]]]}}, {"type": "Feature", "properties": {"name": null, "type": "Reserved", "kind": "forest"}, "geometry": {"type": "GeometryCollection", "geometries": [{"type": "Polygon", "coordinates": [[[83.3133322, 27.0873168], [83.31333207442074, 27.087316680721674], [83.3133321, 27.0873168], [83.3133322, 27.0873168]]]}, {"type": "Polygon", "coordinates": [[[83.3131964, 27.0865765], [83.31316401669, 27.086533012820748], [83.31318950700287, 27.086651876379744], [83.3131964, 27.0865765]]]}, {"type": "Polygon", "coordinates": [[[83.3129199, 27.0852137], [83.3129049, 27.0849249], [83.31276403859772, 27.084667879984554], [83.31289266384937, 27.08526767078573], [83.3129199, 27.0852137]]]}, {"type": "Polygon", "coordinates": [[[83.312638, 27.0845864], [83.3116854, 27.0840806], [83.31114854903275, 27.084283641864616], [83.3127638417317, 27.084667662373214], [83.312638, 27.0845864]]]}, {"type": "Polygon", "coordinates": [[[83.3099059, 27.083958], [83.3097346, 27.0838179], [83.3093165576691, 27.08384810330515], [83.3099418407219, 27.083996758416458], [83.3099059, 27.083958]]]}, {"type": "Polygon", "coordinates": [[[83.3077435, 27.0834741], [83.30774253778489, 27.08347271025161], [83.3077434, 27.0834741], [83.3077435, 27.0834741]]]}, {"type": "Polygon", "coordinates": [[[83.3073608, 27.0825579], [83.3071594, 27.0822554], [83.30673558683321, 27.081849671588493], [83.30752450120973, 27.083121271295344], [83.3073608, 27.0825579]]]}, {"type": "Polygon", "coordinates": [[[83.30646923046086, 27.081420256375058], [83.3064692, 27.0814203], [83.30646961858197, 27.081420974685035], [83.30646923046086, 27.081420256375058]]]}, {"type": "Polygon", "coordinates": [[[83.3067619, 27.0810098], [83.3075387, 27.0802205], [83.3074834, 27.0799678], [83.3067511826591, 27.081016454789637], [83.3067619, 27.0810098]]]}, {"type": "Polygon", "coordinates": [[[83.3074129, 27.0799136], [83.3066618, 27.0798997], [83.30638859656692, 27.080278278648187], [83.3074834, 27.0799678], [83.3074129, 27.0799136]]]}, {"type": "Polygon", "coordinates": [[[83.3055978, 27.0802646], [83.3059318, 27.0782703], [83.30547768285409, 27.077607064527566], [83.3055775, 27.0805083], [83.3055978, 27.0802646]]]}, {"type": "Polygon", "coordinates": [[[83.3054893, 27.0763884], [83.3055047, 27.0759642], [83.30539430700124, 27.07518370349444], [83.30543766090831, 27.076443806574993], [83.3054893, 27.0763884]]]}, {"type": "Polygon", "coordinates": [[[83.3053942, 27.0751834], [83.30539414313371, 27.0751833490468], [83.30539420201141, 27.075183405705097], [83.3053942, 27.0751834]]]}, {"type": "Polygon", "coordinates": [[[83.3052583, 27.0750526], [83.3050921, 27.0748629], [83.30501738760839, 27.074820795367845], [83.30525909726377, 27.075053393747716], [83.3052583, 27.0750526]]]}, {"type": "Polygon", "coordinates": [[[83.3035959, 27.0734002], [83.3034499, 27.0731068], [83.30298690054272, 27.0728668477645], [83.30360750331802, 27.073464056841043], [83.3035959, 27.0734002]]]}, {"type": "Polygon", "coordinates": [[[83.3038535, 27.0724346], [83.3046953, 27.0724351], [83.3051089, 27.071957], [83.30358265238546, 27.07243937647096], [83.3038535, 27.0724346]]]}, {"type": "Polygon", "coordinates": [[[83.305099, 27.0717854], [83.3047163, 27.0712393], [83.30405081978199, 27.070971409908424], [83.3051089, 27.071957], [83.305099, 27.0717854]]]}, {"type": "Polygon", "coordinates": [[[83.3043235, 27.0704358], [83.3056339, 27.0708832], [83.3063348, 27.0705316], [83.30384223101385, 27.070244328115766], [83.3043235, 27.0704358]]]}, {"type": "Polygon", "coordinates": [[[83.3063701, 27.0703512], [83.3060529, 27.0697688], [83.30386728384622, 27.06879350425648], [83.3063348, 27.0705316], [83.3063701, 27.0703512]]]}, {"type": "Polygon", "coordinates": [[[83.30332175588805, 27.068409129084348], [83.3033217, 27.0684092], [83.30332179067538, 27.068409263870905], [83.30332175588805, 27.068409129084348]]]}, {"type": "Polygon", "coordinates": [[[83.3039725, 27.0676244], [83.3046784, 27.0672322], [83.3046334, 27.0667448], [83.30392116123234, 27.06764855101388], [83.3039725, 27.0676244]]]}, {"type": "Polygon", "coordinates": [[[83.302482, 27.0651598], [83.3022402, 27.0650107], [83.3018017, 27.0649789], [83.30123012748483, 27.06536933009856], [83.302482, 27.0651598]]]}, {"type": "Polygon", "coordinates": [[[83.299882, 27.0657314], [83.2983071, 27.0633228], [83.2977429, 27.063382], [83.29768932677855, 27.06393417140038], [83.2980888, 27.0636652], [83.299882, 27.0657314]]]}, {"type": "Polygon", "coordinates": [[[83.2966303, 27.0645852], [83.2965222, 27.0623639], [83.2952885, 27.0612553], [83.29443229891154, 27.06134251881307], [83.295977, 27.0623185], [83.2966303, 27.0645852]]]}, {"type": "Polygon", "coordinates": [[[83.2942764, 27.0612101], [83.2941605, 27.0607493], [83.29404362266006, 27.0601870351302], [83.2939899, 27.061063], [83.2942764, 27.0612101]]]}, {"type": "Polygon", "coordinates": [[[83.2942559, 27.0581003], [83.2953713, 27.058122], [83.29575392288997, 27.05753924678243], [83.2941743, 27.0580563], [83.29416683114238, 27.05817808207262], [83.2942559, 27.0581003]]]}, {"type": "Polygon", "coordinates": [[[83.2962153, 27.0573974], [83.2986706, 27.0572567], [83.2987692, 27.0567161], [83.2996309, 27.0565998], [83.2996759, 27.0559365], [83.29804249871775, 27.054735440593102], [83.2996352, 27.0562688], [83.2962153, 27.0573974]]]}, {"type": "Polygon", "coordinates": [[[83.2978984, 27.0545627], [83.2983691, 27.0540326], [83.29785871800127, 27.05374008440583], [83.2977967, 27.0544988], [83.2978984, 27.0545627]]]}, {"type": "Polygon", "coordinates": [[[83.2979301, 27.0531651], [83.2984527, 27.0527727], [83.29797182475738, 27.05235635939179], [83.29790416292018, 27.053184120525202], [83.2979301, 27.0531651]]]}, {"type": "Polygon", "coordinates": [[[83.2980276, 27.051924], [83.2983837, 27.0516337], [83.2983852, 27.0496463], [83.2977621, 27.0480285], [83.2969932, 27.0478583], [83.2976514, 27.0468802], [83.29741147065509, 27.04644637275143], [83.2966016, 27.0482032], [83.2981423, 27.0502708], [83.2980276, 27.051924]]]}, {"type": "Polygon", "coordinates": [[[83.2974401, 27.0461912], [83.2976411, 27.045772], [83.29701523804712, 27.045200675307136], [83.29737670329382, 27.04633706924585], [83.2974401, 27.0461912]]]}, {"type": "Polygon", "coordinates": [[[83.2970406, 27.0444612], [83.2974979, 27.0438624], [83.29711890096289, 27.043092820755938], [83.2966297, 27.0439886], [83.2970406, 27.0444612]]]}, {"type": "Polygon", "coordinates": [[[83.2973427, 27.0427141], [83.2977888, 27.042305], [83.297730285397, 27.041973310518284], [83.29731985931099, 27.042724844544082], [83.2973427, 27.0427141]]]}, {"type": "Polygon", "coordinates": [[[83.2974105, 27.0413762], [83.2953934, 27.0411055], [83.29507554299892, 27.041216394393757], [83.29748159526956, 27.041445326313745], [83.2974105, 27.0413762]]]}, {"type": "Polygon", "coordinates": [[[83.2934209, 27.0408249], [83.2929977, 27.0403853], [83.29274659711659, 27.04016785573407], [83.2927918, 27.0409991], [83.29362587429857, 27.04107846079898], [83.2934209, 27.0408249]]]}, {"type": "Polygon", "coordinates": [[[83.2926867, 27.0390173], [83.2926868, 27.0388575], [83.29267463956639, 27.03884461490382], [83.29268530429393, 27.039040730570242], [83.2926867, 27.0390173]]]}, {"type": "Polygon", "coordinates": [[[83.2929362, 27.0382302], [83.2931262, 27.0366201], [83.2865674, 27.0354675], [83.2721653, 27.0301419], [83.2702621, 27.0296177], [83.26999489521502, 27.030081097820997], [83.2870305, 27.036104], [83.292568, 27.0368836], [83.2929362, 27.0382302]]]}, {"type": "Polygon", "coordinates": [[[83.2690655, 27.0313678], [83.2677174, 27.0339427], [83.26761499166322, 27.034709631090074], [83.26937254037462, 27.030915201131755], [83.2690655, 27.0313678]]]}, {"type": "Polygon", "coordinates": [[[83.2678295, 27.0379634], [83.2680149, 27.0390511], [83.26913317619243, 27.042587140802826], [83.26779290722205, 27.03780006451654], [83.2678295, 27.0379634]]]}, {"type": "Point", "coordinates": [83.3027998, 27.0726868]}]}}, {"type": "Feature", "properties": {"name": null, "type": "Reserved", "kind": "forest"}, "geometry": {"type": "Polygon", "coordinates": [[[83.3115158, 27.0410451], [83.3132724, 27.0396063], [83.3147529, 27.0394735], [83.3166994, 27.0384382], [83.3189953, 27.0382105], [83.3218416, 27.0367807], [83.3242384, 27.0370394], [83.3249838, 27.0364848], [83.3249882, 27.0352374], [83.3255548, 27.0348214], [83.3280944, 27.0361352], [83.3302663, 27.035047], [83.331897, 27.0348574], [83.3322433, 27.0325739], [83.3307427, 27.0317312], [83.329928, 27.0274606], [83.3300103, 27.0255882], [83.3314085, 27.0229349], [83.3321037, 27.02009], [83.3392824, 27.0115924], [83.339483, 27.0107466], [83.3360906, 27.0108878], [83.3335568, 27.0101922], [83.3303182, 27.0080386], [83.3246702, 27.0059613], [83.3225836, 27.0043701], [83.3205565, 27.0015817], [83.3200688, 27.0019376], [83.3189041, 27.003558], [83.3183103, 27.0054837], [83.3165135, 27.0074583], [83.3154226, 27.0101231], [83.3139831, 27.0116371], [83.313553, 27.0138875], [83.3115006, 27.017738], [83.3127399, 27.0235048], [83.3123537, 27.0261146], [83.3128654, 27.028811], [83.3125737, 27.029681], [83.3110576, 27.0319998], [83.3066324, 27.0345536], [83.304574, 27.0368819], [83.2984959, 27.0418326], [83.3013982, 27.0421907], [83.3054002, 27.0412903], [83.3066649, 27.0414759], [83.3077943, 27.042272], [83.3088463, 27.0422549], [83.3115158, 27.0410451]]]}}, {"type": "Feature", "properties": {"name": null, "type": "Reserved", "kind": "forest"}, "geometry": {"type": "Polygon", "coordinates": [[[83.8264517, 27.1802638], [83.8237468, 27.1808088], [83.824024, 27.18177], [83.8265372, 27.1809091], [83.8264517, 27.1802638]]]}}, {"type": "Feature", "properties": {"name": null, "type": "Reserved", "kind": "forest"}, "geometry": {"type": "Polygon", "coordinates": [[[83.8392532, 27.178201], [83.8370734, 27.1783719], [83.8362455, 27.1796802], [83.8396361, 27.1796315], [83.8392532, 27.178201]]]}}, {"type": "Feature", "properties": {"name": "Kalnahi RF", "type": "Reserved", "kind": "forest"}, "geometry": {"type": "Polygon", "coordinates": [[[83.8046749, 27.2159567], [83.8072062, 27.214512], [83.8096056, 27.2101472], [83.8092294, 27.2095702], [83.8099327, 27.209481], [83.8108882, 27.2067404], [83.8115647, 27.2056586], [83.81354416635237, 27.204501912244897], [83.8136083, 27.2036441], [83.8147019, 27.2021511], [83.8053014, 27.2028394], [83.8067122, 27.1984676], [83.8065765, 27.1974568], [83.8050309, 27.1997032], [83.8032333, 27.2013086], [83.79983584809082, 27.20303639156169], [83.7974734, 27.2115531], [83.7988085, 27.2149787], [83.8016894, 27.216286], [83.8046749, 27.2159567]]]}}, {"type": "Feature", "properties": {"name": null, "type": "Reserved", "kind": "forest"}, "geometry": {"type": "Polygon", "coordinates": [[[83.8218157, 27.1783398], [83.8238839, 27.1789092], [83.8243541, 27.1774518], [83.8266451, 27.1765411], [83.8260352, 27.1750834], [83.8254198, 27.1746726], [83.8247279, 27.1762471], [83.8231384, 27.1766527], [83.8230474, 27.1770317], [83.8193897, 27.1765339], [83.8143692, 27.1768523], [83.8089113, 27.1746522], [83.8087445, 27.175171], [83.8128809, 27.1767297], [83.8125469, 27.1784352], [83.8143933, 27.1789505], [83.8130953, 27.1812467], [83.8138415, 27.182285], [83.8154164, 27.1811485], [83.8181162, 27.1804862], [83.8218157, 27.1783398]]]}}, {"type": "Feature", "properties": {"name": "Rampur Gonha RF", "type": "Reserved", "kind": "forest"}, "geometry": {"type": "Polygon", "coordinates": [[[83.8094688, 27.1790611], [83.8086104, 27.1800714], [83.8046408, 27.178048], [83.8036783, 27.1761703], [83.8029096, 27.1711205], [83.7974062, 27.1696601], [83.7951067, 27.1681335], [83.79226880266035, 27.16519760361969], [83.7871535, 27.1644782], [83.7841512, 27.1652524], [83.7827428, 27.1661675], [83.7827161, 27.1679409], [83.7845307, 27.1700133], [83.7874658, 27.1715449], [83.7926465, 27.1726716], [83.7933479, 27.1724509], [83.7954965, 27.1734269], [83.79520878585252, 27.17393125797347], [83.8075656, 27.1811763], [83.81133816362528, 27.184753433379583], [83.8103798, 27.1829873], [83.8114551, 27.1820492], [83.8094688, 27.1790611]]]}}, {"type": "Feature", "properties": {"name": "Kalnahi RF", "type": "Reserved", "kind": "forest"}, "geometry": {"type": "Polygon", "coordinates": [[[83.8213427, 27.1707386], [83.81795105418935, 27.168595771731702], [83.82478313043197, 27.17414251766522], [83.8243028, 27.1734227], [83.8213427, 27.1707386]]]}}, {"type": "Feature", "properties": {"name": "Domakhnd RF", "type": "Reserved", "kind": "forest"}, "geometry": {"type": "MultiPolygon", "coordinates": [[[[83.81871, 27.2477569], [83.8197209, 27.2468534], [83.8173, 27.2465428], [83.81691437538608, 27.241074672149026], [83.8173, 27.2470706], [83.81871, 27.2477569]]], [[[83.8166112, 27.2410238], [83.8137272, 27.2433781], [83.812829, 27.2427415], [83.8109804, 27.2444192], [83.8069202, 27.2463169], [83.806259, 27.2459467], [83.80527002904748, 27.246550333587333], [83.8074535, 27.2497781], [83.81691410044496, 27.241073683604633], [83.8166112, 27.2410238]]], [[[83.8030079, 27.2458299], [83.8048009, 27.2446148], [83.8041399, 27.243897], [83.8022113, 27.2440223], [83.8018533, 27.2434536], [83.8043897, 27.240048], [83.8043399, 27.2390643], [83.8014659, 27.2414047], [83.7990671, 27.2425406], [83.7986229, 27.2424411], [83.7978265, 27.2406627], [83.7977717, 27.2395256], [83.7991804, 27.2392557], [83.7991807, 27.2387142], [83.8002812, 27.2387373], [83.8006402, 27.2378486], [83.8016602, 27.2375784], [83.8011932, 27.2339276], [83.8021074, 27.232967], [83.8033743, 27.2332383], [83.8038984, 27.2347187], [83.804368, 27.23457], [83.804268, 27.2328824], [83.80062860750004, 27.232740517569795], [83.7952402, 27.2360315], [83.7942439, 27.2385714], [83.7949011, 27.2442212], [83.8001699, 27.247085], [83.8030079, 27.2458299]]]]}}, {"type": "Feature", "properties": {"name": "Kalnahi RF", "type": "Reserved", "kind": "forest"}, "geometry": {"type": "MultiPolygon", "coordinates": [[[[83.8282074, 27.2488619], [83.828873, 27.2463359], [83.8270305, 27.2424763], [83.8250464, 27.2425748], [83.82506537904408, 27.24915672147569], [83.8282074, 27.2488619]]], [[[83.819783, 27.2484841], [83.8196267, 27.2479244], [83.820228, 27.2469185], [83.8197209, 27.2468534], [83.81847809165275, 27.247964163712286], [83.819783, 27.2484841]]]]}}, {"type": "Feature", "properties": {"name": null, "type": "Reserved", "kind": "forest"}, "geometry": {"type": "MultiPolygon", "coordinates": [[[[83.9920481, 27.1835446], [83.99197692907622, 27.183735203491782], [83.99212273924817, 27.183518658218016], [83.9920481, 27.1835446]]], [[[83.9902843, 27.1856535], [83.9895609, 27.1871928], [83.98922007863975, 27.18782945099501], [83.99062022914805, 27.1857500626296], [83.9902843, 27.1856535]]], [[[83.9883777, 27.1897568], [83.9880764, 27.1912371], [83.98787868813052, 27.19378993121547], [83.98875287242558, 27.18880238256659], [83.9883777, 27.1897568]]], [[[83.9815044, 27.2015801], [83.98150780343603, 27.201720831432475], [83.98168154661217, 27.201579960151093], [83.9815044, 27.2015801]]], [[[83.946743, 27.2379178], [83.9458383718653, 27.238057082597074], [83.9482624, 27.2378222], [83.946743, 27.2379178]]], [[[83.9294943, 27.2401231], [83.92895883388583, 27.24027334711749], [83.929504893842, 27.240128298722897], [83.9294943, 27.2401231]]], [[[83.8750054, 27.2500559], [83.8508208, 27.2500539], [83.84900108396046, 27.253107466052114], [83.8494811, 27.2533093], [83.8478604, 27.2566794], [83.837656, 27.2691947], [83.8368572, 27.2785237], [83.8396239, 27.2828864], [83.8473814, 27.2890882], [83.857868, 27.2914876], [83.8612327, 27.2932941], [83.8621166, 27.2949128], [83.8664755, 27.2909362], [83.8671208, 27.2930504], [83.8734237, 27.2972451], [83.8782792, 27.293942], [83.8811316, 27.2836319], [83.8944197, 27.2853533], [83.9071425, 27.2757758], [83.9046853, 27.272381], [83.905072, 27.2576158], [83.91027132127391, 27.250049375114013], [83.8750054, 27.2500559]]]]}}]}