{"type": "FeatureCollection", "features": [{"type": "Feature", "properties": {"name": "Bajaj Hindustan Sugar Ltd", "type": "Sugar mill", "district": "Deoria", "kind": "valuechain", "note": "Sugar mill at Pratappur, est. 1903 (formerly Pratappur Sugar & Industries Ltd).", "location_source": "India Post pincode 274703 (Paratappur S.O.)", "approximate": true}, "geometry": {"type": "Point", "coordinates": [84.1544, 26.31011]}}, {"type": "Feature", "properties": {"name": "U.P. State Sugar & Cane Dev. Corp. Ltd", "type": "Sugar mill", "district": "Deoria", "kind": "valuechain", "note": "State sugar & cane development unit at Bhatni (xlsx value-chain infra).", "location_source": "geocoded (town-level, approximate)", "approximate": true}, "geometry": {"type": "Point", "coordinates": [83.93335, 26.38156]}}, {"type": "Feature", "properties": {"name": "India Glycols Ltd", "type": "Distillery", "district": "Gorakhpur", "kind": "valuechain", "note": "Ethanol / distillery unit (xlsx value-chain infra).", "location_source": "VEDAS ethanol-plants dataset", "approximate": false}, "geometry": {"type": "Point", "coordinates": [83.22756, 26.74715]}}, {"type": "Feature", "properties": {"name": "Sarraiya (Saraya) Distillery", "type": "Distillery", "district": "Gorakhpur", "kind": "valuechain", "note": "Distillery at Sardarnagar / Saraya (xlsx value-chain infra).", "location_source": "geocoded (town-level, approximate)", "approximate": true}, "geometry": {"type": "Point", "coordinates": [83.55938, 26.68739]}}, {"type": "Feature", "properties": {"name": "Kaptanganj Distillery", "type": "Distillery", "district": "Kushinagar", "kind": "valuechain", "note": "Distillery at Kaptanganj (xlsx value-chain infra).", "location_source": "geocoded (town-level, approximate)", "approximate": true}, "geometry": {"type": "Point", "coordinates": [83.69922, 26.92566]}}]}