{"type": "FeatureCollection", "features": [{"type": "Feature", "properties": {"name": "Badhya Buzurg", "kind": "village", "cluster": 1, "block": "Deoria Sadar", "matched": "Barhaya Buzurg"}, "geometry": {"type": "Point", "coordinates": [83.717816, 26.492138]}}, {"type": "Feature", "properties": {"name": "Banki", "kind": "village", "cluster": 1, "block": "Deoria Sadar", "matched": "Banki Khas"}, "geometry": {"type": "Point", "coordinates": [83.717028, 26.5093]}}, {"type": "Feature", "properties": {"name": "Jungle Thakurahi", "kind": "village", "cluster": 1, "block": "Deoria Sadar", "matched": "Jungle Thakurahi"}, "geometry": {"type": "Point", "coordinates": [83.72104, 26.448789]}}, {"type": "Feature", "properties": {"name": "Parsa Jungle", "kind": "village", "cluster": 1, "block": "Baitalpur", "matched": "Parsa Jungle"}, "geometry": {"type": "Point", "coordinates": [83.713949, 26.473116]}}, {"type": "Feature", "properties": {"name": "Mishrauliya", "kind": "village", "cluster": 1, "block": "Baitalpur", "matched": "Misraulia"}, "geometry": {"type": "Point", "coordinates": [83.705077, 26.498471]}}]}